,place_name,address,place_id,latitude,longitude,types,city
0,"Sub District Hospital, Achalpur","Road, Bilanpura, Achalpur, Maharashtra 444806, India",ChIJxSnKn6jz1jsRkkj93ol5Wz8,21.2579714,77.5119352,"['hospital', 'health', 'point_of_interest', 'establishment']",Achalpur
1,Akbari Hospital,"Akbari Chowk,Biyabani, Achalpur, Maharashtra 444806, India",ChIJU4zTeajz1jsRy3oHiP3QCzM,21.2579714,77.5139737,"['hospital', 'health', 'point_of_interest', 'establishment']",Achalpur
2,Dr. Sami's Clinic,"Lohar Line, Road, Achalpur, Maharashtra 444806, India",ChIJ8-fBSa_z1jsRwRuL3UzKiUU,21.2565103,77.5098941,"['hospital', 'health', 'point_of_interest', 'establishment']",Achalpur
3,Life Care Hospital,"Road, Bilanpura, Achalpur, Maharashtra 444806, India",ChIJa_i92aHz1jsRKNxS4IO9ChQ,21.267246,77.5107678,"['hospital', 'health', 'point_of_interest', 'establishment']",Achalpur
4,Aastha Hospital,"Bilanpura, Achalpur, Maharashtra 444806, India",ChIJHZNZ2aDz1jsRSbtoQ_WfuwU,21.265051,77.5135516,"['hospital', 'health', 'point_of_interest', 'establishment']",Achalpur
5,Sawalkar Hospital,"Bilanpura, Achalpur, Maharashtra 444806, India",ChIJ4QsUzafz1jsRbh-3DxtXjho,21.2589997,77.5133226,"['hospital', 'health', 'point_of_interest', 'establishment']",Achalpur
6,HAIDER HOSPITAL,"Thasil Rd, Bilanpura, Achalpur, Maharashtra 444806, India",ChIJ05Zs1q7z1jsRCMREixD7vww,21.2548749,77.5099226,"['hospital', 'health', 'point_of_interest', 'establishment']",Achalpur
7,Bhamkar Hospital,"Amt.Road, 444806, Harde Nagar, Paratwada, Maharashtra 444805, India",ChIJbTD5YXHz1jsR9wLhYrimsXo,21.2765271,77.52359009999999,"['hospital', 'health', 'point_of_interest', 'establishment']",Achalpur
8,Mate Hospital,"Chawalmandi, Achalpur, Maharashtra 444806, India",ChIJ78e6EaPz1jsRuj0Vtg7SQgw,21.2654769,77.50662919999999,"['hospital', 'health', 'point_of_interest', 'establishment']",Achalpur
9,Ali Hospital,"Biyabani, Achalpur, Maharashtra 444806, India",ChIJ_ehJ26fz1jsRQ6Qh6JKF_WA,21.2687234,77.51751229999999,"['hospital', 'health', 'point_of_interest', 'establishment']",Achalpur
10,Ubhad Accidental and Maternity Hospital,"Paratwada, Amravati, MSH-6, Paratwada Amravati Road, Achalpur, Achalpur, Maharashtra 444805, India",ChIJXTPIBnnz1jsRWuS2JxPhi0A,21.285242,77.51933799999999,"['hospital', 'health', 'point_of_interest', 'establishment']",Achalpur
11,Gotmare Hospital,"Achalpur - Paratwada Connecting Rd, Harde Nagar, Paratwada, Maharashtra 444805, India",ChIJOc4EgX_z1jsRQhu4YtALDD0,21.2908289,77.5162885,"['hospital', 'health', 'point_of_interest', 'establishment']",Achalpur
12,Dr.Anhar's Clinic,"Road, Chawalmandi, Achalpur, Maharashtra 444806, India",ChIJUYhehqbz1jsR8OcXs4IJKlQ,21.2611679,77.51090119999999,"['hospital', 'health', 'point_of_interest', 'establishment']",Achalpur
13,Rawat Orthopadic Hospital,"Achalpur - Paratwada Connecting Rd, opposite cotton market, Harde Nagar, Paratwada, Maharashtra 444805, India",ChIJW1pCbnjz1jsRRJk5xZJLK3E,21.2829848,77.5168879,"['hospital', 'health', 'point_of_interest', 'establishment']",Achalpur
14,Salkar hospital,"Bilanpura, Achalpur, Maharashtra 444806, India",ChIJFekyI5_z1jsRwtzj2yK4X9k,21.2592903,77.5133742,"['hospital', 'health', 'point_of_interest', 'establishment']",Achalpur
15,Government Animal Hospital,"Bilanpura, Achalpur, Maharashtra 444806, India",ChIJs1dYjqjz1jsRZbzshc___Gc,21.2571359,77.51266509999999,"['hospital', 'health', 'point_of_interest', 'establishment']",Achalpur
16,Noor Polyclinic,"mominpura,, Achalpur, Maharashtra, India",ChIJaw8bvKPz1jsRIhO_oyCNF2U,21.2654319,77.5085221,"['hospital', 'health', 'point_of_interest', 'establishment']",Achalpur
17,Ashtavinayaka Hospital 24hrs Service,"Achalpur - Paratwada Connecting Rd, near Gulab bagh, Harde Nagar, Paratwada, Maharashtra 444805, India",ChIJN1Ch56jz1jsRP5BE_IC-_04,21.2821241,77.51729160000001,"['hospital', 'health', 'point_of_interest', 'establishment']",Achalpur
18,Pashu Vaidykiy Laghu Sarv Chikistalay,"Bilanpura, Achalpur, Maharashtra 444806, India",ChIJJRbXj6jz1jsRAeiKGsmA2Fc,21.2572193,77.5125116,"['hospital', 'health', 'point_of_interest', 'establishment']",Achalpur
19,"Sukhakarta Hospital, Pararwada","Paratwada, Amravati, MSH-24, Shegaon Paratwada Road, Achalpur, Achalpur, Maharashtra 444805, India",ChIJ8cZi8n_01jsRiWqnO1Lz15I,21.294105,77.514831,"['hospital', 'health', 'point_of_interest', 'establishment']",Achalpur
20,Adoni hospital,"Achalpur Road, Infront of PWD Office Jijau Nagar, Paratwada, Maharashtra 444805, India",ChIJLQgGmnjz1jsR3v6DSWNHzco,21.2858358,77.5167733,"['hospital', 'health', 'point_of_interest', 'establishment']",Achalpur
21,ALi Hospital,"Bilanpura, Achalpur, Maharashtra 444806, India",ChIJBVjjSPLz1jsR2J-i0GgIckU,21.2588351,77.5143626,"['hospital', 'health', 'point_of_interest', 'establishment']",Achalpur
22,Yashwant Hospital,"Yashwant Hospital, Achalpur - Paratwada Connecting Rd, Paratwada, Maharashtra 444805, India",ChIJx462Zpfz1jsRNGTQ16a70VM,21.2872403,77.51758,"['hospital', 'health', 'point_of_interest', 'establishment']",Achalpur
23,Sarvoday Hospital,"Achalpur - Paratwada Connecting Rd, Harde Nagar, Paratwada, Maharashtra 444805, India",ChIJC_jIZHjz1jsR-8Op0v_EODM,21.2842094,77.51696,"['hospital', 'health', 'point_of_interest', 'establishment']",Achalpur
24,Bhansali Eye Hospital,"Achalpur - Paratwada Connecting Rd, near LIC office, Bansal Nagar, Harde Nagar, Paratwada, Maharashtra 444805, India",ChIJ8abyIUfz1jsRN3hZm_LYu2M,21.2905789,77.5141039,"['hospital', 'health', 'point_of_interest', 'establishment']",Achalpur
25,"shrikamal hospital,Rathi","Achalpur - Paratwada Connecting Rd, Near S.T. Stand, Harde Nagar, Paratwada, Maharashtra 444805, India",ChIJYzwjzHjz1jsRrt005z7kdYI,21.287474,77.51791539999999,"['hospital', 'health', 'point_of_interest', 'establishment']",Achalpur
26,Dr. Indranil Thakre Hospital,"Achalpur - Paratwada Connecting Rd, Harde Nagar, Paratwada, Maharashtra 444805, India",ChIJ9zqGUH_z1jsRZd5GlvLNTF4,21.2884159,77.51660559999999,"['hospital', 'health', 'point_of_interest', 'establishment']",Achalpur
27,Sanjivani Hospital,"Maharashtra, Ghamodiya Plot, Harde Nagar, Paratwada, Maharashtra 444805, India",ChIJtyIyiXjz1jsRKkRPmg_jXm4,21.2851444,77.5170254,"['hospital', 'health', 'point_of_interest', 'establishment']",Achalpur
28,Dafale Hospital,"Harde Nagar, Paratwada, Maharashtra 444805, India",ChIJi7k3mHjz1jsR0zg1Im_cPcI,21.2860942,77.5167129,"['hospital', 'health', 'point_of_interest', 'establishment']",Achalpur
29,Chishtiya Clinic,"Thasil Rd, Farmanpura, Achalpur, Maharashtra 444806, India",ChIJsY1J77vz1jsRwmaA1xgi49c,21.2554816,77.50902769999999,"['hospital', 'health', 'point_of_interest', 'establishment']",Achalpur
30,Khandelwal Ayurveda Hospital,"Harde Nagar, Paratwada, Maharashtra 444805, India",ChIJQ8EKKoDz1jsRo5vHONbN4jY,21.2824521,77.5162952,"['hospital', 'health', 'point_of_interest', 'establishment']",Achalpur
31,Anjali Hospital,"Civil Lines, Paratwada, Maharashtra 444805, India",ChIJM4HJhH701jsRuI3RYlzYLHQ,21.2986437,77.51250639999999,"['hospital', 'health', 'point_of_interest', 'establishment']",Achalpur
32,Rilif Clinical LAB,"Devali, Bilanpura, Achalpur, Maharashtra 444806, India",ChIJLylg86_z1jsR_ARXIEKf4fI,21.2547636,77.51008279999999,"['hospital', 'health', 'point_of_interest', 'establishment']",Achalpur
33,KHAN HOSPITAL,"Nooru Miya Masjid Ashrafpura, Achalpur, Maharashtra 444806, India",ChIJvwV4NVXz1jsRvXVEDwEA7ps,21.2581232,77.5098783,"['hospital', 'health', 'point_of_interest', 'establishment']",Achalpur
34,Astha Bal Rugnalay,"Achalpur, Maharashtra 444808, India",ChIJAw5Ersvw1jsR2NBqDS4J-Z8,21.2815917,77.4046838,"['hospital', 'health', 'point_of_interest', 'establishment']",Achalpur
35,Agraja Clinical Laboratory,"Bilanpura, Achalpur, Maharashtra 444806, India",ChIJzT2DVxHz1jsRqr0qfvV-iTY,21.2590382,77.5137893,"['hospital', 'health', 'point_of_interest', 'establishment']",Achalpur
36,Bhansali Hospital,"Kandali Rd, Vakil Line, Bhoipura, Paratwada, Maharashtra 444805, India",ChIJ_d8a-4b01jsR5OLnawjB9Oo,21.3019513,77.5194853,"['hospital', 'health', 'point_of_interest', 'establishment']",Achalpur
37,Gulhane Hospital,"Bhoipura, Paratwada, Maharashtra 444805, India",ChIJ1WNp4ob01jsRxba86VQVoOo,21.3015435,77.51902059999999,"['hospital', 'health', 'point_of_interest', 'establishment']",Achalpur
38,Dr M.S Shaikh D H M S,"Mahirabpura, Achalpur, Maharashtra 444806, India",ChIJP4Wdmbrz1jsRN7vGfCsqfTY,21.257927,77.50287639999999,"['hospital', 'health', 'point_of_interest', 'establishment']",Achalpur
39,Bardia Hospital,"MH MSH 6, Harde Nagar, Paratwada, Maharashtra 444805, India",ChIJjzAS13jz1jsR3m0kejXE1Uc,21.2872413,77.51871059999999,"['hospital', 'health', 'point_of_interest', 'establishment']",Achalpur
40,Thakre Hospital,"lic square road, Achalpur, Maharashtra, India",ChIJh8HzWH_z1jsRom_jUnB4a90,21.2886096,77.5161865,"['hospital', 'health', 'point_of_interest', 'establishment']",Achalpur
41,AMIR MEDICAL,"Mominpura, Achalpur, Maharashtra 444806, India",ChIJA2-fGxLz1jsRDcdzYwJdI_s,21.2615078,77.5097308,"['hospital', 'health', 'point_of_interest', 'establishment']",Achalpur
42,Dr. Ram Thakare Children Hospital,"444805, Datta Nagar, Pensionpura, Paratwada, Maharashtra 444805, India",ChIJ9XqeCoD01jsRYSKPvfnfl3Y,21.2948687,77.51608759999999,"['hospital', 'health', 'point_of_interest', 'establishment']",Achalpur
43,Raikwar Hospital,"MAIN ROAD, MH MSH 6, Datta Nagar, Pensionpura, Paratwada, Maharashtra 444805, India",ChIJWesDCYD01jsRs1fpeTx2XmE,21.2944652,77.5162857,"['hospital', 'health', 'point_of_interest', 'establishment']",Achalpur
44,Sub Centre,"Parsapur, Amravati, MSH-24, Shegaon Paratwada Road, Achalpur, Achalpur, Maharashtra 444808, India",ChIJjZSDqufw1jsRabB-ubO9qPE,21.2597598,77.4156841,"['hospital', 'health', 'point_of_interest', 'establishment']",Achalpur
45,Kabra Children Hospital,"Road, Datta Nagar, Pensionpura, Paratwada, Maharashtra 444805, India",ChIJz4dO8ID01jsR77vjWk168Mc,21.2972686,77.518061,"['hospital', 'health', 'point_of_interest', 'establishment']",Achalpur
46,Dr.Sangole Hospital,"Brahmansabha Colony, Civil Lines, Paratwada, Maharashtra 444805, India",ChIJ66od8X_01jsR0HHoIpdzIjw,21.29386,77.51503819999999,"['health', 'point_of_interest', 'establishment']",Achalpur
47,Shree Hari Hospital,"Tilak Chowk, Paratwada, Maharashtra 444805, India",ChIJGc8o34b01jsR6mUY6JmAITk,21.3007378,77.5191048,"['hospital', 'health', 'point_of_interest', 'establishment']",Achalpur
48,Kutir Hospital,"Harde Nagar, Paratwada, Maharashtra 444805, India",ChIJc_1Cu1_z1jsRZyqb8NaGYSE,21.2851963,77.5151703,"['hospital', 'health', 'point_of_interest', 'establishment']",Achalpur
49,Dr.Watane Hospital,"MH MSH 6, Brahmansabha Colony, Civil Lines, Paratwada, Maharashtra 444805, India",ChIJwXn9rmX11jsRY0V_Qd5XnMg,21.294128,77.51466270000002,"['hospital', 'health', 'point_of_interest', 'establishment']",Achalpur
50,Ketan medical,"Haram, Maharashtra 444808, India",ChIJwznlFnPx1jsRWRhqRSezIgg,21.249442,77.448911,"['hospital', 'health', 'point_of_interest', 'establishment']",Achalpur
51,late dayaramji dhakulkar memorial hospital,"In Cotton Market, near Sanjeevani Hopsital, Paratwada, Maharashtra 444805, India",ChIJNeymZHjz1jsRAwXiB9bhFUk,21.284474,77.5170539,"['hospital', 'health', 'point_of_interest', 'establishment']",Achalpur
52,Tulsi Hospitals Dr Gawai,"Datta Nagar, Pensionpura, Paratwada, Maharashtra 444805, India",ChIJT0GTiYD01jsRnLYWJon9osk,21.2966168,77.51709110000002,"['hospital', 'health', 'point_of_interest', 'establishment']",Achalpur
53,Kadu Orthocare Hospital,"Civil Lines, Paratwada, Maharashtra 444805, India",ChIJQ0mNjX301jsRsJ2iuQh_otw,21.3013124,77.5153752,"['hospital', 'health', 'point_of_interest', 'establishment']",Achalpur
54,Vijaymala Hospital,"Ghamodiya Plot, Harde Nagar, Paratwada, Maharashtra 444805, India",ChIJlTl8wxPz1jsRt9k55XDs4mk,21.2853994,77.5170153,"['hospital', 'health', 'point_of_interest', 'establishment']",Achalpur
55,Cottage Hospital,"Harde Nagar, Paratwada, Maharashtra 444805, India",ChIJs1uleoLz1jsRqG7BJk6PbaI,21.2853675,77.5154087,"['hospital', 'health', 'point_of_interest', 'establishment']",Achalpur
56,Primary Health Centre,"Wadgaon Fattepur, Amravati, MSH-24, Shegaon Paratwada Road, Achalpur, Achalpur, Maharashtra 444808, India",ChIJicbx1zDx1jsRqcL6yhvlXNE,21.2789976,77.44076179999999,"['hospital', 'health', 'point_of_interest', 'establishment']",Achalpur
57,"The Leprosy Mission Hospital, Kothara","Amravati, Kothara, Maharashtra 444805, India",ChIJ1ybZot_11jsRhcMqVzxRK0U,21.3220552,77.5447973,"['hospital', 'health', 'point_of_interest', 'establishment']",Achalpur
58,Matrusha Medicals,"Chawalmandi, Achalpur, Maharashtra 444806, India",ChIJCbV1EaPz1jsRf6jCabd2GVo,21.2654328,77.5065704,"['hospital', 'health', 'point_of_interest', 'establishment']",Achalpur
59,S.S. Netralaya,"Narayanpur, Harde Nagar, Paratwada, Maharashtra 444805, India",ChIJKTt7ok_z1jsRuq0BZ_bF_wI,21.2779007,77.52420889999999,"['hospital', 'health', 'point_of_interest', 'establishment']",Achalpur
