,place_name,address,place_id,latitude,longitude,types,city
0,Anandrishiji Hospital,"124, Kothi - Yash Palace Rd, beside Maniknagar, Maniknagar, Ahmednagar, Maharashtra 414001, India",ChIJPfmVtvew3DsRUJENaMGSR60,19.0807146,74.7322494,"['hospital', 'health', 'point_of_interest', 'establishment']",Ahmednagar
1,Asian Noble Hospital Pvt Ltd,"Shirdi Manmad Road, Chowk, opp. Premdan, Savedi, Ahmednagar, Maharashtra 414003, India",ChIJNfC-kX663DsR6Xt6VxED3l4,19.1177765,74.7300063,"['hospital', 'doctor', 'health', 'point_of_interest', 'establishment']",Ahmednagar
2,Khalkar Hospital,"Station Road, Sattha Colony, Near Patel Hospital, Ahmednagar, Maharashtra 414001, India",ChIJu3srxl2w3DsR8lU_6pouC1Y,19.088618,74.7408298,"['hospital', 'health', 'point_of_interest', 'establishment']",Ahmednagar
3,Anbhule Hospital | Eye Specialist in Ahmednagar & Gynaecologist in Ahmednagar,"Permdan Chowk, Savedi Rd, Ahmednagar, Maharashtra 414003, India",ChIJ2VDS63663DsRDbtvcwsmn44,19.1170522,74.729608,"['hospital', 'health', 'point_of_interest', 'establishment']",Ahmednagar
4,"Saideep Hospital,Ahmednagar.","Viraj Estate, Ahmednagar, Maharashtra 414003, India",ChIJnX6rIHqw3DsR2P02ez85e1w,19.1085123,74.7432086,"['hospital', 'health', 'point_of_interest', 'establishment']",Ahmednagar
5,Evangeline Booth Hospital,"College Area, Ahmednagar, Maharashtra 414001, India",ChIJTRNTXmiw3DsR9tg7Cyqm5d0,19.0941733,74.7469287,"['hospital', 'health', 'point_of_interest', 'establishment']",Ahmednagar
6,CITY CARE HOSPITAL,"bus stand, Viraj Estate Nagar-Manmad Road near tarakpur, Tarakpur, Ahmednagar, Maharashtra 414001, India",ChIJ71Rdznuw3DsRsY1Xw6Ih7xA,19.1073748,74.742027,"['hospital', 'health', 'point_of_interest', 'establishment']",Ahmednagar
7,Shraddha Hospital,"448, Chitale Rd, near Merchants co-op. Bank, Nalegaon, Ahmednagar, Maharashtra 414001, India",ChIJJXpz8Imw3DsRm3MLf0MOjUc,19.0964524,74.73350239999999,"['hospital', 'health', 'point_of_interest', 'establishment']",Ahmednagar
8,Sai hospital,"Adarsha Colony, Bishop Lloyd Colony, Ahmednagar, Maharashtra 414003, India",ChIJ80ptG3-63DsRDut-bzxLj-0,19.115441,74.72998419999999,"['hospital', 'health', 'point_of_interest', 'establishment']",Ahmednagar
9,Vahadane Hospital,"SH 142 Laltaki, Road, Ahmednagar, Maharashtra 414001, India",ChIJz-HOoX2w3DsRJUdSvpZCDf4,19.105314,74.73529769999999,"['hospital', 'doctor', 'health', 'point_of_interest', 'establishment']",Ahmednagar
10,Patil Hospital,"Vasant-Vihar, Balikashram Rd, Tarakpur, Ahmednagar, Maharashtra 414001, India",ChIJoYK_yIew3DsRl8F3Vx-PR-M,19.1027877,74.73145939999999,"['hospital', 'health', 'point_of_interest', 'establishment']",Ahmednagar
11,"Civil District Hospital, Ahmednagar","Tarakpur Rd, opp. Sarda College, Patrakarchowk, Ahmednagar, Maharashtra 414001, India",ChIJ4-wSE36w3DsRDSbagUbr3iI,19.1084298,74.7353627,"['hospital', 'health', 'point_of_interest', 'establishment']",Ahmednagar
12,Zaware Multispeciality Hospital,"Opp Bombay Bakery, Juna Mangalwar Bazar, near Bengal chauk, Ahmednagar, Maharashtra 414001, India",ChIJPTQotmCw3DsRYBlLxITjagc,19.0920666,74.73909309999999,"['hospital', 'health', 'point_of_interest', 'establishment']",Ahmednagar
13,Pranav Hospital Multispeciality & ICU Center,"shahu Nagar, Infront Of Bus Stop, Kedgaon, Ahmednagar, Maharashtra 414001, India",ChIJ6fDCESix3DsRLNt9ALiFafU,19.062963,74.69779199999999,"['hospital', 'health', 'point_of_interest', 'establishment']",Ahmednagar
14,Morya Children's Hospital,"Station Road,Swastik Chowk,Kashid Heights,2 nd Floor, near Fatake Patil Hospital, Maharashtra 414001, India",ChIJ0yWlE2-x3DsRNLGqgQYthpo,19.0834327,74.7327482,"['hospital', 'health', 'point_of_interest', 'establishment']",Ahmednagar
15,BHAIRAVNATH HOSPITAL,"Bolhegaon Suburban, Ahmednagar, Maharashtra 414111, India",ChIJieNplUe63DsRGBMG4soShQc,19.144632,74.7116611,"['hospital', 'health', 'point_of_interest', 'establishment']",Ahmednagar
16,"Patil Hospital- Multispeciality Hospital, Ahmednagar","S.N. -5, Kothi, Station Rd, Patil Hospital, Ahmednagar, Maharashtra 414001, India",ChIJt1lcgl2w3DsRdVBLMa1GXVY,19.090389,74.742379,"['hospital', 'health', 'point_of_interest', 'establishment']",Ahmednagar
17,Sunil Jadhav Hospital,"Chaupati Karanja, Ahmednagar, Maharashtra 414001, India",ChIJX2uwHoqw3DsRXbABbuy9u84,19.0956678,74.7326325,"['hospital', 'health', 'point_of_interest', 'establishment']",Ahmednagar
18,Deshpande Hospital,"S No 5882, Anandi Bazaar, Near Laxmi Karanja, Ahmednagar, Maharashtra 414001, India",ChIJj0t572Gw3DsRcByjK5ysHdM,19.095179,74.73458099999999,"['hospital', 'health', 'point_of_interest', 'establishment']",Ahmednagar
19,Siddhivinayak,"Nandanwan Lawn's, New Tilak Rd, Near, Maliwada, Ahmednagar, Maharashtra 414001, India",ChIJ0znTlfaw3DsRcTcuAk6BgVA,19.082788,74.729551,"['hospital', 'health', 'point_of_interest', 'establishment']",Ahmednagar
20,"""Aarogyam"" Agrawal Hospital","Savedi Rd, Near Swami Samartha Mandir, Bishop Lloyd Colony, Ahmednagar, Maharashtra 414003, India",ChIJXUd4jn-63DsRTLpIPszq2i4,19.1137251,74.7319272,"['hospital', 'health', 'point_of_interest', 'establishment']",Ahmednagar
21,ShreeDeep Hospital,"Station Road, Near Badve Petrol Bunk, Ahmednagar, Maharashtra 414001, India",ChIJeTXTZl2w3DsRt7ayDQhEhHE,19.0906495,74.74373159999999,"['hospital', 'health', 'point_of_interest', 'establishment']",Ahmednagar
22,Sahyadri Hospital,"Savedi Rd, Mahavir Nagar, Ahmednagar, Maharashtra 414003, India",ChIJG3Dla3-63DsRyBTP0ZPR8hk,19.1141011,74.72961769999999,"['hospital', 'health', 'point_of_interest', 'establishment']",Ahmednagar
23,United city Hospital,"Baratoti, Karanja, 5268, Juna Mangalwar Bazar, Maliwada, Ahmednagar, Maharashtra 414001, India",ChIJpaddlGCw3DsRcBHKX8fjdTM,19.0913789,74.7374677,"['hospital', 'health', 'point_of_interest', 'establishment']",Ahmednagar
24,Sukhada Hospital,"Vasant-Vihar, Balikashram Rd, Bagde Mala, Ahmednagar, Maharashtra 414001, India",ChIJdYdM5Iaw3DsRMTSkLVs2pVk,19.1024489,74.7308977,"['hospital', 'health', 'point_of_interest', 'establishment']",Ahmednagar
25,Apex Hospital,"Near Hotel Parichay, Savedi Rd, opp. ICICI Bank, Ahmednagar, India",ChIJyct2cSmx3DsRXfHAOJO0IwM,19.1215462,74.7274284,"['hospital', 'health', 'point_of_interest', 'establishment']",Ahmednagar
26,Sanjeevani Hospital,"New Church Road Manik Chowk, Maharashtra 414001, India",ChIJVQmxxGCw3DsR6_M3LQtvRbo,19.0927141,74.7385204,"['hospital', 'health', 'point_of_interest', 'establishment']",Ahmednagar
27,Swasthya Hospital And Medical Research Center,"Saveri Road, Lal Taki Road, Siddarth Nagar, Tarakpur, Ahmednagar, Maharashtra 414001, India",ChIJocTddn2w3DsRMxrEGSpdin4,19.1044884,74.7346774,"['hospital', 'health', 'point_of_interest', 'establishment']",Ahmednagar
28,Khandelwal Children Hospital,"Balikashram Rd, near Sindhu MAngal Karyalaya, Bhutkarwadi, Borude Mala, Ahmednagar, Maharashtra 414001, India",ChIJrZiw44Gw3DsRskWm1NZ5rI4,19.1126949,74.7288976,"['hospital', 'health', 'point_of_interest', 'establishment']",Ahmednagar
29,Maxcare Hospital,"Bishop Lloyd Colony, Ahmednagar, Maharashtra 414003, India",ChIJz0Rk8Uq73DsR8znGlDq5YUs,19.1146421,74.73215259999999,"['hospital', 'health', 'point_of_interest', 'establishment']",Ahmednagar
30,GUNJAL HOSPITAL,"Sakkar Chowk Ahmednagar - Pune Highway, Maniknagar, Ahmednagar, Maharashtra 414001, India",ChIJwxrCd_ew3DsRgUCh1mIYPbQ,19.0791556,74.7307144,"['hospital', 'health', 'point_of_interest', 'establishment']",Ahmednagar
31,Surabhi Hospital,"Opp Hotel Gulmohar Pride, Next To Aurangabad highway, Towards, Gulmohar, Road,, Anand Nagar, Ahmednagar, Maharashtra 414003, India",ChIJm4iGQJy63DsRYKZFkxlCoeo,19.1185802,74.7501105,"['hospital', 'doctor', 'health', 'point_of_interest', 'establishment']",Ahmednagar
32,Dharma Hospital,"Balikashram Rd, Savedi, Ahmednagar, Maharashtra 414003, India",ChIJlxSkW3m63DsRQxqa1DvSIKE,19.1180176,74.7268759,"['hospital', 'health', 'point_of_interest', 'establishment']",Ahmednagar
33,Joshi Hospital,"MH SH 27, Kedgaon, Ahmednagar, Maharashtra 414005, India",ChIJMZ6zLiGx3DsRE438BVk1qPE,19.0615611,74.7052258,"['hospital', 'health', 'point_of_interest', 'establishment']",Ahmednagar
34,Supekar hospital Ahmednagar,"Bhavani Nagar, Ahmednagar, Maharashtra 414001, India",ChIJx3pm-Fuw3DsRDtyGn4Tarso,19.0848656,74.7401307,"['hospital', 'health', 'point_of_interest', 'establishment']",Ahmednagar
35,Karandikar Hospital,"Siddarth Nagar, Tarakpur, Ahmednagar, Maharashtra 414001, India",ChIJa1fMbYew3DsR2VeVMaXVPzc,19.1054049,74.7324589,"['hospital', 'health', 'point_of_interest', 'establishment']",Ahmednagar
36,Punde Hospital,"Dapodi Masjid, Court Galli, Ahmednagar, Maharashtra 414001, India",ChIJozBnEmmw3DsR_maZXFDUOaQ,19.0952075,74.7495916,"['hospital', 'health', 'point_of_interest', 'establishment']",Ahmednagar
37,Raut Hospital Ahmednagar,"Nalegaon, Ahmednagar, Maharashtra 414001, India",ChIJmc__2GWw3DsReY_o9f43YP8,19.0969513,74.74340839999999,"['hospital', 'health', 'point_of_interest', 'establishment']",Ahmednagar
38,Care Plus Hospital,"Anand Dham Road, Bhavani Nagar, Ahmednagar, Maharashtra 414001, India",ChIJ-wRvHlmw3DsROzTFRltT_Kk,19.0828865,74.7367608,"['hospital', 'health', 'point_of_interest', 'establishment']",Ahmednagar
39,City Care Hospital,"Unnamed Road, Sindhi Colony, Ahmednagar, Maharashtra 414001, India",ChIJPZv0znuw3DsRgha8UGcTYqs,19.1073087,74.7420197,"['hospital', 'health', 'point_of_interest', 'establishment']",Ahmednagar
40,Misal Hospital,"Bolhegaon Suburban, Ahmednagar, Maharashtra 414111, India",ChIJPfrzHGy63DsR53tyWq2iJ1I,19.1282925,74.71589589999999,"['hospital', 'health', 'point_of_interest', 'establishment']",Ahmednagar
41,MacCare Superspeciality Hospital,"Zopadi Canteen, opp. Saint Monika D.Ed. College, Savedi, Ahmednagar, Maharashtra 414003, India",ChIJsxgG2dC73DsRfB7KJw850Xk,19.1145495,74.73216239999999,"['hospital', 'health', 'point_of_interest', 'establishment']",Ahmednagar
42,Jhalani Hospital-Psychiatry Centre,"LIC Colony, Anand Nagar East, Ahmednagar, Maharashtra 414003, India",ChIJeeHAcoG63DsRs26SS_d-gTE,19.1165522,74.7378231,"['hospital', 'health', 'point_of_interest', 'establishment']",Ahmednagar
43,Maxcare Hospital (Varad MultiSpeciality Hospitals Pvt Ltd),"Bishop Lloyd Colony, Ahmednagar, Maharashtra 414003, India",ChIJTZpWz3S73DsRALIy9V1cHBw,19.1145659,74.73211359999999,"['hospital', 'health', 'point_of_interest', 'establishment']",Ahmednagar
44,Narwade Hospital,"New Tilak Road, Sukkur chowk, Ahmednagar, Maharashtra 414001, India",ChIJsUJ-lPaw3DsRehDmczSwFew,19.08278,74.729666,"['hospital', 'health', 'point_of_interest', 'establishment']",Ahmednagar
45,Dr. Harshawardhan Tanwar | Satalkar Lotus Superspeciality Hospital | Best Urologist in Ahmednagar | Kidney Stone Surgery Hospital,"Near, Gruhashilpa Housing Society Bagroza Hadko, Delhi Gate Rd, Ahmednagar, Maharashtra 414001, India",ChIJfz3r5Iiw3DsR4Q5MDM7s7YE,19.099096,74.72998539999999,"['hospital', 'health', 'point_of_interest', 'establishment']",Ahmednagar
46,Satalkar Lotus Superspeciality Hospital,"Bagh Rouza, Gruhashilpa Colony Rd, Siddarth Nagar, Gruhashilpa Colony, Ahmednagar, Maharashtra 414001, India",ChIJH5rScw6x3DsRcMirjeIPMWU,19.1053699,74.73200779999999,"['health', 'point_of_interest', 'establishment']",Ahmednagar
47,Sanjeevani Accident Hospital,"Mahavir Nagar, Ahmednagar, Maharashtra 414003, India",ChIJPc6yzn663DsROKGqYuM-_g8,19.117127,74.7279772,"['hospital', 'health', 'point_of_interest', 'establishment']",Ahmednagar
48,Saraswati hospital,"Bhopale Galli, Maliwada, near Vishal Ganpati Temple, Ahmednagar, Maharashtra 414001, India",ChIJM4_y6F-w3DsRe6nIIhUrp6U,19.089462,74.73494199999999,"['hospital', 'health', 'point_of_interest', 'establishment']",Ahmednagar
49,Nucleus Hospital and Research Center,"Plot No 101, next to essar petrol pump, Behind big bazzar Balikasram Road, next to adarsh Elite Socity, Savedi, Ahmednagar, Maharashtra 414003, India",ChIJX0Xw_Hu63DsR0I7Hw6BE5tM,19.1188001,74.72726829999999,"['hospital', 'health', 'point_of_interest', 'establishment']",Ahmednagar
50,Sonar Hospital,"Nagar Pune Rd, near Kinetic chowk, Sakshi nagar, Kedgaon, Ahmednagar, Maharashtra 414005, India",ChIJj1lZyfuw3DsRA2o1rWzWLBU,19.0746937,74.7268137,"['hospital', 'health', 'point_of_interest', 'establishment']",Ahmednagar
51,Bade hospital,"3, Solapur - Dhule National Hwy, Bishop Lloyd Colony, Ahmednagar, Maharashtra 414003, India",ChIJsV5aJICw3DsR3u_SfcuWRMo,19.1126676,74.73173770000001,"['hospital', 'health', 'point_of_interest', 'establishment']",Ahmednagar
52,Dr.Khandve Hospital,"Gugale Colony, Burhan Nagar, Ahmednagar, Maharashtra 414002, India",ChIJXVffHai63DsRifq1aH1aMA8,19.1159265,74.77139989999999,"['hospital', 'health', 'point_of_interest', 'establishment']",Ahmednagar
53,Bhosale Hospital,"New Tilak Road Near Sakkur, Chowk, Maliwada, Ahmednagar, Maharashtra 414001, India",ChIJyXWL_Oyw3DsRQ_RUZO0DRYY,19.0829072,74.72998199999999,"['hospital', 'health', 'point_of_interest', 'establishment']",Ahmednagar
54,Bhosale Hospital,"Khandoba Rd, near bhosle hospital, Maliwada, Ahmednagar, Maharashtra 414001, India",ChIJZ8RdWvWw3DsRjaB7_1c8WF4,19.0893018,74.73318480000002,"['hospital', 'health', 'point_of_interest', 'establishment']",Ahmednagar
55,Nisar Hospital And Maternity Home,"Maharashtra, Civil Hudco Colony, Bishop Lloyd Colony, Ahmednagar, Maharashtra 414001, India",ChIJEZvo8n-w3DsRO1JyumTaLVk,19.1128457,74.7350637,"['hospital', 'health', 'point_of_interest', 'establishment']",Ahmednagar
56,Tarde Hospital,"Delhi Gate, Prem Dhan Chowk, New, Ahmednagar, Maharashtra 414001, India",ChIJA2vqxomw3DsRYAh2b9vo8zc,19.097758,74.7325015,"['hospital', 'health', 'point_of_interest', 'establishment']",Ahmednagar
57,Athare Patil Memorial Hospital,"8, Bhutkarwadi Rd, Mahavir Nagar, Ahmednagar, Maharashtra 414003, India",ChIJNwh3aX-63DsRPjB80NCQY20,19.1141134,74.7294746,"['hospital', 'health', 'point_of_interest', 'establishment']",Ahmednagar
58,Subhadra Hospital,"Washimbe - Pawar Vasti Rd, MIDC, Ahmednagar, Maharashtra 414111, India",ChIJP3nEEDy73DsRz9oqxAcIleU,19.1453823,74.7114441,"['hospital', 'health', 'point_of_interest', 'establishment']",Ahmednagar
59,Bendre Hospital & Laparoscopic,"Lal Talki Deshmukh, ZP Quarters Road Behind Gogadev Mandir Surjepura, Patel Wadi Rd, Ahmednagar, Maharashtra 414001, India",ChIJpecpJH2w3DsRwBNXN0K0hb4,19.102892,74.736265,"['hospital', 'health', 'point_of_interest', 'establishment']",Ahmednagar
