,place_name,address,place_id,latitude,longitude,types,city
0,Yadgire Super Specialty Hospital,"Vijay Colony, Congress Nagar Road, Amravati, Maharashtra 444606, India",ChIJFcjzkaKk1jsRuBkrV58HNf8,20.9271913,77.7673408,"['hospital', 'health', 'point_of_interest', 'establishment']",Amravati
1,Radiant Superspeciality Hospital,"Sabnis Plot, Near Kalyan Nagar Chowk, Vivekanand Colony, Amravati, Maharashtra 444606, India",ChIJeykDlLuk1jsRIJXfgNgx4uA,20.9205299,77.7614303,"['hospital', 'health', 'point_of_interest', 'establishment']",Amravati
2,Getlife laser piles clinic,"Vijay Colony Rd, near Maratha sporting club, Vivekanand Colony, Amravati, Maharashtra 444606, India",ChIJISrj1aKk1jsR593ZU3GIxxU,20.9249416,77.7661282,"['hospital', 'health', 'point_of_interest', 'establishment']",Amravati
3,Super Speciality Hospital Amravati,"Shrikrishna Peth, Amravati, Maharashtra 444601, India",ChIJRVDB3Fij1jsRvvi7sbiTtA4,20.9387598,77.761167,"['hospital', 'health', 'point_of_interest', 'establishment']",Amravati
4,Hitech Multispeciality Hospital & Research Center,"48 - 3/4, Dastur Nagar Road, Nanda Market, Rajapeth, sabnis plot, Amravati, Maharashtra 444601, India",ChIJj8ajO7qk1jsRNOCPIN8QEsE,20.9196873,77.758611,"['hospital', 'health', 'point_of_interest', 'establishment']",Amravati
5,Zenith Hospital Tertiary Care Center,"Walcut Compound, Amravati, Maharashtra 444601, India",ChIJse0z4Kek1jsRDPXSwQWAt4M,20.9348933,77.756716,"['hospital', 'doctor', 'health', 'point_of_interest', 'establishment']",Amravati
6,Parashree Speciality Hospital,"Masjid-Irwin Road, Khaparde Garden, Maltekdi, Amravati, Maharashtra 444601, India",ChIJc3NHBqSk1jsRimPEDSkez3E,20.9300815,77.7620395,"['hospital', 'health', 'point_of_interest', 'establishment']",Amravati
7,"Apex Hospital, Morshi Road,Arjun Nagar,Amravati","Arjun Nagar, Amravati, Maharashtra 444604, India",ChIJSYwcfm6j1jsRFkj41-kFm64,20.9548871,77.7769254,"['hospital', 'health', 'point_of_interest', 'establishment']",Amravati
8,Sai Multispeciality Hospital Amravati - Dr.Pankaj & Dr.Aditi Barabde,"Vijay Colony Rd, Rajendra Colony, Vivekanand Colony, Amravati, Maharashtra 444606, India",ChIJ97ONO6Ok1jsRwxtjV9ePS_E,20.9262644,77.7636337,"['hospital', 'health', 'point_of_interest', 'establishment']",Amravati
9,"District General Hospital, Amravati","Mother Teresa Rd, Khaparde Bagicha, Maltekdi, Amravati, Maharashtra 444606, India",ChIJQwS43qak1jsRf7d2Pu6KmKE,20.933264,77.7607687,"['hospital', 'health', 'point_of_interest', 'establishment']",Amravati
10,VIMSS HOSPITAL,"Behind Santosh medical, Prashant Nagar square, near hanuman mandir, Amravati, Maharashtra 444606, India",ChIJ-wgRaL2k1jsRxmAL5D1E40w,20.9236273,77.7672943,"['hospital', 'health', 'point_of_interest', 'establishment']",Amravati
11,Shubham Hi-Tech Hospital,"Badnera Rd, opp. Mantri Motors, Deorankar Nagar, Amravati, Maharashtra 444605, India",ChIJlQl00rak1jsRG1VgrnZzKqQ,20.9182075,77.75266479999999,"['hospital', 'health', 'point_of_interest', 'establishment']",Amravati
12,Dr Barabde Hospital,"Camp Rd, Paranjpe Colony, Amravati, Maharashtra 444602, India",ChIJZ5V356Ck1jsRdW0LwAT2lVs,20.9343231,77.7638544,"['hospital', 'health', 'point_of_interest', 'establishment']",Amravati
13,Hi-tech Multispeciality Hospital & Research Center Amravati,"Rajapeth, Vivekanand Colony, Amravati, Maharashtra 444606, India",ChIJ6Q1IAUql1jsRi91lPsQrxqM,20.9197164,77.7586512,"['hospital', 'health', 'point_of_interest', 'establishment']",Amravati
14,Dayasagar Hospital,"Camp Road,, Maltekdi, Amravati, Maharashtra 444606, India",ChIJw7QN0p-k1jsRHyAYvUxeiac,20.9364102,77.770707,"['hospital', 'health', 'point_of_interest', 'establishment']",Amravati
15,Chintamani Hospital,"Lane No.2, Bhau Colony, Radha Nagar, Amravati, Maharashtra 444604, India",ChIJ6a_bamej1jsRgXOBdlZcaFg,20.9446412,77.7691722,"['hospital', 'health', 'point_of_interest', 'establishment']",Amravati
16,Belokar Hospital,"Vijay Colony Road, Rukmini Nagar, Amravati, Maharashtra 444606, India",ChIJ21RVlTGj1jsRE5vleMppkQA,20.969581,77.75236,"['hospital', 'health', 'point_of_interest', 'establishment']",Amravati
17,Hope Hospital,"Badnera Rd ,Mudholkar Peth, next to palika restaurant, Amravati, Maharashtra 444601, India",ChIJ61VXN66k1jsRbCttY_2b0lg,20.9253534,77.7530973,"['hospital', 'health', 'point_of_interest', 'establishment']",Amravati
18,Galaxy Hospital,"Kolhatkar Mangal Karyalay Road, Rajapeth, Amravati, Maharashtra 444605, India",ChIJrUYUeLCk1jsRzMcG2XMm_z8,20.922264,77.756605,"['hospital', 'health', 'point_of_interest', 'establishment']",Amravati
19,Sanjeevan Multispeciality Hospital (MD Medicine Doctor) In Amravati,"120, Kalyan nagar, near Hanuman Mandir, Maya Nagar, Ekvira Nagar, Amravati, Maharashtra 444606, India",ChIJGUNzbLyk1jsRcwihOhA53Qk,20.920875,77.7633938,"['hospital', 'health', 'point_of_interest', 'establishment']",Amravati
20,Sarda Hospital,"Diparchan Road, Patvipura, Kanwar Nagar, Guruchhaya Colony, Amravati, Maharashtra 444601, India",ChIJmxd0w7Gk1jsRFo-OgnleNzA,20.9232784,77.7526484,"['hospital', 'health', 'point_of_interest', 'establishment']",Amravati
21,Pachbuddhe children and maternity hospital,"road, Ojas Kale Marg, Prashant Nagar, Shyam Nagar, Amravati, Maharashtra 444606, India",ChIJCVjq_VOl1jsRtZVvjhETTdY,20.9244376,77.7673585,"['hospital', 'health', 'point_of_interest', 'establishment']",Amravati
22,LifeCare Child Care Hospital,"Rukhmini Nagar, Kanwar Nagar, Guruchhaya Colony, Vivekanand Colony, Amravati, Maharashtra 444606, India",ChIJtegSQqOk1jsRC794QnybBgA,20.9263587,77.7633627,"['hospital', 'health', 'point_of_interest', 'establishment']",Amravati
23,Dr.Mashankar Hospital,"Rajapeth, near Gopal Talkies, Maharashtra 444605, India",ChIJnQqofbCk1jsRUKR9BdZXK7o,20.9220457,77.75626600000001,"['hospital', 'health', 'point_of_interest', 'establishment']",Amravati
24,"District Women Hospital, Amravati","Shrikrishna Peth, Amravati, Maharashtra 444601, India",ChIJeb7-m1ij1jsRrQJCHbxE1ZU,20.9367833,77.7604577,"['hospital', 'health', 'point_of_interest', 'establishment']",Amravati
25,Netrajyot Eye Hospital Amravati,"Madhokar Peth, Amravati, Maharashtra 444605, India",ChIJSQLmKq6k1jsR3J3hTvTpUUk,20.9243885,77.75368069999999,"['hospital', 'health', 'point_of_interest', 'establishment']",Amravati
26,Daphale Hospital,"Swami Vivekanand Rd, Gandhi Nagar, Vivekanand Colony, Amravati, Maharashtra 444606, India",ChIJ9d9srKSk1jsR7-1qAsQFT5g,20.9250089,77.761965,"['hospital', 'health', 'point_of_interest', 'establishment']",Amravati
27,MOHOD MULTISPECIALITY HOSPITAL,"1, Amravati Old Bypass Rd, Dastur Nagar, Amravati, Maharashtra 444606, India",ChIJndme98yl1jsRrlD7rnqYep8,20.9165023,77.77281099999999,"['hospital', 'health', 'point_of_interest', 'establishment']",Amravati
28,Dr. Baheti Multispeciality Hospital,"Amba Peth, Kanwar Nagar, Guruchhaya Colony, Amravati, Maharashtra 444601, India",ChIJ-32JmK-k1jsRq1xP_40OoUI,20.9267618,77.7552887,"['hospital', 'health', 'point_of_interest', 'establishment']",Amravati
29,"Dr. Chandak's Shriram Medicine, Eye & Dental Hospital","At the start of, Rajapeth - Irwin Square Flyover, in front of Rajapeth, Police Station, Amravati, Maharashtra 444601, India",ChIJqeUwtbGk1jsRAjz5i89vpT8,20.9225975,77.75371609999999,"['hospital', 'dentist', 'doctor', 'health', 'point_of_interest', 'establishment']",Amravati
30,Samyukta Meternity Hospital Amravati,"Vir Tanaji Nagar, Shivneri Colony, Amravati, Maharashtra 444602, India",ChIJTybBVH2j1jsRSKu6BvJSa9s,20.9381039,77.7796056,"['hospital', 'health', 'point_of_interest', 'establishment']",Amravati
31,"Sonone hospital - ICU, MD medicine and maternity","behind Venus plaza, Rathinagar, Shegaon Naka Rd, Appu Colony, Amravati, Maharashtra 444601, India",ChIJW66xjUOj1jsRmjTblolT1-A,20.9525,77.7629299,"['hospital', 'health', 'point_of_interest', 'establishment']",Amravati
32,KUTHE HOSPITAL,"Badnera Rd, Patvipura, Amravati, Maharashtra 444601, India",ChIJe3zzLq6k1jsRMJd3wNfqIYE,20.9247515,77.7533351,"['hospital', 'health', 'point_of_interest', 'establishment']",Amravati
33,Deshmukh Hospital,"Shegaon - Rahatgaon Rd, Padam Saurabh Colony, Om Shivniketan Colony, Arjun Nagar, Amravati, Maharashtra 444604, India",ChIJCWrmSECj1jsRUHaaYoy9-7E,20.9580165,77.7664197,"['hospital', 'health', 'point_of_interest', 'establishment']",Amravati
34,Navjivan Hospital,"Shanti Nagar, Kanwar Nagar, Guruchhaya Colony, Dastur Nagar, Amravati, Maharashtra 444606, India",ChIJv6xSppWk1jsRUaZ0zTJruyQ,20.9168308,77.77010489999999,"['hospital', 'health', 'point_of_interest', 'establishment']",Amravati
35,Belokar Hospital,"Vijay Colony Rd, Vivekanand Colony, Amravati, Maharashtra 444606, India",ChIJWQZ6_Wyl1jsRATVtQjAzwSU,20.9255534,77.7665834,"['hospital', 'health', 'point_of_interest', 'establishment']",Amravati
36,Deshmukh Eye Hospital,"Khaperde Gardens, Near Irwin square, Netradan Road, Amravati, Maharashtra 444601, India",ChIJCTHCx6ak1jsRzGoEkx8KQI8,20.9322635,77.7614782,"['hospital', 'health', 'point_of_interest', 'establishment']",Amravati
37,"Jaiswal Children Hospital And Physiotherapy Centre, Rajapeth, Badnera Road, Amravati","rajkamal to road, near bhongade complex, Rajapeth, Kanwar Nagar, Guruchhaya Colony, Vivekanand Colony, Amravati, Maharashtra 444605, India",ChIJ__mKWx2l1jsR45TXVIh2-Yk,20.924907,77.7536087,"['hospital', 'health', 'point_of_interest', 'establishment']",Amravati
38,BAKHTAR HOSPITAL,"Rajapeth, Kanwar Nagar, Guruchhaya Colony, Vivekanand Colony, Amravati, Maharashtra 444605, India",ChIJHe9qabqk1jsRnaOT_gGmmwk,20.9204062,77.7578612,"['hospital', 'health', 'point_of_interest', 'establishment']",Amravati
39,Dr.Patil Hospital,"SH 199, Sharda Nagar, Amravati, Maharashtra 444605, India",ChIJGXEJ3rCk1jsRm7muZqqK3BM,20.9198249,77.75412490000001,"['hospital', 'health', 'point_of_interest', 'establishment']",Amravati
40,Dhole Hospital,"Rukmini Nagar, Main Road, Near Shivaji Super Market, Beside, Bombaywala Saloon, Amravati, Maharashtra 444601, India",ChIJscnIsLyk1jsRbswnbJyC14Y,20.9243378,77.7633987,"['hospital', 'health', 'point_of_interest', 'establishment']",Amravati
41,Shri Govardhan Hospital,"Amba Peth, Kanwar Nagar, Guruchhaya Colony, Amravati, Maharashtra 444601, India",ChIJi8SmEa-k1jsR3-cQnrrDTEw,20.9281601,77.7547213,"['hospital', 'health', 'point_of_interest', 'establishment']",Amravati
42,Dr. Rohankar Polyclinic,"Swami Vivekanand Rd, Vivekanand Colony, Amravati, Maharashtra 444606, India",ChIJn2V-Wbuk1jsRsnORWp6NKNI,20.9238157,77.7620716,"['hospital', 'health', 'point_of_interest', 'establishment']",Amravati
43,"District TB Hospital, Amravati","Maltekdi, Amravati, Maharashtra 444606, India",ChIJC91tgpuk1jsRj-psMcnL98M,20.9313399,77.7766183,"['hospital', 'health', 'point_of_interest', 'establishment']",Amravati
44,Anand Hospital,"Sharda Vihar, Amravati, Maharashtra 444605, India",ChIJ1998wsmk1jsRoXeNquEnIbU,20.9115081,77.7524,"['hospital', 'health', 'point_of_interest', 'establishment']",Amravati
45,"Khatri Hospital [Piles doctor, Laser Surgery Center In Amravati]","Sharda Vihar, Amravati, Maharashtra 444601, India",ChIJl88YE7Sk1jsRmGeKKjbSR5g,20.917153,77.7495971,"['hospital', 'health', 'point_of_interest', 'establishment']",Amravati
46,"District Women Hospital, Amravati","Shrikrishna Peth, Amravati, Maharashtra 444601, India",ChIJsz6Vglij1jsRvzXM2MKQRvc,20.9365283,77.76013209999999,"['hospital', 'health', 'point_of_interest', 'establishment']",Amravati
47,Manas Clinic,"Rukhmini Nagar, Vivekanand Colony, Amravati, Maharashtra 444606, India",ChIJ97INnqOk1jsRG6tihxwEqy4,20.9279426,77.7634554,"['hospital', 'health', 'point_of_interest', 'establishment']",Amravati
48,Pundkar Hospital,"Dr.Pundkar Hospital, Shegaon Naka Rd, Rathi Nagar, Amravati, Maharashtra 444603, India",ChIJYfjUf0Oj1jsRWVr3UAiWnpo,20.9510861,77.76238719999999,"['hospital', 'health', 'point_of_interest', 'establishment']",Amravati
49,PARIJAT HOSPITAL,"Radha Nagar, Lane No. 1,Near Pragati School Panchavati Square, Amravati, Maharashtra 444603, India",ChIJcV_2A_aj1jsRvNe2Oh0Djxs,20.945057,77.77027609999999,"['hospital', 'health', 'point_of_interest', 'establishment']",Amravati
50,Matruchhaya Hospital,"Dande Plot 50, 2, Dastur Nagar Rd, Rajapeth, Amravati, Maharashtra 444605, India",ChIJBzQcFbqk1jsR21EY5fvvJIo,20.920115,77.7579736,"['hospital', 'health', 'point_of_interest', 'establishment']",Amravati
51,Shri Sai Hospital,"Maharashtra State Highway 243, Malviya Chowk, Amravati, Maharashtra 444601, India",ChIJyaQKLqak1jsRRf1AyJrpN8g,20.9329349,77.7572819,"['hospital', 'health', 'point_of_interest', 'establishment']",Amravati
52,Arihant Hospital Dr.Bharat Shah,"Sharda Vihar, Amravati, Maharashtra 444605, India",ChIJJ852wMmk1jsR0EfgWGyAebs,20.9109055,77.7523533,"['hospital', 'health', 'point_of_interest', 'establishment']",Amravati
53,Ingole Hospital and Breast Cancer Surgical Center,"Shyam Nagar, Amravati, Maharashtra 444606, India",ChIJV5HIMJik1jsRSxQP-JVvDNA,20.9265145,77.7703453,"['hospital', 'health', 'point_of_interest', 'establishment']",Amravati
54,Sanjivani Hospital,"Madhokar Peth 444601, Deorankar Nagar, Kanwar Nagar, Guruchhaya Colony, Patvipura, Amravati, Maharashtra, India",ChIJ85_1PrGk1jsRPd54rQ_P5EQ,20.9195895,77.7526176,"['hospital', 'health', 'point_of_interest', 'establishment']",Amravati
55,Dr. Murkey Hospital,"Walcut Compound, Amravati, Maharashtra 444601, India",ChIJ_Qz70qek1jsR8cVITQS0Uxw,20.9335962,77.7570267,"['hospital', 'health', 'point_of_interest', 'establishment']",Amravati
56,Care Hospital,"Almas Nagar, Juni Basti, Amravati, Maharashtra 444607, India",ChIJB8dOv8m61jsR7PBIeQPUv6s,20.8660261,77.7377298,"['hospital', 'health', 'point_of_interest', 'establishment']",Amravati
57,"Agrawal Children Hospital,Amravati","Pannalal Nagar, Amravati, Maharashtra 444601, India",ChIJeY5Ye7Kk1jsR65WycIZ0Iqk,20.9232417,77.7484252,"['hospital', 'health', 'point_of_interest', 'establishment']",Amravati
58,Chaudhary Maternity And Nursing Hospital,"Near, Vijay Colony Rd, Rukhmini Nagar, Vijay Colony, Amravati, Maharashtra 444606, India",ChIJ59W0uaKk1jsRgxuTX10E-_w,20.9260399,77.766845,"['hospital', 'health', 'point_of_interest', 'establishment']",Amravati
59,Salunke Maternity Hospital,"Opposite, Prashant Nagar, Ram Nagar, Amravati, Maharashtra 444606, India",ChIJAQsueL2k1jsRSfZSzokrHX4,20.9224499,77.7674633,"['hospital', 'health', 'point_of_interest', 'establishment']",Amravati
