,place_name,address,place_id,latitude,longitude,types,city
0,"District Hospital, Beed","Bir, Beed, Maharashtra 431122, India",ChIJ88iPXecqxTsRlM1ag85ipZg,18.9869199,75.75332019999999,"['hospital', 'health', 'point_of_interest', 'establishment']",Beed
1,Shri Kripalu Hospital,"behind Civil Hospital, Asef Nagar, Beed, Maharashtra 431122, India",ChIJeci6VecqxTsRW4f_I_ZK8jk,18.9874158,75.75436210000001,"['hospital', 'health', 'point_of_interest', 'establishment']",Beed
2,Ostwal Hospital,"Shahunagar, Beed, Maharashtra 431122, India",ChIJI0GdH9oqxTsROsMHxQafshY,18.9977619,75.7544151,"['hospital', 'health', 'point_of_interest', 'establishment']",Beed
3,Yashwant Maternity hospital and diagnostic Centre Beed,"Swaraj Nagar, Beed, Maharashtra 431122, India",ChIJtzIiBOcqxTsRzeoH3jPABms,18.9849284,75.7520742,"['hospital', 'health', 'point_of_interest', 'establishment']",Beed
4,"Deep Hospital, Beed","Navghan College Rd, Bir, Beed, Maharashtra 431122, India",ChIJo842POcqxTsRyBygD9EcRjU,18.9854825,75.7533922,"['hospital', 'health', 'point_of_interest', 'establishment']",Beed
5,Giri Hospital,"Adarsh nagar, Kranti Nagar, Beed, Maharashtra 431122, India",ChIJWXoCtsQqxTsRw_UpuHHWZ5U,18.994283,75.7484237,"['hospital', 'health', 'point_of_interest', 'establishment']",Beed
6,Alane Hospital(Multispeciality Hospital),"Jalana Rd, Shahunagar, Beed, Maharashtra 431122, India",ChIJJ1ImKtoqxTsRXTmLsOwmWA4,18.9968013,75.7542022,"['hospital', 'health', 'point_of_interest', 'establishment']",Beed
7,Spandan Hospital beed,"Spandan hospital, Swaraj Nagar, Beed, Maharashtra 431122, India",ChIJH8PkrfMrxTsRzE_v7Fj1IKk,18.9787019,75.7557103,"['hospital', 'health', 'point_of_interest', 'establishment']",Beed
8,Prashant Hospital,"Beed, Bir, Beed, Maharashtra 431122, India",ChIJzXDvNd8qxTsRiZb2_j0F_fc,18.9933754,75.7588881,"['hospital', 'health', 'point_of_interest', 'establishment']",Beed
9,GAIKWAD HOSPITAL,"Maharashtra, Chatrapati Colony, Kranti Nagar, Beed, Maharashtra 431122, India",ChIJI4s9aNsqxTsR3q0UxBRErp8,18.9938521,75.7502935,"['hospital', 'health', 'point_of_interest', 'establishment']",Beed
10,Lotus Multispecility Hospital,"Bhagya Nagar Rd, Chanakyapuri Scoiety, Datta Nagar, Beed, Maharashtra 431122, India",ChIJN1OCfMIqxTsRS0nML-XUNqU,18.9875471,75.7455744,"['hospital', 'health', 'point_of_interest', 'establishment']",Beed
11,"Panchshil Hospital,Beed","Shahinshah Nagar Rd, Bir, Beed, Maharashtra 431122, India",ChIJhS3HIlYrxTsRoehfOIXtVow,18.9848814,75.7531482,"['hospital', 'health', 'point_of_interest', 'establishment']",Beed
12,Hake Hospital | Multispeciality Hospital in Beed,"Omkar Tea Center Building, Samrat Chowk, Pangari Rd, Kranti Nagar, Beed, Maharashtra 431122, India",ChIJf7qGrgArxTsRUeZWROpu3eE,18.9942451,75.7525919,"['hospital', 'health', 'point_of_interest', 'establishment']",Beed
13,VEER HOSPITAL,"Jalna Rd, Beed, Maharashtra 431122, India",ChIJDW-16RMrxTsRDwm6lTjHPwY,18.9957345,75.7547395,"['hospital', 'health', 'point_of_interest', 'establishment']",Beed
14,Kesona Homeopatic Hospital Navghan Hospital Beed,"Mitra Nagar, Datta Nagar, Beed, Maharashtra 431122, India",ChIJhyL25-cqxTsRCBej_-BtqDc,18.9857118,75.7494423,"['hospital', 'health', 'point_of_interest', 'establishment']",Beed
15,Renu Hospital,"Driving School St, near Mukta lawns, Tirupati Nagar, Bir, Beed, Maharashtra 431122, India",ChIJUdlLd-MqxTsRhJhN2wyqj6I,18.9790197,75.7556067,"['hospital', 'health', 'point_of_interest', 'establishment']",Beed
16,SHIVKAMAL HOSPITAL,"Jalna Rd, behind mantri bank, Vipra Nagar, Beed, Maharashtra 431122, India",ChIJD7GnHdoqxTsRxUKDmAKmEqM,18.9982834,75.7543611,"['hospital', 'health', 'point_of_interest', 'establishment']",Beed
17,Bhople Hospital,"NH 211, Shahunagar Area, Beed, Maharashtra 431122, India",ChIJRf4zO9oqxTsRsHoou3Pc9PY,18.997335,75.753844,"['hospital', 'health', 'point_of_interest', 'establishment']",Beed
18,Yash Hospital,"Bir, Beed, Maharashtra 431122, India",ChIJmbyUV20rxTsRWtF8AnYqy5s,18.989109,75.7600805,"['hospital', 'health', 'point_of_interest', 'establishment']",Beed
19,"Gurukrupa Hospital, Beed","Jalna Rd, Vipra Nagar, Beed, Maharashtra 431122, India",ChIJ9S-aGtoqxTsRqalT4VTku8Q,18.9982818,75.75390209999999,"['hospital', 'health', 'point_of_interest', 'establishment']",Beed
20,Sankalp Hospital,"Doctor Line, Front of Giri Hospital, DP Rd, Adarsh nagar, Beed, Maharashtra 431122, India",ChIJU1VVRtgqxTsR3ukYuDJOOl0,18.9936315,75.74792579999999,"['hospital', 'health', 'point_of_interest', 'establishment']",Beed
21,Lodha Hospital Beed,"Shahunagar, Beed, Maharashtra 431122, India",ChIJF_BoJtoqxTsRTr0OiMMan9A,18.9971054,75.7543055,"['hospital', 'health', 'point_of_interest', 'establishment']",Beed
22,Ghodke Hospital,"Bir, Beed, Maharashtra 431122, India",ChIJax2JWt8qxTsRAUpx3uY0x-w,18.9934169,75.7597778,"['hospital', 'health', 'point_of_interest', 'establishment']",Beed
23,Dhoot Hospital Beed,"Sneh Nagar, Beed, Maharashtra 431122, India",ChIJG3fiwtgqxTsR4y4hgDxTdHk,18.9949351,75.7583472,"['hospital', 'health', 'point_of_interest', 'establishment']",Beed
24,Tirupati Hospital,"Shivaji Chowk, Datta Nagar, Beed, Maharashtra 431122, India",ChIJ32E2pN0qxTsRbUdsurKHGhM,18.9893399,75.7521278,"['hospital', 'health', 'point_of_interest', 'establishment']",Beed
25,Nath Hospital Dp Road Beed,"Adarsh nagar, Kranti Nagar, Beed, Maharashtra 431122, India",ChIJU_NXStsqxTsRsMTKB8yjDkg,18.9942658,75.74904599999999,"['hospital', 'health', 'point_of_interest', 'establishment']",Beed
26,Shree Bhagwan Hospital,"In front of new S. P office, barshi, road, near, Shivaji Chowk, Beed, Maharashtra 431122, India",ChIJexZJH8IrxTsRRuBA28IJhcw,18.9881694,75.75231289999999,"['hospital', 'health', 'point_of_interest', 'establishment']",Beed
27,BARKUL HOSPITAL,"DP Rd, Adarsh nagar, Beed, Maharashtra 431122, India",ChIJe9knW9sqxTsRS0PxsRotRb0,18.9936248,75.7496927,"['hospital', 'health', 'point_of_interest', 'establishment']",Beed
28,Mundhe Hospital,"Nagar Road, Nera Goverment Rest House, Beed, Maharashtra 431122, India",ChIJxTsDJt0qxTsRiOJTUS1DlS4,18.9897495,75.7495201,"['hospital', 'health', 'point_of_interest', 'establishment']",Beed
29,AAI HOSPITAL BEED,"New Mondha Rd, Vipra Nagar, Beed, Maharashtra 431122, India",ChIJZWOLLNgqxTsRRr6fApNpOJ4,18.9989716,75.75765919999999,"['hospital', 'health', 'point_of_interest', 'establishment']",Beed
30,"Shree Bhagwan Hospital,Beed","office, In front of new S. P. Near shivaji chowk, Driving School St, Beed, Maharashtra 431122, India",ChIJVZ57eCkrxTsRvPA5wbTZdW0,18.988165,75.75249529999999,"['hospital', 'health', 'point_of_interest', 'establishment']",Beed
31,"SHREE MAULI HOSPITAL, CRITICAL AND SURGICAL AND TRAUMA CARE UNIT","Jalana Rd, Beed, Maharashtra 431122, India",ChIJt3bSNtcqxTsRKPdKXnaGM-0,19.0010161,75.7550929,"['hospital', 'health', 'point_of_interest', 'establishment']",Beed
32,Mundhe Hospital,"Bir, Beed, Maharashtra 431122, India",ChIJQ1kWIecqxTsR29VxtlC9z_E,18.9848093,75.7534009,"['hospital', 'health', 'point_of_interest', 'establishment']",Beed
33,VATSALYA HOSPITAL,"Jalna Rd, Shahunagar, Beed, Maharashtra 431122, India",ChIJcc4y1xcrxTsRAod2xxFh3L0,18.9984051,75.7545426,"['hospital', 'health', 'point_of_interest', 'establishment']",Beed
34,Arnav Hospital,"Beed, Maharashtra 431122, India",ChIJbbS-2NsqxTsRsjBj9cpi67k,18.9952403,75.7545995,"['hospital', 'health', 'point_of_interest', 'establishment']",Beed
35,Priyanka Hospital Beed,"Beed,, Bir, Beed, Maharashtra 431122, India",ChIJO7wVTdkqxTsRBUmUz5cp5_0,18.993533,75.755425,"['hospital', 'health', 'point_of_interest', 'establishment']",Beed
36,Sai Hospital,"Beed, Maharashtra 431122, India",ChIJxSPT2DwrxTsR26fcqv-tfA8,18.9920625,75.77311809999999,"['hospital', 'health', 'point_of_interest', 'establishment']",Beed
37,Kute Hospital and Maternity Home,"Mali Galli, Bid, NH-211, Solapur Aurangabad Highway, Beed, Beed, Maharashtra 431122, India",ChIJz12CutYqxTsRoDYcrDDZoJM,19.004167,75.755325,"['hospital', 'health', 'point_of_interest', 'establishment']",Beed
38,Dwarka Hospital,"DP Rd, Chatrapati Colony, Kranti Nagar, Beed, Maharashtra 431122, India",ChIJ21QpedsqxTsR4BRxUYNEWwE,18.9935139,75.75148080000001,"['hospital', 'health', 'point_of_interest', 'establishment']",Beed
39,Deshmukh Orthopaedic Hospital,"Masrat Nagar,Jalna Road, Behind S.B.I. Beed, Beed, Maharashtra 431122, India",ChIJYauN59kqxTsR5XWgDYTOFaQ,18.9986879,75.75625409999999,"['hospital', 'health', 'point_of_interest', 'establishment']",Beed
40,Yashvant Hospital Dr.ghuge,"1, Solapur - Aurangabad Hwy, Bir, Beed, Maharashtra 431122, India",ChIJmSIOBOcqxTsRfT_JPgDlsuo,18.9848722,75.7521107,"['hospital', 'health', 'point_of_interest', 'establishment']",Beed
41,Sanjeevani Hospital,"Shahunagar, Beed, Maharashtra 431122, India",ChIJ-zizCdsqxTsRgZ8dBdnZ87I,18.9951265,75.75156520000002,"['hospital', 'health', 'point_of_interest', 'establishment']",Beed
42,"Global Dental Clinic And Multi-specialty Hospital,Beed","Bhaji Mandhi Rd, Bir, Beed, Maharashtra 431122, India",ChIJ2dYswd4qxTsRA2cAeinUq5U,18.99241,75.75626,"['hospital', 'health', 'point_of_interest', 'establishment']",Beed
43,PARADISE HOSPITAL,"jijamat chawak, Masrat Nagar Rd, Sawata Nagar, Beed, Maharashtra 431122, India",ChIJfQu-qNcqxTsR3TX1EXiufSU,19.0003287,75.7578235,"['hospital', 'health', 'point_of_interest', 'establishment']",Beed
44,DHAKNE Hospital,"Subhash Rd, Sneh Nagar, Beed, Maharashtra 431122, India",ChIJZfIsy9gqxTsRitYm7MOrib8,18.9937034,75.7587415,"['hospital', 'health', 'point_of_interest', 'establishment']",Beed
45,Anand Hospital,"Jalna Rd, Beed, Maharashtra 431122, India",ChIJ61OCuukrxTsR1_V8lRH6Rb8,18.9955447,75.7542047,"['hospital', 'health', 'point_of_interest', 'establishment']",Beed
46,Yashwantrao Jadhav Memorial Hospital and Research center,"Hanuman Mandir Rd, Kranti Nagar, Beed, Maharashtra 431122, India",ChIJy4AcQwUrxTsRHPq9PJPQHa4,18.9949701,75.7524334,"['hospital', 'health', 'point_of_interest', 'establishment']",Beed
47,Navjeevan Hospital,"Ahmednagar - Beed Rd, Shriram Nagar, Kranti Nagar, Beed, Maharashtra 431122, India",ChIJYdUDRzgrxTsRyLrVTtAAIq0,18.9934016,75.7456255,"['hospital', 'health', 'point_of_interest', 'establishment']",Beed
48,Sanjivani hospital,"Datta Nagar, Beed, Maharashtra 431122, India",ChIJ_yqDBzcrxTsRkyuPcB8EN6I,18.9891028,75.7527236,"['hospital', 'health', 'point_of_interest', 'establishment']",Beed
49,Ashirwad hospital,"Kabad Galli, Bir, Beed, Maharashtra 431122, India",ChIJAXzhlngrxTsRGRyyey5mxyo,18.9925723,75.759986,"['hospital', 'health', 'point_of_interest', 'establishment']",Beed
50,Phoenix Critical Care & Surgical Unit,"Taj Plaza, Jalna Road, Beed, Maharashtra, India",ChIJlUBN0dsqxTsRF4SOmxnX7tY,18.9957806,75.75429609999999,"['hospital', 'health', 'point_of_interest', 'establishment']",Beed
51,Sree Swami Samarth Hospital & Medical Clinic,"Subhash Rd, Malives, Jijamata Chowk, Beed, Maharashtra 431122, India",ChIJQ8HOUN8qxTsRv7OC805Solc,18.9931455,75.7600397,"['hospital', 'health', 'point_of_interest', 'establishment']",Beed
52,Apex Children's Hospital and Skin Care,"Bashir Ganj Rd, Bashir Ganj, Bir, Beed, Maharashtra 431122, India",ChIJLW0jb94qxTsRsspOGQkP4p8,18.99,75.7554595,"['hospital', 'health', 'point_of_interest', 'establishment']",Beed
53,Shri Rautmare Hospital,"Bir, Beed, Maharashtra 431122, India",ChIJWZ_tZd8qxTsRPGxO91ofNf4,18.9918801,75.7597761,"['hospital', 'health', 'point_of_interest', 'establishment']",Beed
54,Lifeline Hospital,"Bus stand, in front of S T, Bir, Beed, Maharashtra 431122, India",ChIJYXamIdwqxTsRr-Hl7GBfHqw,18.991626,75.7544547,"['hospital', 'health', 'point_of_interest', 'establishment']",Beed
55,Matoshree Hospital,"Canora Bank Colony, Datta Nagar, Beed, Maharashtra 431122, India",ChIJd3vjvukqxTsRwWehBemIoCc,18.9851318,75.7446667,"['hospital', 'health', 'point_of_interest', 'establishment']",Beed
56,Mahananda Hospital,"Datta Nagar, Beed, Maharashtra 431122, India",ChIJp7xdPEErxTsRuOlyPyw4HVo,18.9875423,75.7516354,"['hospital', 'health', 'point_of_interest', 'establishment']",Beed
57,Wanve Hospital,"Wanve Hospital, Nager road, Balepir, Beed, Maharashtra 431122, India",ChIJQ1QF0cAqxTsRZyIegznbu-E,18.9916951,75.7395557,"['hospital', 'health', 'point_of_interest', 'establishment']",Beed
58,Aalane Hospital,"Shahunagar Area, Bid, NH-211, Solapur Aurangabad Highway, Beed, Beed, Maharashtra 431122, India",ChIJqxg5KdoqxTsRA5B2x00EvVw,18.996717,75.754291,"['hospital', 'health', 'point_of_interest', 'establishment']",Beed
59,Badjate Hospital,"Karanja Rd, Bir, Beed, Maharashtra 431122, India",ChIJy-DfwN8qxTsRIzI010pmsGs,18.9891328,75.758675,"['hospital', 'health', 'point_of_interest', 'establishment']",Beed
