,place_name,address,place_id,latitude,longitude,types,city
0,Siraj Memorial Hospital,"Old Mumbai-Agra Rd, Vanjar Patti Naka, Avachit Pada, Bhiwandi, Maharashtra 421302, India",ChIJNS-sPWu95zsRaCgmNdbVUOk,19.3062389,73.0655364,"['hospital', 'health', 'point_of_interest', 'establishment']",Bhivandi-Nizampur
1,Gavi Hospital,"421302, Ajay Nagar, Bazar Peth, Bhiwandi, Maharashtra 421302, India",ChIJHeTHj-295zsRv3VEgRtkftI,19.3068018,73.0563023,"['hospital', 'health', 'point_of_interest', 'establishment']",Bhivandi-Nizampur
2,Mamta Hospital,"450, 4th Nizampur, Agra - Nashik Road, Bhiwandi, Maharashtra 421302, India",ChIJS0A03kG95zsR8yPRSuWDxww,19.3120587,73.06992749999999,"['hospital', 'health', 'point_of_interest', 'establishment']",Bhivandi-Nizampur
3,VEDANT HOSPITAL(Orthopedic & Gynac Multispeciality Hosp.),"Ruby arcade house no 251 vanarpatti naka bhiwandi, Thane, Maharashtra 421302, India",ChIJl1xhOmu95zsRGu01dnhrEKM,19.30616,73.064949,"['hospital', 'health', 'point_of_interest', 'establishment']",Bhivandi-Nizampur
4,Sai Leela Hospital,"Firdous Complex, Old Mumbai-Agra Rd, Vetal Pada, Gulzar Nagar, Bhiwandi, Maharashtra 421302, India",ChIJmz-4YWu95zsRQeDgkldqxSA,19.304433,73.065884,"['hospital', 'health', 'point_of_interest', 'establishment']",Bhivandi-Nizampur
5,"Dr.Mohaddis Momin's, Empathy Hospital","1st floor, Rehman Complex, Agra Road Near Baug-e-Firdos Masjid, Bhiwandi, Maharashtra 421302, India",ChIJqdxtQ2u95zsRbaqh2Yn30Wc,19.305082,73.0653182,"['hospital', 'health', 'point_of_interest', 'establishment']",Bhivandi-Nizampur
6,Dhange Hospital,"29, Mandai - Dhamankar Naka Rd, Navi Chal, Prabhu Ali, Mandai, Bhiwandi, Maharashtra 421302, India",ChIJZUoeqxG95zsRhLWy6JMSGUA,19.2993165,73.05715459999999,"['hospital', 'health', 'point_of_interest', 'establishment']",Bhivandi-Nizampur
7,Afreen Hospital Bhiwandi,"101, Sirajul Uloom Road, Avachit Pada, Bhiwandi, Maharashtra 421302, India",ChIJv8ryS2m95zsRFmox8l9kFmE,19.3050624,73.0711889,"['hospital', 'health', 'point_of_interest', 'establishment']",Bhivandi-Nizampur
8,Mahavir Hospital,"Shivaji Chowk Rd, Gokul Nagar, Bhiwandi, Maharashtra 421302, India",ChIJp454YlC95zsRRFagwU7OMtc,19.3058371,73.060017,"['hospital', 'health', 'point_of_interest', 'establishment']",Bhivandi-Nizampur
9,Ashirwad Hospital,"2Nd Floor, R K Business Centre, Kalyan Naka, Bhiwandi, Maharashtra 421302, India",ChIJZ558aXO95zsRjwXttslrg9g,19.2974874,73.06362229999999,"['hospital', 'health', 'point_of_interest', 'establishment']",Bhivandi-Nizampur
10,Central Hospital,"Maulana Azad Rd, Kacheri Pada, Old Zakat Naka, Gulzar Nagar, Bhiwandi, Maharashtra 421302, India",ChIJpfx3WG295zsRQp1hQZ47t7I,19.2984516,73.0650131,"['hospital', 'health', 'point_of_interest', 'establishment']",Bhivandi-Nizampur
11,Rahat Hospital,"kaptalu kotergate, Bhiwandi, Maharashtra 421302, India",ChIJVxsHkRK95zsRb5-lfAt7fVw,19.2990953,73.0621,"['hospital', 'health', 'point_of_interest', 'establishment']",Bhivandi-Nizampur
12,Orbit Hospital,"Navi Chal, Prabhu Ali, Mandai, Bhiwandi, Maharashtra 421302, India",ChIJy46inhG95zsR2rx95iRkJhg,19.3003122,73.0570855,"['hospital', 'health', 'point_of_interest', 'establishment']",Bhivandi-Nizampur
13,Jayshree Hospital,"25.A, Wani Ali Rd, Zaitunpura, Samad Nagar, Kaneri, Bhiwandi, Maharashtra 421302, India",ChIJacUuQhG95zsRlTwZcpOriQM,19.3021697,73.0571562,"['hospital', 'health', 'point_of_interest', 'establishment']",Bhivandi-Nizampur
14,FIRST CARE HOSPITAL,"4TH NIZAMPURA ASIF COMPOUND KHANDU PADA ROAD, above BABA Hotel, Bhiwandi, Maharashtra 421306, India",ChIJxd1xH3C95zsRAJQJNM2CaeM,19.3055829,73.0681683,"['hospital', 'health', 'point_of_interest', 'establishment']",Bhivandi-Nizampur
15,Supreme Hospital,"Patel Nagar, Vanjar Patti Naka, Bhiwandi, Maharashtra 421302, India",ChIJo_IB7Gq95zsRx9ORainShyk,19.3082621,73.06600449999999,"['hospital', 'health', 'point_of_interest', 'establishment']",Bhivandi-Nizampur
16,Prajakta Hospital,"Ajay Nagar Rd, Ajay Nagar, Kombad Pada, Gokul Nagar, Bhiwandi, Maharashtra 421302, India",ChIJa6Lvmha95zsRjEFZucMaFzQ,19.3055609,73.0576529,"['hospital', 'health', 'point_of_interest', 'establishment']",Bhivandi-Nizampur
17,Jadhav Hospital,"Bhiwandi, Thane, Maharashtra 421302, India",ChIJmbam8my95zsRi2mHQzUlxLU,19.3027826,73.066377,"['hospital', 'health', 'point_of_interest', 'establishment']",Bhivandi-Nizampur
18,khatoonbi Kazi Multispeciality Hospital,"Dargah Rd, Kahjoor Pura, Bhiwandi, Maharashtra 421302, India",ChIJw6aoRBC95zsR3e1kFMRUsYA,19.2995442,73.0542567,"['hospital', 'health', 'point_of_interest', 'establishment']",Bhivandi-Nizampur
19,BMS Hospital,"Navi Chal, Kumbhar Ali, Mandai, Bhiwandi, Maharashtra 421302, India",ChIJgdN0vBG95zsRZ3LkgqOWgUU,19.2995217,73.0564052,"['hospital', 'health', 'point_of_interest', 'establishment']",Bhivandi-Nizampur
20,Bhiwandi Government Hospital,"Bhiwandi, Ansari Rd, Near Panchayat Samiti, Kacheri Pada, Gulzar Nagar, Bhiwandi, Maharashtra 421302, India",ChIJz2KIgW295zsRRltjef0A__w,19.2989933,73.0672232,"['hospital', 'health', 'point_of_interest', 'establishment']",Bhivandi-Nizampur
21,Huda Nursing Home,"Nashik Rd, Millat Nagar, Avachit Pada, Bhiwandi, Maharashtra 421302, India",ChIJmcAacWq95zsRavdhzJAACss,19.3097647,73.0680896,"['hospital', 'health', 'point_of_interest', 'establishment']",Bhivandi-Nizampur
22,Masoom Hospital,"1st Floor, Tulsi Complex bus stop Yaseen appartment, near powerhouse, Bhiwandi, Maharashtra 421302, India",ChIJacgwyXW95zsRI5pioDB7Ut4,19.2898705,73.0688758,"['hospital', 'health', 'point_of_interest', 'establishment']",Bhivandi-Nizampur
23,"Madhavbaug Clinic, Bhiwandi","Giriraj Complex, Opposite, Thane - Bhiwandi Rd, Vetal Pada, Gulzar Nagar, Bhiwandi, Maharashtra 421302, India",ChIJiZuJsxa95zsR0vjeupVCYu8,19.3024761,73.0662991,"['hospital', 'health', 'point_of_interest', 'store', 'establishment']",Bhivandi-Nizampur
24,Citizen Hospital,"New kaneri Agra road near citizen hospital bhiwandi Agra road, Thane - Bhiwandi Rd, Punit Sagar Complex, Bhiwandi, Maharashtra 421302, India",ChIJKaPuXQy95zsReQf6Oc1Tl0U,19.2937889,73.0607264,"['hospital', 'health', 'point_of_interest', 'establishment']",Bhivandi-Nizampur
25,DRONE DIAGNOSTIC & SURGICARE CENTRE.,"233/ B first floor, Giriraj Shopping Complex, Bhiwandi - Wada Rd, opp. ST Stand, Vetal Pada, Gulzar Nagar, Bhiwandi, Maharashtra 421302, India",ChIJ26ov8my95zsRHOlb-qA47so,19.3025298,73.06638579999999,"['hospital', 'health', 'point_of_interest', 'establishment']",Bhivandi-Nizampur
26,"Meher Hospital, ICCU & NICU","646, Nr. Payal Cinema, Thane Rd., Bhiwandi, Maharashtra 421302, India",ChIJo1S9Kw-95zsR14ktp415D9g,19.2919737,73.0554121,"['hospital', 'health', 'point_of_interest', 'establishment']",Bhivandi-Nizampur
27,shree bhairav dental clinic,"Nakoda bldg,Shivaji chowk bhiwandi, near SBI ATM, Bhiwandi, Maharashtra 421302, India",ChIJjSvGJxS95zsRC7j0xEjCxUk,19.3059399,73.0583236,"['hospital', 'health', 'point_of_interest', 'establishment']",Bhivandi-Nizampur
28,Ummeed Hospital,"Kaneri, Bhiwandi, Maharashtra 421302, India",ChIJZ_m_qhK95zsRauqeb-QvJ1M,19.2984474,73.0640492,"['hospital', 'health', 'point_of_interest', 'establishment']",Bhivandi-Nizampur
29,Yash Nursing Home,"Near Pasik Bank, Samad Nagar, Kaneri, Bhiwandi, Maharashtra 421302, India",ChIJBUXLUwm95zsRmzlqkuqchpM,19.2917104,73.0576869,"['hospital', 'health', 'point_of_interest', 'establishment']",Bhivandi-Nizampur
30,Taj hospital specialist children,"1st floor, opp. Taj hotel, Fandole Nagar, Gaibi Nagar Bhiwandi, Bhiwandi, Maharashtra 421302, India",ChIJVYdOxq695zsRMa8pnymkBXc,19.2962412,73.0708355,"['hospital', 'health', 'point_of_interest', 'establishment']",Bhivandi-Nizampur
31,Dr Senapati Hospital,"Kaneri Road, Telipada, Dhamankar Naka, Kaneri, Bhiwandi, Maharashtra 421302, India",ChIJZxv1SQm95zsReO0nZ2VQEMc,19.2915252,73.05677870000001,"['hospital', 'health', 'point_of_interest', 'establishment']",Bhivandi-Nizampur
32,Noble Hospital,"Gulzar Nagar, Bhiwandi, Maharashtra 421302, India",ChIJXbD9nnG95zsRguvfoB7I8bU,19.2964045,73.071326,"['hospital', 'health', 'point_of_interest', 'establishment']",Bhivandi-Nizampur
33,Ekta Hospital,"Mubeen Master Road Dhamankar Naka, Telipada, Kaneri, Bhiwandi, Maharashtra 421302, India",ChIJRfHA1wi95zsRk0s0_wg5ed8,19.2903766,73.0555789,"['hospital', 'health', 'point_of_interest', 'establishment']",Bhivandi-Nizampur
34,Dr Priya Skin and Laser Clinic,"haji motors Hotel galaxy VP Naka, Bhiwandi, Maharashtra 421302, India",ChIJDcAhtWq95zsRoUvoVbQ_nsI,19.308089,73.0646237,"['hospital', 'health', 'point_of_interest', 'establishment']",Bhivandi-Nizampur
35,FIRST CARE HOSPITAL Of Dr Ayaz Ansari & Dr Naziya Ayaz Ansari's,"First Floor, N N Arcade Tower, opposite S T Stand, Gulzar Nagar, Bhiwandi, Maharashtra 421302, India",ChIJBQ1Rm2u95zsRPMqQrU_scJs,19.302866,73.066321,"['hospital', 'health', 'point_of_interest', 'establishment']",Bhivandi-Nizampur
36,Hospital First Care,"Avachit Pada, Bhiwandi, Maharashtra 421302, India",ChIJs-gmf5295zsRYhsAwtc6PUc,19.3103314,73.07259859999999,"['hospital', 'health', 'point_of_interest', 'establishment']",Bhivandi-Nizampur
37,City Hospital,"1st Floor, Niyaz Tower, Opp Anand Talkies, Maulana Azad Rd, Gulzar Nagar, Gaibi Nagar Bhiwandi, Bhiwandi, Maharashtra 421302, India",ChIJl-1dJnK95zsR_lPjEWahc6E,19.2968527,73.0698026,"['hospital', 'health', 'point_of_interest', 'establishment']",Bhivandi-Nizampur
38,Dr Akils Hospital,"Bhiwandi, Dr patil bldg, near talkies, kasar ali, bhiwandi, Nazarana Compound, Dapode, Maharashtra 421302, India",ChIJY9UCRBG95zsRXqCx5W-pBUg,19.3024231,73.0571415,"['hospital', 'health', 'point_of_interest', 'establishment']",Bhivandi-Nizampur
39,First Care Hospital,"Babu Ganj Groups, N N Arcade, Vetal Pada, Gulzar Nagar, Bhiwandi, Maharashtra 421302, India",ChIJe0yRl3K95zsRyawPUORSGFQ,19.302715,73.06628529999999,"['hospital', 'health', 'point_of_interest', 'establishment']",Bhivandi-Nizampur
40,Zohrabi Childrens Hospital,"16, Chudi Mohalla, Bhiwandi-421302, Maharashtra, India",ChIJewYh_hC95zsRGmUvNS2Brq8,19.3006597,73.0552716,"['hospital', 'health', 'point_of_interest', 'establishment']",Bhivandi-Nizampur
41,AL-HAYAT Nursing Home,"beside Anand Cinema, Fandole Nagar, Kacheri Pada, Gaibi Nagar Bhiwandi, Bhiwandi, Maharashtra 421302, India",ChIJyQwpgXG95zsR7rHBRZAgsW4,19.2964,73.07024,"['hospital', 'health', 'point_of_interest', 'establishment']",Bhivandi-Nizampur
42,Brothers Hospital,"fatma nager road, Gulzar Nagar, Bhiwandi, Maharashtra 421302, India",ChIJSeC1cmW95zsRTPbgWB6AKdc,19.3018694,73.07739750000002,"['hospital', 'health', 'point_of_interest', 'establishment']",Bhivandi-Nizampur
43,Indira Gandhi Memorial Hospital,"Ansari Rd, near Panchayat Samiti, Kacheri Pada, Gulzar Nagar, Bhiwandi, Maharashtra 421302, India",ChIJY0oDd2295zsRhpHhkqPU-nc,19.2990255,73.0669831,"['hospital', 'health', 'point_of_interest', 'establishment']",Bhivandi-Nizampur
44,Visiontecheye Hospital,"Dhamankar Naka, Samad Nagar, Padma Nagar, Bhiwandi, Maharashtra 421302, India",ChIJI505Ngm95zsROB8razcLQNY,19.2914205,73.0566888,"['hospital', 'health', 'point_of_interest', 'establishment']",Bhivandi-Nizampur
45,Sagar Hospital,"421302, Dhamankar Naka, Padma Nagar, Bhiwandi, Maharashtra 421302, India",ChIJufzLowm95zsRLBBx1UcwgUE,19.2885844,73.05655469999999,"['hospital', 'health', 'point_of_interest', 'establishment']",Bhivandi-Nizampur
46,Danish Hospital,"Vanjar Patti Naka, Quresh Nagar, Avachit Pada, Bhiwandi, Maharashtra 421302, India",ChIJ38A2tGq95zsRhwb8evG0JpM,19.308676,73.06443469999999,"['hospital', 'health', 'point_of_interest', 'establishment']",Bhivandi-Nizampur
47,SOHAM Hospital,"Padma Nagar, Bhiwandi, Maharashtra 421302, India",ChIJ9Y_uBwy95zsRwow8PpEIb3M,19.2921607,73.0589335,"['hospital', 'health', 'point_of_interest', 'establishment']",Bhivandi-Nizampur
48,AFA CLINIC,"Gokul Nagar, Bhiwandi, Maharashtra 421302, India",ChIJXcMCaBy95zsRy-hzIcG_BOQ,19.3125587,73.0629427,"['hospital', 'health', 'point_of_interest', 'establishment']",Bhivandi-Nizampur
49,"TAJ Children,s Hospital","1st Floor, opp: taj hotel, Gaibi Nagar Bhiwandi, Bhiwandi_, 421302, India",ChIJJVOEzdO95zsR3TRL5ZNZiJo,19.2963194,73.07085529999999,"['hospital', 'health', 'point_of_interest', 'establishment']",Bhivandi-Nizampur
50,Dr. Anees Children's Hospital,"Divi Nagar, Ground Floor,near Jama Masjid Road, Behind Anant Talkies, Fandole Nagar, Gaibi Nagar Bhiwandi, Bhiwandi, Maharashtra 421302, India",ChIJ-aYpgnG95zsRy_dpikmVGOw,19.2962359,73.0704217,"['hospital', 'health', 'point_of_interest', 'establishment']",Bhivandi-Nizampur
51,ANMOL MULTISPECIALITY HOSPITAL,"Nagaon Rd, Nagaon, Gulzar Nagar, Bhiwandi, Maharashtra 421302, India",ChIJ3y2Ov-q95zsR5Exnyl9IC08,19.3009359,73.07330639999999,"['hospital', 'health', 'point_of_interest', 'establishment']",Bhivandi-Nizampur
52,City Medical And Maternity hospital,"Samad Nagar, Kaneri, Bhiwandi, Maharashtra 421302, India",ChIJDxm35iS95zsRG32_Uoaz9Qs,19.2943869,73.05648529999999,"['hospital', 'health', 'point_of_interest', 'establishment']",Bhivandi-Nizampur
53,dr noor khan clinic,"95, Khadak Rd, Teen Batti, Nazarana Compound, Kaneri, Bhiwandi, Maharashtra 421302, India",ChIJgZ-05I-95zsR9k0HcMDUndM,19.3010787,73.0596297,"['hospital', 'health', 'point_of_interest', 'establishment']",Bhivandi-Nizampur
54,Kohinoor Children's Hospital,"Amjadiya Rd, Fandole Nagar, Gaibi Nagar Bhiwandi, Bhiwandi, Maharashtra 421302, India",ChIJyZ-rj7K95zsRn1Yyu4CY3QM,19.2926481,73.07392039999999,"['hospital', 'health', 'point_of_interest', 'establishment']",Bhivandi-Nizampur
55,S.H. Clinic,"Zaitunpura, Kaneri, Bhiwandi, Maharashtra 421302, India",ChIJCRFOUPG95zsRX8OoERjqLBw,19.2993142,73.060056,"['hospital', 'health', 'point_of_interest', 'establishment']",Bhivandi-Nizampur
56,Suyog Hospital,"Dhamankar Naka, Kamatghar, Bhiwandi, Maharashtra 421302, India",ChIJu4woRwi95zsRRnVLaRwLL_U,19.2875205,73.05421919999999,"['hospital', 'health', 'point_of_interest', 'establishment']",Bhivandi-Nizampur
57,Bhiwandi Health Care Multi Speciality Hospital,"Attar Wala Compound,Near Apsara Talkies, Kalyan Road, MSEB Colony, Gaibi Nagar, 421302 mob 9011591030, Gaibi Nagar Bhiwandi, Bhiwandi, Maharashtra 421302, India",ChIJi1X3op295zsRDUyh35tDXiQ,19.2871155,73.0707685,"['hospital', 'health', 'point_of_interest', 'establishment']",Bhivandi-Nizampur
58,Prime Hospital,"1513 Kalyan Road, next to Asabibi Masjid, Shastri Nagar, Bhiwandi, Maharashtra 421302, India",ChIJjeOQsnW95zsR4VwrbUYGyrg,19.289967,73.067882,"['hospital', 'health', 'point_of_interest', 'establishment']",Bhivandi-Nizampur
59,Good Nursing Home,"Nashik Rd, near Shandar market, Bhiwandi, Maharashtra 421302, India",ChIJlaDC-0G95zsRC4D3w_SM35k,19.3108466,73.0696181,"['hospital', 'health', 'point_of_interest', 'establishment']",Bhivandi-Nizampur
