,place_name,address,place_id,latitude,longitude,types,city
0,"Salphale Hospital- Orthopedic Doctor, Orthopedic surgeon(Chandrapur), Orthopedic Hospital in Chandrapur","Civil Lines, Chandrapur, Maharashtra 442402, India",ChIJBxavltTV0jsRcoEVkMHnQSI,19.9603282,79.2947767,"['hospital', 'doctor', 'health', 'point_of_interest', 'establishment']",Chandrapur
1,"District General Hospital, Chandrapur","Jatpura Gate Rd, Hospital Ward, Chandrapur, Maharashtra 442402, India",ChIJR22sdCzU0jsRK6wEatqwlQA,19.9539683,79.29614629999999,"['hospital', 'health', 'point_of_interest', 'establishment']",Chandrapur
2,Christ Hospital,"Jyoti Nagar, Tukum, Chandrapur, Maharashtra 442401, India",ChIJd7Hp-9jV0jsRe4-AyauGn-0,19.9726889,79.2926933,"['hospital', 'health', 'point_of_interest', 'establishment']",Chandrapur
3,Sainani Hospital,"SP College, Ganj Ward, Sabji Mandi, Nawargoan, Bazar Ward, Chandrapur, Maharashtra 442402, India",ChIJw8_n1zHU0jsRmt_PgJ2nND4,19.9505145,79.30144469999999,"['hospital', 'health', 'point_of_interest', 'establishment']",Chandrapur
4,MANWATKAR HOSPITAL,"Near Medicine Complex, Ekori, Ward, Chandrapur, Maharashtra 442402, India",ChIJ6cyIOynU0jsRyy14UTotc0Q,19.9499404,79.2934404,"['hospital', 'health', 'point_of_interest', 'establishment']",Chandrapur
5,Dr Mundhada Bharti Hospital,"Dixit Wada, Chandrapur - Jatpura Gate Rd, behind Chandak Medical, Chandrapur, Maharashtra 442401, India",ChIJ9WGGEivU0jsR2GbCoKgDYHw,19.9560769,79.2942729,"['hospital', 'health', 'point_of_interest', 'establishment']",Chandrapur
6,Kuber Multi Speciality Hospital,"Bhanapeth Ward, Opp SBI Main Branch, Chandrapur, Maharashtra 442402, India",ChIJlbCJqi_U0jsRuiXNtorK9C0,19.9495275,79.2987393,"['hospital', 'health', 'point_of_interest', 'establishment']",Chandrapur
7,"CHL Multispeciality Hospital & Research Centre - Best Heart Hospital, Cardiology Hospital & Gynecology Hospital","Chandrapur - Mul - Saoli - Gadchiroli -MSH7, opposite Adarsh Petrol Pump, Sarkar Nagar, Tukum, Chandrapur, Maharashtra 442401, India",ChIJ0zJVt8jV0jsR6dpTVN9hCP8,19.9697357,79.3078264,"['hospital', 'health', 'point_of_interest', 'establishment']",Chandrapur
8,Shweta Hospital,"behind haweli complex, jatpura gate road, sarai ward, opp.to zilha parishes, Chandrapur, Maharashtra 442402, India",ChIJAQAQg9TV0jsRHtrAOOmMZMs,19.9607309,79.29543249999999,"['hospital', 'health', 'point_of_interest', 'establishment']",Chandrapur
9,Dr. Anande Hospital,"Datala Rd, Revenue Colony, Civil Lines, Chandrapur, Maharashtra 442402, India",ChIJ476m9dXV0jsRI3yzx74Sac8,19.9612285,79.2902783,"['hospital', 'health', 'point_of_interest', 'establishment']",Chandrapur
10,Musale Hospital,"patel nagar ,civil lines, opposite hotel tandoor, Chandrapur, Maharashtra 442402, India",ChIJkyl3bNHV0jsR-xNWa4Mkz68,19.9655742,79.2975354,"['doctor', 'health', 'point_of_interest', 'establishment']",Chandrapur
11,Gulwade Hospital,"Bazar Ward, Chandrapur, Maharashtra 442402, India",ChIJYbSklyzU0jsRzK0okx5O8hM,19.956856,79.2965584,"['hospital', 'health', 'point_of_interest', 'establishment']",Chandrapur
12,Bukkawar Hospital,"Civil Lines, Chandrapur, Maharashtra 442402, India",ChIJh048e9XV0jsRcrJhYnHvSxQ,19.9686593,79.2920054,"['hospital', 'health', 'point_of_interest', 'establishment']",Chandrapur
13,Murkhe Hospital,"Ramnagar, Chandrapur, Maharashtra 442402, India",ChIJU2YLQX_W0jsR9l9pNObLcS4,19.96258,79.289722,"['hospital', 'health', 'point_of_interest', 'establishment']",Chandrapur
14,Agrawal Nursing Home,"Kasturba Rd, near Government Hospital, behind Bazar Ward, Bazar Ward, Chandrapur, Maharashtra 442402, India",ChIJI933bizU0jsRBNzFqKsTP9M,19.9545057,79.2967321,"['hospital', 'health', 'point_of_interest', 'establishment']",Chandrapur
15,Nagrale Hospital,"Chandrapur, Maharashtra 442401, India",ChIJLf2UFSnU0jsRIBAp3lgk_9Y,19.9506264,79.29422819999999,"['hospital', 'health', 'point_of_interest', 'establishment']",Chandrapur
16,Mawani Hospital | Best Pediatrician In Chandrapur,"Chandrapur - Jatpura Gate Road, Ramnagar Rd, Babupeth, Chandrapur, Maharashtra 442402, India",ChIJqTSQQyvU0jsRcPHRnBYwfx0,19.9572348,79.2948511,"['hospital', 'health', 'point_of_interest', 'establishment']",Chandrapur
17,Gurukrupa Clinic & Nursing Home,"Dr kolte's hospital, SBI Chandrapur Main Branch, Gandhi Chowk Rd, Bazar Ward, Chandrapur, Maharashtra 442402, India",ChIJ20BQGi_U0jsRiwiH73aicws,19.9487875,79.2977483,"['hospital', 'health', 'point_of_interest', 'establishment']",Chandrapur
18,Anasuya Nursing Home,"Civil Lines, Chandrapur, Maharashtra 442402, India",ChIJFU5F69fV0jsRbWWeTOKjJek,19.9687087,79.2915752,"['hospital', 'health', 'point_of_interest', 'establishment']",Chandrapur
19,Dr. Shastrakar Hospital,"Gandhi Chowk Rd, Hospital Ward, Chandrapur, Maharashtra 442402, India",ChIJ_fP1ZCzU0jsR7DLHD1H-T1U,19.954996,79.2967462,"['hospital', 'health', 'point_of_interest', 'establishment']",Chandrapur
20,Dr. Madurwar Chandrapur C.T Scan and M.R.I. Centre,"Vivek Nagar, Chandrapur, Maharashtra 442402, India",ChIJNS8CIM_V0jsR9hpi_VqWFR0,19.9678018,79.3057195,"['hospital', 'health', 'point_of_interest', 'establishment']",Chandrapur
21,Dhande Hospital,"Tadoba Rd, D.G.Tukum, Sharda Nagar, Tukum, Chandrapur, Maharashtra 442401, India",ChIJY_1LiNrV0jsRKIwrlwynNAQ,19.9710907,79.29888570000001,"['hospital', 'health', 'point_of_interest', 'establishment']",Chandrapur
22,Mehra Hospital,"Nagpur Rd, Near Janata College, Civil Lines, Chandrapur, Maharashtra 442402, India",ChIJmej8wXbW0jsROQjxp7g6gRg,19.973536,79.2859642,"['hospital', 'doctor', 'health', 'point_of_interest', 'establishment']",Chandrapur
23,Gandhi Hospital Chandrapur,"Pugalia nagar, Civil Lines, Chandrapur, Maharashtra 442402, India",ChIJBcIMd3fW0jsR9O37yPQwuNo,19.9704465,79.2871351,"['hospital', 'health', 'point_of_interest', 'establishment']",Chandrapur
24,Dr. Sardeshpande Hospital,"Vivek Nagar, Chandrapur, Maharashtra 442502, India",ChIJm2-VIM_V0jsR7Dtey6WRovM,19.9678765,79.30597200000001,"['hospital', 'health', 'point_of_interest', 'establishment']",Chandrapur
25,Bhalme Hospital,"Bazar Ward, Chandrapur, Maharashtra 442402, India",ChIJKR8k_jDU0jsRnRIsVCNjmQY,19.9499466,79.3044233,"['hospital', 'health', 'point_of_interest', 'establishment']",Chandrapur
26,Coal City Hospital,"Dr. Amal Potdar, Sarkar Nagar, Tukum, Chandrapur, Maharashtra 442502, India",ChIJncTf8cjV0jsRqDq7tb0cbG4,19.9689977,79.3092396,"['hospital', 'health', 'point_of_interest', 'establishment']",Chandrapur
27,Nehra Hospitals,"D.G.Tukum, Jairaj Nagar, Nirman Nagar, Chandrapur, Maharashtra 442401, India",ChIJAQAAANDV0jsRnjcL54xThwc,19.9704597,79.30148450000002,"['hospital', 'health', 'point_of_interest', 'establishment']",Chandrapur
28,Madhavbaug Clinic,"Tukodoji Nagar, Near S. T. workshop square, Tukum, Chandrapur - 442401, Chandrapur, Maharashtra 442401, India",ChIJlT3P5OfV0jsR8oOk81TlqVo,19.9829716,79.30095519999999,"['hospital', 'health', 'point_of_interest', 'establishment']",Chandrapur
29,"Ekdant Medicals, Dr. Madurwar's Hospital","Chandrapur - Anchaleshwar Gate Rd, Bazar Ward, Chandrapur, Maharashtra 442402, India",ChIJQxlmaSzU0jsRguW2jCtid34,19.9544353,79.2970115,"['hospital', 'health', 'point_of_interest', 'establishment']",Chandrapur
30,Navjeevan Hospital,"Mul Road, Chandrapur, Maharashtra 442401, India",ChIJkQkI_c7V0jsRlcWa6z6ft5U,19.9675865,79.3048343,"['hospital', 'health', 'point_of_interest', 'establishment']",Chandrapur
31,Brindavani Hospital,"Tukum, Chandrapur, Maharashtra 442402, India",ChIJ7QfDd9HV0jsR9d-wQirmMSE,19.965294,79.2985389,"['hospital', 'health', 'point_of_interest', 'establishment']",Chandrapur
32,Khandare Hospital,"Sarkar Nagar, Tukum, Chandrapur, Maharashtra 442401, India",ChIJXRNeQcjV0jsRoeUZM2Zru3c,19.9692867,79.31101149999999,"['hospital', 'health', 'point_of_interest', 'establishment']",Chandrapur
33,Dr. Saurabh Rajurkar,"Unnamed Road, Civil Lines, Chandrapur, Maharashtra 442402, India",ChIJR5RIM3fV0jsRZmiSEPEnhTA,19.9630576,79.2914009,"['hospital', 'health', 'point_of_interest', 'establishment']",Chandrapur
34,WASADE Orthopedic Hospital (Orthopedic Surgeon) In Chandrapur,"Behind Axis Bank, near Janata College, Civil Lines, Chandrapur, Maharashtra 442402, India",ChIJ75x_uHfW0jsR2uph7zaG3Nk,19.9717032,79.2887686,"['doctor', 'health', 'point_of_interest', 'establishment']",Chandrapur
35,Dr. D.S. Wasnik,"Datala Rd, Near Old RTO Office, Ramnagar, Chandrapur, Maharashtra 442401, India",ChIJ9-5LkNXV0jsRplGNsYa9WaU,19.9619659,79.2910082,"['hospital', 'health', 'point_of_interest', 'establishment']",Chandrapur
36,Dr. Dhawas Hospital,"Chandrapur - Durgapur Rd, Shivaji Nagar, D.G.Tukum, Jairaj Nagar, Tukum, Chandrapur, Maharashtra 442401, India",ChIJma2Uw7rV0jsRky5oDbU_mDc,19.9741167,79.29975189999999,"['hospital', 'health', 'point_of_interest', 'establishment']",Chandrapur
37,Bhukte Hospital,"Mul Road, Swastik Nagar, Chandrapur, Maharashtra 442401, India",ChIJWU_Q6s_V0jsRS56X8PYoWzQ,19.969216,79.3027851,"['hospital', 'health', 'point_of_interest', 'establishment']",Chandrapur
38,Dr Bendle Hospital,"Dr Bendle Hostpital in front Zee maha sale bazaar, Maharashtra, India",ChIJs3SgPirU0jsR7ZAOpSgzKcI,19.9525404,79.29574269999999,"['hospital', 'health', 'point_of_interest', 'establishment']",Chandrapur
39,Dr Bhede Hospital,"Kasturba Rd, kumbhar ward, Chandrapur, Maharashtra 442402, India",ChIJI4SNQjbV0jsRlqfnVsYXPjM,19.9547159,79.2969225,"['hospital', 'health', 'point_of_interest', 'establishment']",Chandrapur
40,Dispensary(Durgapur Township),"Chandrapur - Durgapur Rd, WCL Colony, Durgapur, Chandrapur, Maharashtra 442404, India",ChIJdy5FOWkr0zsRT71Oo1Mm2_U,20.0164814,79.30057839999999,"['hospital', 'health', 'point_of_interest', 'establishment']",Chandrapur
41,Dhanorkar Ayurveda Hospital (Panchkarma Center) In Chandrapur,"Opposite Zilla Parishad, near State Bank, 442401, India",ChIJqZvJmdTV0jsR4m17fiv9qzQ,19.9600036,79.29522360000001,"['hospital', 'health', 'point_of_interest', 'establishment']",Chandrapur
42,Mogre Hospital,"near Gajanan mandir, Vivek Nagar, Chandrapur, Maharashtra 442502, India",ChIJ65_WPs_V0jsRGN23rk-0gEQ,19.9691376,79.3059773,"['hospital', 'health', 'point_of_interest', 'establishment']",Chandrapur
43,Dr. Anil Kontamwar Hospital,"7, Shivaji Nagar, D.G.Tukum, Jairaj Nagar, Tukum, Chandrapur, Maharashtra 442401, India",ChIJCRIF6sTV0jsRQjLZiIlOnYw,19.9746218,79.3029025,"['hospital', 'health', 'point_of_interest', 'establishment']",Chandrapur
44,Sanjeevani orthopaedic and fracture hospital,"Police Quarters, D.G.Tukum, Police Colony, Tukum, Chandrapur, Maharashtra 442401, India",ChIJZz-NR9DV0jsRKN6TGYiMghw,19.9682642,79.3000373,"['hospital', 'health', 'point_of_interest', 'establishment']",Chandrapur
45,Trinity Child Speciality Hospital,"Nagpur Rd, near Janata college, Civil Lines, Chandrapur, Maharashtra 442402, India",ChIJT1VV6HbW0jsR1jk9EPUDbcc,19.9722124,79.2867244,"['hospital', 'health', 'point_of_interest', 'establishment']",Chandrapur
46,manvatkar hospital,"Unnamed Road, Urja Nagar, Chandrapur, Maharashtra 442402, India",ChIJL8Bv18_V0jsRkB_SFHwtnpU,19.9657859,79.3092327,"['hospital', 'health', 'point_of_interest', 'establishment']",Chandrapur
47,Dr. Kolte Hospital,"Gol Bazar, Tilak Maidan, Gandhi Chowk Rd, Bazar Ward, Chandrapur, Maharashtra 442402, India",ChIJhZ42Fy_U0jsRAvr7BZ-supI,19.9490859,79.29771439999999,"['hospital', 'health', 'point_of_interest', 'establishment']",Chandrapur
48,Bhede Hospital,"D.G.Tukum, Jairaj Nagar, Tukum, Chandrapur, Maharashtra 442401, India",ChIJAQAAANDV0jsReiU4vhKypH8,19.9704597,79.30148450000002,"['hospital', 'health', 'point_of_interest', 'establishment']",Chandrapur
49,Dr.mogre skin and Child care,"near gajanan mandir, Sarkar Nagar, Tukum, Chandrapur, Maharashtra 442401, India",ChIJs8_UbM_V0jsRCIG0lm2gVZ4,19.9730778,79.3076178,"['hospital', 'health', 'point_of_interest', 'establishment']",Chandrapur
50,Dhande ENT Hospital & Pathology Center,"Nagpur Rd, Beside of CDCC Bank, Civil Lines, Chandrapur, Maharashtra 442402, India",ChIJdcpDEIjX0jsRGAHj3n34Cjw,19.9719147,79.2885778,"['hospital', 'health', 'point_of_interest', 'establishment']",Chandrapur
51,Shishujeet Hospital,"Chandrapur - Mul - Saoli - Gadchiroli -MSH7, Bengali Camp, Shastri Nagar, Tukum, Chandrapur, Maharashtra 442401, India",ChIJnQ5fOsjV0jsREX1Vl3fvSWc,19.9690991,79.3118279,"['hospital', 'health', 'point_of_interest', 'establishment']",Chandrapur
52,EMOBIZON,"NEAR DR.KUBER HOSPITAL BHANAPETH WARD, Maharashtra 442402, India",ChIJleql5C7U0jsRmdmuhb_WkRs,19.9500656,79.29791320000001,"['hospital', 'health', 'point_of_interest', 'establishment']",Chandrapur
53,Dr Regundwar Hospital,"Vivek Nagar Rd, Kabir Nagar, Vivek Nagar, Chandrapur, Maharashtra 442502, India",ChIJn4EnG4bV0jsRQ2D8oPz7VFg,19.9690244,79.3060959,"['hospital', 'health', 'point_of_interest', 'establishment']",Chandrapur
54,Dr. Shardul Wargantiwar Hospital,"Sanjay Gandhi Market, Nagpur Rd, Civil Lines, Chandrapur, Maharashtra 442402, India",ChIJgfOSpuPV0jsRSVgHxhmxgP4,19.9649377,79.29422249999999,"['hospital', 'health', 'point_of_interest', 'establishment']",Chandrapur
55,Sawalkar Hospital,"S.T. work shop square, Tadoba Rd, Tukum, Chandrapur, Maharashtra 442404, India",ChIJ2ecAkufV0jsRMJQkWHYQz38,19.9828538,79.2997395,"['hospital', 'health', 'point_of_interest', 'establishment']",Chandrapur
56,WCL Area Hospital,"Hindustan Lalpeth Colliery, Babupeth, Bazar Ward, Chandrapur, Maharashtra 442507, India",ChIJk5cB1RDU0jsREmCghdusPts,19.9293189,79.30417419999999,"['hospital', 'health', 'point_of_interest', 'establishment']",Chandrapur
57,Aastha Medical Centre,"Ramnagar, Chandrapur, Maharashtra 442402, India",ChIJH-cpXH_W0jsRncnF8EFRgG4,19.9626037,79.2898594,"['hospital', 'health', 'point_of_interest', 'establishment']",Chandrapur
58,Yerne Hospital,"Datala Rd, Revenue Colony, Civil Lines, Chandrapur, Maharashtra 442402, India",ChIJFTaMOH_W0jsRJZzLNhijvH4,19.9614047,79.2882238,"['hospital', 'health', 'point_of_interest', 'establishment']",Chandrapur
59,Khan Child Hospital,"Civil Lines, Chandrapur, Maharashtra 442402, India",ChIJLaW0kdTV0jsRSUB1gb9jL4U,19.960222,79.2952474,"['hospital', 'health', 'point_of_interest', 'establishment']",Chandrapur
