,place_name,address,place_id,latitude,longitude,types,city
0,B. J. Hospital & Research Institute,"Ganesh Nagar, Gondia, Maharashtra 441601, India",ChIJ0-9qdbeuKzoRUGvLs8TiFfo,21.4522976,80.1973649,"['hospital', 'health', 'point_of_interest', 'establishment']",Gondia
1,"Gondia Care Hospital, Bahekar Super Speciality Hospital & Medical Research Center","Civil Lines, Bajaj Nagar, Gondia, Maharashtra 441601, India",ChIJq6qqNrmuKzoRtjGxLqbafo0,21.4570189,80.20545059999999,"['hospital', 'health', 'point_of_interest', 'establishment']",Gondia
2,New Gondia Hospital,"Bajrang Nagar, Bajaj Nagar, Gondia, Maharashtra 441601, India",ChIJGci8TImvKzoRoUp-vdhtm_8,21.4486419,80.20025299999999,"['hospital', 'health', 'point_of_interest', 'establishment']",Gondia
3,Shri KMJ Memorial Hospital And Research Centre,"Shastri Ward, Road, Panchayat Samiti Colony, Bajaj Nagar, Gondia, Maharashtra 441601, India",ChIJ0WFCkLiuKzoRXUioRT7I7Ao,21.4503875,80.20227129999999,"['hospital', 'health', 'point_of_interest', 'establishment']",Gondia
4,Dr. Rana Hospital - Best Gyne Hospital | Best ENT Hospital In Gondia,"Sheetla Manohar Colony Road, Civil Line, Gondia, Maharashtra 441601, India",ChIJe39uAbuuKzoRKo-oSiq2kKc,21.4584744,80.2016849,"['hospital', 'health', 'point_of_interest', 'establishment']",Gondia
5,Osteon Trauma Hospital Gondia,"Fulchur Peth, Gondia, Maharashtra 441614, India",ChIJAw-IacSuKzoRivfAaHGz1kA,21.4418479,80.2029585,"['hospital', 'health', 'point_of_interest', 'establishment']",Gondia
6,SAHAYOG HOSPITAL,"Laxmi Nagar, Gondia, Maharashtra 441614, India",ChIJCRU6LKiuKzoRwurUVvs1WfQ,21.4722863,80.19616359999999,"['hospital', 'health', 'point_of_interest', 'establishment']",Gondia
7,Epione Hospital LLP,"Behind Nirmal Theatre, Shastri Ward, Gondia, Maharashtra 441601, India",ChIJyVNdkkuvKzoRNUJAtbzDFoI,21.4502844,80.20152209999999,"['hospital', 'health', 'point_of_interest', 'establishment']",Gondia
8,Patle MATERNITY AND CHILDREN HOSPITAL,"Sharda Colony, Gondia, Maharashtra 441614, India",ChIJGam0MgCsKzoRZQeR2LsrXsc,21.4732498,80.19029429999999,"['hospital', 'health', 'point_of_interest', 'establishment']",Gondia
9,"K.T.S. General Hospital, Gondia","Nehru Chowk, near bada Puliya, Gondia, Maharashtra 441601, India",ChIJ4xacBLGuKzoRrqTLov2SSww,21.4576356,80.1955268,"['hospital', 'health', 'point_of_interest', 'establishment']",Gondia
10,Central Hospital Gondia,"Unnamed Road, Shivaji Nagar, Gondia, Maharashtra 441601, India",ChIJDQCHeaOvKzoRoJAuZ4REOAo,21.4640726,80.1992716,"['hospital', 'health', 'point_of_interest', 'establishment']",Gondia
11,Aayushya Critical care and Multispeciality Hospital,"In front of Hindi School Ground / Gujarati School, Railtoli, Gondia, Gondia, Maharashtra 441614, India",ChIJDQAAAJCuKzoRJd5ooWjjdbs,21.462449,80.22097699999999,"['hospital', 'health', 'point_of_interest', 'establishment']",Gondia
12,Jeevan Jyoti Hospital,"Opposite Gadekar Hospital ,Girls College Road, near Khoja Maszid, Gondia, Maharashtra 441601, India",ChIJ67AZc7GuKzoRagC0DTW6HY0,21.4579225,80.1944577,"['hospital', 'health', 'point_of_interest', 'establishment']",Gondia
13,ANANYA HOSPITAL,"Bypass Rd, Marar Toli, Old Gondia, Gondia, Maharashtra 441601, India",ChIJj7wBCZeuKzoRlUc9GI2bBDU,21.4599494,80.21280039999999,"['hospital', 'health', 'point_of_interest', 'establishment']",Gondia
14,Karlekar Gynaecology Hospital,"Galli No. 6,Vivekanand Colony, M.F. Ward, Mama Chowk, Maharashtra 441601, India",ChIJoamE4pWuKzoRISF-H97iVLg,21.4557966,80.21068149999999,"['hospital', 'health', 'point_of_interest', 'establishment']",Gondia
15,BHAGAT EYE & ENT HOSPITAL,"Sharda Colony, Gondia, Maharashtra 441614, India",ChIJ1-wyggKsKzoRURWuoPwLMuM,21.4729709,80.1962733,"['hospital', 'health', 'point_of_interest', 'establishment']",Gondia
16,Hospital,"Fulchur Peth, Gondia, Maharashtra 441601, India",ChIJ5dajacSuKzoRZtgJKvft8XY,21.441749,80.2029658,"['hospital', 'health', 'point_of_interest', 'establishment']",Gondia
17,Dr Biranwar Hospital,"Raut Galli, Bajaj Nagar, Gondia, Maharashtra 441601, India",ChIJvc677r2uKzoR2f24hG0g01w,21.4567807,80.2090063,"['hospital', 'health', 'point_of_interest', 'establishment']",Gondia
18,Reliance Hospital - Gondia,"Goregaon Road, Near HP PetrolPump Dawwa, Karanja, Maharashtra 441601, India",ChIJcRhStN-lKzoR36_IVl241io,21.406514,80.1913799,"['hospital', 'health', 'point_of_interest', 'establishment']",Gondia
19,"Bai Ganga Bai Women Hospital, Gondia","Bajaj Nagar, Gondia, Maharashtra 441601, India",ChIJ0e5pP7CuKzoR8FEQ6iSM50I,21.459631,80.1970273,"['hospital', 'health', 'point_of_interest', 'establishment']",Gondia
20,Dr. Ansuman Children Hospital Gondia,"Ramnagar, Gondia, Maharashtra 441614, India",ChIJExmO26yuKzoRNRsUR_m1Cvg,21.4639783,80.1885109,"['hospital', 'health', 'point_of_interest', 'establishment']",Gondia
21,Bramhankar Hospital (The Complete Surgical Solution),"Mama chowk, near Nutan school, Civil Lines, Bajaj Nagar, Gondia, Maharashtra 441601, India",ChIJ0fO7pNuvKzoRlcw4MN77dvc,21.4579955,80.20684519999999,"['hospital', 'health', 'point_of_interest', 'establishment']",Gondia
22,Jaipuriya Nursing Home,"Sai Mandir Road Civil Lines, Gondia, Maharashtra 441601, India",ChIJT_Qj77uuKzoRlj_oASgpiCU,21.456398,80.20326229999999,"['hospital', 'health', 'point_of_interest', 'establishment']",Gondia
23,Shree Nursing Home,"Maa Ambica Colony, Rail Toly, Gondia, Maharashtra 441614, India",ChIJWcXHYKyuKzoRR-bJK3iuUBs,21.4651809,80.19073689999999,"['hospital', 'health', 'point_of_interest', 'establishment']",Gondia
24,Pushpabhoj Complex Gondia,"Sharda Colony, Gondia, Maharashtra 441614, India",ChIJoX8rC6quKzoRTg7YSlZD8dQ,21.4723186,80.1917016,"['hospital', 'health', 'point_of_interest', 'establishment']",Gondia
25,Dr.Gajanan Karshayal,"Civil Lines, Bajaj Nagar, Gondia, Maharashtra 441601, India",ChIJq6qqNrmuKzoRUk5qjvE0lZY,21.4537038,80.2038949,"['hospital', 'health', 'point_of_interest', 'establishment']",Gondia
26,Chitnavis Nursing Home and ACCIDENT HOSPITAL and ANKUR TESTTUBE BABY CENTRE,"Opposite to B. J. Hospital & Research Institute, Ganesh Nagar, Gondia, Maharashtra 441601, India",ChIJv4g9qreuKzoRvU9w25wcVoA,21.4520042,80.1961609,"['hospital', 'health', 'point_of_interest', 'establishment']",Gondia
27,Dharaskar Nursing Home,"Rail Toly, Gondia, Maharashtra 441614, India",ChIJewkCZYSvKzoR50eNKxgMAh4,21.4656505,80.19253359999999,"['hospital', 'health', 'point_of_interest', 'establishment']",Gondia
28,Gujar Hospital Sanjeewani Bal Rugnalaya,"civil Lines Govindpur Road Gondia, Gondia, Maharashtra 441601, India",ChIJj3wIDLyuKzoRxKCmDPj33GA,21.456743,80.204602,"['hospital', 'health', 'point_of_interest', 'establishment']",Gondia
29,Dr. Purohit Hospital,"Unnamed Road, Sindhi Colony, Gondia, Maharashtra 441601, India",ChIJnyvFH66uKzoRaF5hdP25ZuY,21.4607604,80.19435109999999,"['hospital', 'health', 'point_of_interest', 'establishment']",Gondia
30,Balaji Nursing Home,"Ganesh Nagar, Gondia, Maharashtra 441601, India",ChIJb8a64rauKzoRvKju7-aSzC0,21.4529157,80.1958089,"['hospital', 'health', 'point_of_interest', 'establishment']",Gondia
31,Shree Radhe Krishna Critical Hospital,"Hari Om Colony, Bajaj Nagar, Gondia, Maharashtra 441601, India",ChIJMVm9W5auKzoRLue6gVAHjXU,21.4579677,80.2121355,"['hospital', 'health', 'point_of_interest', 'establishment']",Gondia
32,Midas Dental Clinic ( Dr. Abhijit Shende),"Unnamed Road, Bajaj Nagar, Gondia, Maharashtra 441601, India",ChIJQUdZqruuKzoR29LBgIqfI_s,21.4582449,80.2016453,"['hospital', 'health', 'point_of_interest', 'establishment']",Gondia
33,Pardhi nursing home,"Tiroda Rd, Laxmi Nagar, Gondia, Maharashtra 441614, India",ChIJSZcAd6quKzoR6iFOh2mpljA,21.4723163,80.1911598,"['hospital', 'health', 'point_of_interest', 'establishment']",Gondia
34,Railway Health Unit,"Unnamed Road, Main Market, Sindhi Colony, Gondia, Maharashtra 441601, India",ChIJH-EhD7KuKzoR2nCP4ybtTmk,21.460244,80.1922268,"['hospital', 'health', 'point_of_interest', 'establishment']",Gondia
35,Rainbow Child Hospital,"Sharda Colony, Gondia, Maharashtra 441614, India",ChIJdUWaUQKsKzoRBnRs9H6gSnA,21.4752576,80.19531669999999,"['hospital', 'health', 'point_of_interest', 'establishment']",Gondia
36,Gondia City Hospital,"Near, Naka, Nagpur, Road, Bajaj Nagar, Fulchur, Maharashtra 441601, India",ChIJNf2rkseuKzoRO__yF7E7Wrk,21.4486668,80.200081,"['doctor', 'hospital', 'health', 'point_of_interest', 'establishment']",Gondia
37,Dr. Sangrame Clinic,"Goutam Nagar, Bajpai Ward, Shrinagar, Gondia, Maharashtra 441601, India",ChIJd6np3UipKzoRay2OrNorx1E,21.452673,80.1787319,"['hospital', 'health', 'point_of_interest', 'establishment']",Gondia
38,ASHIRWAD HOSPITAL DR Poonam Pardhi,"Tiroda Rd, hanuman chowk, Sharda Colony, Gondia, Maharashtra 441614, India",ChIJ-YcvdeatKzoRlulGyFN9m-c,21.4729525,80.19237059999999,"['hospital', 'health', 'point_of_interest', 'establishment']",Gondia
39,Dr Dharaskar Nursing Home,"Railtoly, Gondia, Maharashtra 441601, India",ChIJAQAAAJCuKzoRLEFE-UE9ATg,21.4624491,80.2209773,"['hospital', 'health', 'point_of_interest', 'establishment']",Gondia
40,Apollo Clinical Lab,"Ganesh Nagar, Gondia, Maharashtra 441601, India",ChIJc_m24rauKzoRherGyoDVFs8,21.4528917,80.1958002,"['hospital', 'health', 'point_of_interest', 'establishment']",Gondia
41,Dr.akbar ali,"Professor Colony, Gondia, Maharashtra 441614, India",ChIJAQAAwP2rKzoRHOqTjNnwEvA,21.4733417,80.1805318,"['hospital', 'health', 'point_of_interest', 'establishment']",Gondia
42,Katre Wada,"Civil Lines, Gondia, Maharashtra 441601, India",ChIJddft8rquKzoRgG92bmoF5Mg,21.499805,80.254435,"['hospital', 'health', 'point_of_interest', 'establishment']",Gondia
43,Om Hospital,"Rail Toly, Gondia, Maharashtra 441614, India",ChIJCbMUTqyuKzoRNu5akAcWdxQ,21.4640826,80.1910802,"['hospital', 'health', 'point_of_interest', 'establishment']",Gondia
44,RUDRA HERBAL CLINIC,"BJ HOSPITAL SQ.LIC ROAD, Ganesh Nagar, Gondia, Maharashtra 441601, India",ChIJm2bcCbeuKzoR24SLtr2CBZM,21.4522143,80.1968168,"['hospital', 'health', 'point_of_interest', 'establishment']",Gondia
45,Gupta Homoeoclinic,"Unnamed Road, Bajaj Nagar, Gondia, Maharashtra 441601, India",ChIJ07M3U7quKzoR3qMIP_cEnS0,21.4578822,80.20142039999999,"['hospital', 'health', 'point_of_interest', 'establishment']",Gondia
46,Dr.Aniket MBBS,"18, Professor Colony, Gondia, Maharashtra 441614, India",ChIJ87twavyrKzoRda6koyHFQV8,21.476305,80.18030999999999,"['hospital', 'health', 'point_of_interest', 'establishment']",Gondia
47,Dr Abha Sonakia's Eye Clinic,"Rail Toly, Gondia, Maharashtra 441614, India",ChIJKU1tTKyuKzoRVp7yODVGQAk,21.4638831,80.191289,"['hospital', 'health', 'point_of_interest', 'establishment']",Gondia
48,Vaishnavi Nursing Home,"Ram Mandir Rd, T B Toli, Kumbhare Nagar, Ramnagar, Gondia, Maharashtra 441614, India",ChIJbYoZBSWpKzoRib0JtoSfMAo,21.4635047,80.18602279999999,"['hospital', 'health', 'point_of_interest', 'establishment']",Gondia
49,Vaishnavi Physiotherapy Clinic (Dr Kanchan Bhoyar),"Civil Lines, Bajaj Nagar, Gondia, Maharashtra 441601, India",ChIJvxmOr7CuKzoRt4-Ru7m83Iw,21.4558558,80.1980794,"['hospital', 'health', 'point_of_interest', 'establishment']",Gondia
50,DR. AMOL JAMBHULKAR,"Professor Colony, Gondia, Maharashtra 441614, India",ChIJQfCP8P6rKzoRfaLF-YZ6vQ4,21.4755293,80.18397329999999,"['hospital', 'health', 'point_of_interest', 'establishment']",Gondia
51,"Shree Netralaya, address changed, Dr Naresh Moharkar","Main Rd, Rail Toly, Gondia, Maharashtra 441614, India",ChIJAXUYNKyuKzoRhs0II6XUKZg,21.4640214,80.1919532,"['hospital', 'health', 'point_of_interest', 'establishment']",Gondia
52,"Bai Ganga Bai Women Hospital, Gondia","Bajaj Nagar, Gondia, Maharashtra 441601, India",ChIJiUQcbLCuKzoRFqe6m9Jczoo,21.4592446,80.1976629,"['hospital', 'health', 'point_of_interest', 'establishment']",Gondia
53,Aniket Chaure VILLA,"18, Professor Colony, Gondia, Maharashtra 441614, India",ChIJe1YgQfyrKzoRWRhi2vGGJDY,21.4760396,80.18034779999999,"['hospital', 'health', 'point_of_interest', 'establishment']",Gondia
54,Kothari Child and Dental Clinic,"Maharashtra, Ashok Colony, Ganesh Nagar, Gondia, Maharashtra 441601, India",ChIJpfDf6LeuKzoRkc0NlA7_YuY,21.4501946,80.1975346,"['hospital', 'health', 'point_of_interest', 'establishment']",Gondia
55,Kudade Hospital,"L 27, Shivaji Nagar Rd, Shivaji Nagar, Gondia, Maharashtra 441601, India",ChIJH1kIla-uKzoRyIgWeBaFzLM,21.4627115,80.19739369999999,"['hospital', 'health', 'point_of_interest', 'establishment']",Gondia
56,City Care Malti-Specialist Hospital,"Civil lines, Bajaj Nagar, Gondia, Maharashtra 441601, India",ChIJ2VJtfLquKzoRF3LftSJW2p8,21.4579068,80.1990886,"['hospital', 'health', 'point_of_interest', 'establishment']",Gondia
57,Shree Clinic,"3rd floorBajaj Hospital, Gaddha Toli, Sukhdev Ward, Gondia, Maharashtra, India",ChIJQxPQd6WuKzoRjUh8xhhLBo4,21.4640957,80.1994969,"['hospital', 'health', 'point_of_interest', 'establishment']",Gondia
58,"Giri Hospital, Civil Line, Gondia","3rd Lane, Civil Lines, Bajaj Nagar, Gondia, Maharashtra 441601, India",ChIJrdKx-LCvKzoRCGvAWfyBfD4,21.4578388,80.21188169999999,"['hospital', 'health', 'point_of_interest', 'establishment']",Gondia
59,Aadhya Multispeciality Hospital,"Ring Road. Rajabhoj colony, Gondia, Maharashtra 441601, India",ChIJLc5TYaeuKzoR_2dR7P93Xdw,21.472814,80.202531,"['hospital', 'health', 'point_of_interest', 'establishment']",Gondia
