,place_name,address,place_id,latitude,longitude,types,city
0,sai hospital Hinganghat,"Hinganghat,, Dag Borkhedi, Hinganghat, Maharashtra 442301, India",ChIJO_xEc6x60zsRvCcmVL4D104,20.5469114,78.8340735,"['hospital', 'health', 'point_of_interest', 'establishment']",Hinganghat
1,Marothi Hospital,"NH 7, Shastriward, Jawade, Hinganghat, Maharashtra 442301, India",ChIJgeVW9gdw0zsR-sptU4kKVBM,20.5400807,78.82789,"['hospital', 'health', 'point_of_interest', 'establishment']",Hinganghat
2,"Sub District Hospital, Hinganghat","NH 7, Sant Tukdoji Ward, Hinganghat, Maharashtra 442301, India",ChIJY0rv4FVl0zsRY2zRM5mavZs,20.5425773,78.8436648,"['hospital', 'health', 'point_of_interest', 'establishment']",Hinganghat
3,"Hatekar Hospital, Hinganghat","Nr Datta Madir, Bus Stop Rd, Dattamandir Ward, Hinganghat, Maharashtra 442301, India",ChIJq6N98DBl0zsR6bKhv_I-oZA,20.5514291,78.8432895,"['hospital', 'health', 'point_of_interest', 'establishment']",Hinganghat
4,Mandhaniya Hospital,"Main Road, near Mahaveer Bhavan, Hinganghat, Maharashtra 442301, India",ChIJTWV59Kx60zsRGt749kIB-a4,20.5482135,78.83576699999999,"['hospital', 'health', 'point_of_interest', 'establishment']",Hinganghat
5,Tulaskar Hospital,"Bus Stop Road, Guru Nanak Ward, Sindhi Colony, Hinganghat, Maharashtra 442301, India",ChIJD1R1VFJl0zsRxPUxCjLcGGI,20.5501789,78.8414482,"['hospital', 'health', 'point_of_interest', 'establishment']",Hinganghat
6,"Saykar,s Hospital","Pothara Colony, Hinganghat, Maharashtra 442301, India",ChIJz5tnIFVl0zsRgbH7oNRlVQQ,20.5438171,78.83953819999999,"['hospital', 'health', 'point_of_interest', 'establishment']",Hinganghat
7,KATARIYA HOSPITAL,"Court road, Sindhi Colony, Hinganghat, Maharashtra 442301, India",ChIJkR1Nk6x60zsRZhoOot2xBzI,20.5505728,78.8411405,"['hospital', 'health', 'point_of_interest', 'establishment']",Hinganghat
8,Ostwal Hospital,"Dag Borkhedi, Hinganghat, Maharashtra 442301, India",ChIJHdCm2K160zsRfIOuGrk0BXU,20.5503673,78.8326154,"['hospital', 'health', 'point_of_interest', 'establishment']",Hinganghat
9,"Karva Hospital,Heart Specialist","Dag Borkhedi, Hinganghat, Maharashtra 442301, India",ChIJbbPVJax60zsRZ1wH26ArfIQ,20.5484519,78.8329661,"['hospital', 'health', 'point_of_interest', 'establishment']",Hinganghat
10,Bonde Hospital,"Desh Seva road, Jagannath Ward, Hinganghat, Maharashtra 442301, India",ChIJ2dlpCq960zsROjqgzmfmSFY,20.5502543,78.83599869999999,"['hospital', 'health', 'point_of_interest', 'establishment']",Hinganghat
11,Sayankar Hospital,"Pothara Colony, Hinganghat, Maharashtra 442301, India",ChIJETZuIFVl0zsRWHmUofuVRYc,20.5438548,78.83955999999999,"['health', 'point_of_interest', 'establishment']",Hinganghat
12,Dr.jadia hospital,"ambedkar square, Hinganghat, Maharashtra, India",ChIJY9nwmrJ60zsRTl6rblP2DoI,20.5531152,78.836292,"['hospital', 'health', 'point_of_interest', 'establishment']",Hinganghat
13,"Health Centre, Hinghanghat","Hinganghat,, Sindhi Colony, Hinganghat, Maharashtra 442301, India",ChIJ3-po-VJl0zsR5SR0QRkloSs,20.5503378,78.84079179999999,"['hospital', 'health', 'point_of_interest', 'establishment']",Hinganghat
14,Kakde Hospital,"Dag Borkhedi, Hinganghat, Maharashtra 442301, India",ChIJRcp2j6x60zsR594LjBp6XAY,20.5474068,78.83594269999999,"['hospital', 'health', 'point_of_interest', 'establishment']",Hinganghat
15,Gindewar's Hospital,"Ram Mandir Ward, Hinganghat, Maharashtra 442301, India",ChIJceLWh6560zsRbtnJSK5S_8c,20.5491574,78.83186909999999,"['hospital', 'health', 'point_of_interest', 'establishment']",Hinganghat
16,DESHPANDE HOSPITAL (GYNAECOLOGY AND EYE SPECIALIST),"Gandhi Ward, near SBI, Hinganghat, Maharashtra, India",ChIJYVZTB0B70zsRc_Va2VyRIIg,20.5463623,78.8347192,"['hospital', 'health', 'point_of_interest', 'establishment']",Hinganghat
17,Govind Hospital,"Bus Stand Rd, Sindhi Colony, Hinganghat, Maharashtra 442301, India",ChIJg1gYZ1Jl0zsRsqLoyfkhYL0,20.5515292,78.8415455,"['hospital', 'health', 'point_of_interest', 'establishment']",Hinganghat
18,Dr. Kothari Hospital & Physiotherapy Center,"Sindhi Colony, Hinganghat, Maharashtra 442301, India",ChIJMZla6qx60zsRPJdO221Yy5U,20.5483518,78.83671749999999,"['hospital', 'health', 'point_of_interest', 'establishment']",Hinganghat
19,Punam Hospitals,"Sindhi Colony, Hinganghat, Maharashtra 442301, India",ChIJrf_vV1Jl0zsRLPRtiijERio,20.5505728,78.8411405,"['hospital', 'health', 'point_of_interest', 'establishment']",Hinganghat
20,Shreya Balrugnalaya Mitkar,"Hinganghat,, Dag Borkhedi, Hinganghat, Maharashtra 442301, India",ChIJvWrCg6x60zsRG9WHjxsjc4E,20.5468734,78.8358475,"['hospital', 'health', 'point_of_interest', 'establishment']",Hinganghat
21,GAME HOSPITAL,"Railway Station Road, Neharu ward, near Axis Bank, Hinganghat, Maharashtra 442301, India",ChIJS5g89qt60zsRSqUH2RYk7Hg,20.5464025,78.83355519999999,"['hospital', 'health', 'point_of_interest', 'establishment']",Hinganghat
22,Dr. Agrawal's Advanced Dental Clinic,"opposite Hinganghat Sub Post Office, Dag Borkhedi, Hinganghat, Maharashtra 442301, India",ChIJTfqfhax60zsRhLcwAEctvjc,20.5472555,78.83596179999999,"['hospital', 'health', 'point_of_interest', 'establishment']",Hinganghat
23,Manwar Dental Clinic,"Sindhi Colony, Hinganghat, Maharashtra 442301, India",ChIJh608Fa160zsRKEJafShkBa4,20.5509952,78.83671679999999,"['hospital', 'health', 'point_of_interest', 'establishment']",Hinganghat
24,Doctor Jamgade Hospital,"Sindhi Colony, Hinganghat, Maharashtra 442301, India",ChIJ63TKu1Jl0zsRSYQyW0dZ-H0,20.5516837,78.83916529999999,"['hospital', 'health', 'point_of_interest', 'establishment']",Hinganghat
25,Poonam Hospital,"Gandhi ward, Hinganghat, Maharashtra 442301, India",ChIJtRfxb6x60zsRxqzbuPZhBoE,20.5473243,78.8346971,"['hospital', 'health', 'point_of_interest', 'establishment']",Hinganghat
26,Dhanshree Netralaya,"Ram Mandir Ward, Near Shani Mandir, Hinganghat, Maharashtra 442301, India",ChIJFfhhca560zsRA3GxxSwg2gM,20.5503654,78.8326158,"['hospital', 'health', 'point_of_interest', 'establishment']",Hinganghat
27,Snehal Labhne,"Sindhi Colony, Hinganghat, Maharashtra 442301, India",ChIJrf_vV1Jl0zsRZuX238scG8w,20.5505728,78.8411405,"['hospital', 'health', 'point_of_interest', 'establishment']",Hinganghat
28,Shriji Dental Care,"Dag Borkhedi, Hinganghat, Maharashtra 442301, India",ChIJSwujiLJ60zsRuH30vWx8tyY,20.553241,78.835715,"['hospital', 'health', 'point_of_interest', 'establishment']",Hinganghat
29,Khilekar Bal Rugnalay,"Dag Borkhedi, Hinganghat, Maharashtra 442301, India",ChIJ_VhfHK160zsRLiMiTJdeCBY,20.5498283,78.83631849999999,"['hospital', 'health', 'point_of_interest', 'establishment']",Hinganghat
30,Gawarment Hoshpital,"Sindhi Colony, Hinganghat, Maharashtra 442301, India",ChIJrf_vV1Jl0zsRSavStggEkl8,20.5505728,78.8411405,"['hospital', 'health', 'point_of_interest', 'establishment']",Hinganghat
31,Sanghvi Hospital for woman and child.,"main Road,, jain Mandir Ward, Hinganghat, Maharashtra 442301, India",ChIJh-E87rJ60zsR7qu-_eRhHOw,20.5500066,78.83578779999999,"['hospital', 'health', 'point_of_interest', 'establishment']",Hinganghat
32,YASHODA HOSPITAL (Pediatric & Eye Care),"Nannasha Ward, Jangona, Hinganghat, Maharashtra 442301, India",ChIJX_4ws4Bl0zsRdh2plp6nfW8,20.5522246,78.84025770000001,"['hospital', 'health', 'point_of_interest', 'establishment']",Hinganghat
33,Dr. Feddewar Hospital,"Adarsh Nagar, Hinganghat, Maharashtra 442301, India",ChIJq6qq501l0zsRp67JmfSH5YQ,20.5542545,78.84339589999999,"['hospital', 'health', 'point_of_interest', 'establishment']",Hinganghat
34,ECIS Disperency,"Sindhi Colony, Hinganghat, Maharashtra 442301, India",ChIJx2-_Hq160zsR_2tkSTuCuNQ,20.5498791,78.83658,"['hospital', 'health', 'point_of_interest', 'establishment']",Hinganghat
35,Dr Murar Homoeopathic Hospital Hinganghat - Dr Praful Murar,"Dr Ambedkar Square, near Mahalaxmi Medical, Hinganghat, Maharashtra 442301, India",ChIJLcsvSah60zsRoZpR8joq1LM,20.5513913,78.8417475,"['health', 'point_of_interest', 'establishment']",Hinganghat
36,Mukhi Hospital,"Jain Mandir Ward, Hinganghat, Civil Lines, New Delhi, Delhi, India",ChIJa4rcHa160zsR9t4JH14hzK4,20.5496914,78.8364613,"['hospital', 'health', 'point_of_interest', 'establishment']",Hinganghat
37,SKIN CARE CLINIC ( DR.TAPISH KHIYANI ),"Dag Borkhedi, Hinganghat, Maharashtra 442301, India",ChIJqfMw0o570zsRC2BXNXEXEUc,20.5523727,78.8358508,"['hospital', 'health', 'point_of_interest', 'establishment']",Hinganghat
38,Lodha hospital main road hinganghat,"Near Old Bus Stop, Hinganghat, Maharashtra 442301, India",ChIJEyUVqeN70zsRl2I0JAeiCNc,20.5514288,78.8375646,"['hospital', 'health', 'point_of_interest', 'establishment']",Hinganghat
39,सर्वज्ञ योग प्राकृतिक चिकित्सालय,"Unnamed Road, Adarsh Nagar, Hinganghat, Maharashtra 442301, India",ChIJ3bMkpGxl0zsR7bv-L0lotuY,20.5539657,78.844346,"['hospital', 'health', 'point_of_interest', 'establishment']",Hinganghat
40,Aditya Clinic,"jain mandir ward, Hinganghat, Maharashtra 442301, India",ChIJ3502_ax60zsRsB8FBdWZIJg,20.5494515,78.83611839999999,"['hospital', 'health', 'point_of_interest', 'establishment']",Hinganghat
41,Magan Netralaya,"NH 7, Dag Borkhedi, Hinganghat, Maharashtra 442301, India",ChIJb1OmjKt60zsRaMo8iLbHUNo,20.546109,78.834071,"['health', 'point_of_interest', 'establishment']",Hinganghat
42,Rural Hospital,"Wadner, Wardha, NH-7, Hinganghat Pandharkawda Road, Wardha, Wardha, Maharashtra 442301, India",ChIJR2a0TwZ00zsRvmT-eGzVnts,20.43112,78.744242,"['hospital', 'health', 'point_of_interest', 'establishment']",Hinganghat
43,Pandey Piles Clinic,"Sindhi Colony, Hinganghat, Maharashtra 442301, India",ChIJC_G-dS9l0zsRKzqz5hLfFWo,20.5511677,78.84174039999999,"['hospital', 'health', 'point_of_interest', 'establishment']",Hinganghat
44,Ranka Hospital,"Sindhi Colony, Hinganghat, Maharashtra 442301, India",ChIJzV2FGa160zsR7cZQcCjRXz4,20.5501811,78.83653410000001,"['health', 'point_of_interest', 'establishment']",Hinganghat
45,Alok Nursing Home,"Dag Borkhedi, Hinganghat, Maharashtra 442301, India",ChIJk9Awm6560zsR4ElCY3WD-vg,20.5486441,78.832089,"['health', 'point_of_interest', 'establishment']",Hinganghat
46,Khalekar Hospital,"Unnamed Road, Dag Borkhedi, Hinganghat, Maharashtra 442301, India",ChIJPcXONQZ70zsRuxJii_y1vwc,20.550538,78.8355086,"['hospital', 'health', 'point_of_interest', 'establishment']",Hinganghat
47,Bonde Hospital - Orthopedics & Maternity,"Jagannath Ward, Hinganghat, Maharashtra 442301, India",ChIJB8itTCJ70zsR1qzxyD7kxRM,20.5501527,78.836082,"['hospital', 'health', 'point_of_interest', 'establishment']",Hinganghat
48,Dr. Borkar-Yashoda Hospital ( Pediatric & Eye Care),"Bus Stand Rd, near Nagarparishad Vachnalay, Nannasha Ward, Jangona, Hinganghat, Maharashtra 442301, India",ChIJz_Vlac5l0zsRwh5oHNLgpXA,20.552012,78.840119,"['hospital', 'doctor', 'health', 'point_of_interest', 'establishment']",Hinganghat
49,Dhanshree Netralaya (Ostwal Hospital),"Ram Mandir Ward, near Shani Mandir, Sindhi Colony, Hinganghat, Maharashtra 442301, India",ChIJWVoVDS9l0zsRWePC5M-rado,20.5505728,78.8411405,"['hospital', 'health', 'point_of_interest', 'establishment']",Hinganghat
50,Nagarparishad Hospital,"Taka Ground, near Bus Stand, Adarsh Nagar, Hinganghat, Maharashtra 442301, India",ChIJ-ZsfsnZl0zsRx43NO_2kXXw,20.5522167,78.8405276,"['hospital', 'health', 'point_of_interest', 'establishment']",Hinganghat
51,Sanchi Dental Clinic,"Nagpur road, near Dr. B.R. Ambedkar school, opp. Balaji furniture, Hinganghat, Maharashtra 442301, India",ChIJrf_vV1Jl0zsR70cSYPcPHRI,20.5522616,78.846411,"['hospital', 'health', 'point_of_interest', 'establishment']",Hinganghat
52,Dr Gianchandani Memorial Hospital,"Main Rd, near Laxmi Talkies, Sindhi Colony, Hinganghat, Maharashtra 442301, India",ChIJsziXBmd70zsRTwavXteZpFY,20.5508972,78.8366468,"['hospital', 'health', 'point_of_interest', 'establishment']",Hinganghat
53,भावना क्लिनिक,"Unnamed Road, Mandgaon, Maharashtra 442102, India",ChIJa2K4K25j0zsRZTT2BJX3Dto,20.6520617,78.87200229999999,"['hospital', 'health', 'point_of_interest', 'establishment']",Hinganghat
54,Pahune Hospital,"Mandgaon, Maharashtra 442102, India",ChIJMVf-H25j0zsRFJqB2Heisk4,20.6532877,78.8722243,"['hospital', 'health', 'point_of_interest', 'establishment']",Hinganghat
55,Lodha Hospital,"near KGN Hall, Sindhi Colony, Hinganghat, Maharashtra 442301, India",ChIJU8r2Fq160zsRVghRPRN-KiQ,20.5519527,78.8375966,"['doctor', 'health', 'point_of_interest', 'establishment']",Hinganghat
56,Dhanvantari Clinic,"opposite Abdulhha height, Adarsh Nagar, Hinganghat, Maharashtra 442301, India",ChIJpTodHVtl0zsRNyHEMuer-6E,20.5540531,78.8492854,"['hospital', 'health', 'point_of_interest', 'establishment']",Hinganghat
57,shree seva samit hospital,"Dag Borkhedi, Hinganghat, Maharashtra 442301, India",ChIJ25KBIS970zsR4ufjp4UzucY,20.5534624,78.8350066,"['hospital', 'health', 'point_of_interest', 'establishment']",Hinganghat
58,Lodha Orthopedic and Dentistry,"ambedkar Square, opposite DYSP office, Sindhi Colony, Hinganghat, Maharashtra 442301, India",ChIJ_ftPzfl70zsRVdfLJL50MlE,20.5522509,78.83729749999999,"['hospital', 'health', 'point_of_interest', 'establishment']",Hinganghat
