,place_name,address,place_id,latitude,longitude,types,city
1,Indira Hospital,"Murlidhar Ali Rd, Gaondevi Chowk, behind Gaondevi Mandir, Kalyan West, Kalyan, Maharashtra 421301, India",ChIJ5bF17teV5zsR1FrRx6Wo3mY,19.2455303,73.1240914,"['hospital', 'health', 'point_of_interest', 'establishment']",Kalyan-Dombivli
2,Amey Multispecialty Hospital,"Skylon Tower, Chakki Naka, Kalyan, Maharashtra 421306, India",ChIJiW9f7DWV5zsRmm_rf94gpB0,19.2233805,73.1256547,"['hospital', 'health', 'point_of_interest', 'establishment']",Kalyan-Dombivli
3,Aayush Hospital,"Shopping Complex, Building No. E2, 2nd & 3rd Floor, Radha Nagar, Khadakpada, Kalyan, Maharashtra 421301, India",ChIJsSlZ4YaW5zsR4UjSiXvflcw,19.2556074,73.1382288,"['hospital', 'health', 'point_of_interest', 'establishment']",Kalyan-Dombivli
4,Neptune Superspeciality Hospital,"Kalyan - Shilphata Rd, Sonar Pada, Dombivli East, Dombivli, Maharashtra 421203, India",ChIJkTLs93eV5zsRE-ugGo0Ey5I,19.2009777,73.1032537,"['hospital', 'health', 'point_of_interest', 'establishment']",Kalyan-Dombivli
5,Phadke Hospital,"Gaurav Prasad Building, Paranaka, opposite Gajanan Maharaj Mandir, Kalyan, Maharashtra 421301, India",ChIJGfPBL9iV5zsRn85fd7yyNjM,19.244186,73.122608,"['hospital', 'health', 'point_of_interest', 'establishment']",Kalyan-Dombivli
6,AUXILIUM HOSPITAL (Multi speciality & Critical Care Centre),"100 Feet Rd, Near Relax Hotel, Kalyan East, Adivali, Dhokali, Dombivli East, Kalyan, Maharashtra 421306, India",ChIJXYdfpK2V5zsRt0dX3YNJ7Qk,19.2107953,73.13160090000001,"['hospital', 'health', 'point_of_interest', 'establishment']",Kalyan-Dombivli
7,ICON Hospital,"ICON Hospital, Manpada Rd, Ganesh Nagar, Dombivli East, Dombivli, Maharashtra 421201, India",ChIJLebWyYmV5zsR3qqQBIF6gZU,19.2078173,73.0942917,"['hospital', 'health', 'point_of_interest', 'establishment']",Kalyan-Dombivli
8,Shivam Hospital: Multispeciality Hospital in Dombivli,"Plot No. 57, C.R.W. CHS, Kalyan Rd, near M.I.D.C. Water Tank, Dombivli East, Dombivli, Maharashtra 421203, India",ChIJ68wCi5GV5zsRsAh2dw1oFtE,19.2154599,73.10114039999999,"['hospital', 'health', 'point_of_interest', 'establishment']",Kalyan-Dombivli
9,Kalyan Metro Multispeciality Hospital,"Anant Sudha Bhavan Gopal Chowk Chakki Naka, Kalyan East, Mumbai, Maharashtra 421306, India",ChIJwVKazsmV5zsREZVBm5MeGgg,19.224087,73.12461859999999,"['hospital', 'health', 'point_of_interest', 'establishment']",Kalyan-Dombivli
11,Kalyan Dombivali Municipal Clinic,"421306, Kolsewadi, Shivaji Colony, Kalyan, Maharashtra 421306, India",ChIJhTdzazOU5zsRQCQ8DMcm_7Y,19.2316989,73.1367151,"['hospital', 'health', 'point_of_interest', 'establishment']",Kalyan-Dombivli
12,Jan Kalyan Multispeciality Hospital,"Malang Road, Malangad Road opp.kalyan janta shakari bank, Kalyan East., Kalyan, Maharashtra 421306, India",ChIJoQPf_bOV5zsRN9o7e2khAcM,19.2177678,73.129206,"['hospital', 'health', 'point_of_interest', 'establishment']",Kalyan-Dombivli
14,Jeevan Jyoti Hospital,"Him Sagar Apartment, Malang Gad Rd, Kalyan, Maharashtra 421306, India",ChIJT-zD87aV5zsRceqrHaC7-W4,19.2204193,73.12727989999999,"['hospital', 'health', 'point_of_interest', 'establishment']",Kalyan-Dombivli
15,Manav Kalyan Kendra Hospital,"Sharda Apartment, Ground, 1st & 2nd Floor, TATA Power Lane, Joshi Wadi, Tilak Nagar, Dombivli East, Dombivli, Maharashtra 421201, India",ChIJBeuP2YuV5zsR2dysTk9EMHU,19.2148654,73.0915761,"['hospital', 'health', 'point_of_interest', 'establishment']",Kalyan-Dombivli
16,AIMS Hospital,"M.I.D.C., Milap Nagar, Dombivli East, Dombivli, Maharashtra 421203, India",ChIJq4YhhpmV5zsRLMozr2NHsSc,19.2079027,73.10562449999999,"['hospital', 'health', 'point_of_interest', 'establishment']",Kalyan-Dombivli
17,Balaji ENT and EYE Hospital,"1st Floor, A Wing, Bhagwatiashish Apt Syndicate, Kalyan-Murbad Rd, Kalyan West, Kalyan, Maharashtra 421301, India",ChIJs3GWAi-U5zsRJooaDwGzo_Y,19.2400972,73.1435182,"['hospital', 'doctor', 'health', 'point_of_interest', 'establishment']",Kalyan-Dombivli
18,Jeevanshree Hospital,"R.P. road, opposite tilak nagar post office, ground floor, Guru milan CHS, Dombivli, Maharashtra 421201, India",ChIJ56nXA4yV5zsRnEoFaGs0Nzs,19.214941,73.09405799999999,"['hospital', 'doctor', 'health', 'point_of_interest', 'establishment']",Kalyan-Dombivli
19,MEERA HOSPITAL - SPARSH HEALING & CARE (I) PVT. LTD,"near Zojwala Petrol Pump, Bhanu Sagar Talkies, Bhanunagar Kalyan(West), Bail Bazar, Kalyan West, Mumbai, Maharashtra 421301, India",ChIJl_HQtdGV5zsROLcZs6Ad0As,19.2358433,73.1267599,"['hospital', 'health', 'point_of_interest', 'establishment']",Kalyan-Dombivli
20,Holy Cross Hospital,"Karnik Rd, Kalyan West, Kalyan, Maharashtra 421301, India",ChIJeUieni6U5zsRDYcdjIOYbi0,19.2405381,73.14097319999999,"['hospital', 'health', 'point_of_interest', 'establishment']",Kalyan-Dombivli
21,Bai Rukminibai Hospital,"Bhoiwada, Kalyan, Maharashtra 421301, India",ChIJ7wAJydKV5zsRVwKPV5eEoeA,19.2374539,73.1348945,"['hospital', 'health', 'point_of_interest', 'establishment']",Kalyan-Dombivli
22,SRV Mamata Hospital,"P-43, next to ICICI Bank, Phase II, MIDC, Dombivli (E, Dombivli, Maharashtra 421203, India",ChIJlenKNJqV5zsRd_36Ux0GzBM,19.2073689,73.1042058,"['hospital', 'health', 'point_of_interest', 'establishment']",Kalyan-Dombivli
23,Ved Hospital,"Vedant Chamber, Near Durgadi Bridge, Kalyan - Bhiwandi Rd, Jambhulwadi, Kon, Kalyan, Maharashtra 421302, India",ChIJ1ZZO7wqW5zsR6V2OnMo6DWU,19.246748,73.109051,"['hospital', 'health', 'point_of_interest', 'establishment']",Kalyan-Dombivli
24,govt. hospital,"Suchak Naka, Kachore Gaon, Kalyan, Maharashtra 421301, India",ChIJd-mTF7yV5zsRhb5mTWVqudg,19.2237675,73.1223983,"['hospital', 'health', 'point_of_interest', 'establishment']",Kalyan-Dombivli
25,Old Age Hospital DMCT Kalyan,"New Rachana Park, Kalyan East, Gopal krishna Nagar, Maharashtra 421306, India",ChIJZ1VV5rWV5zsR9bgdas-ZMMM,19.2227319,73.12837520000001,"['hospital', 'health', 'point_of_interest', 'establishment']",Kalyan-Dombivli
26,Balaji Hospital,"near Sai English School, Katemanivali, Hanuman Nagar, Kalyan, Maharashtra 421306, India",ChIJB3_06jWU5zsRPdSbUpYmGg8,19.2262592,73.13954799999999,"['hospital', 'health', 'point_of_interest', 'establishment']",Kalyan-Dombivli
27,Navjeevan Hospital,"Manpada Rd, Raghuveer Nagar, Dattanagar, Dombivli East, Dombivli, Maharashtra 421201, India",ChIJZx3yEomV5zsRnvnyx9sFpUg,19.213073,73.0915691,"['hospital', 'health', 'point_of_interest', 'establishment']",Kalyan-Dombivli
28,Hambarde Hospital,"Shahid Bhagat Singh Rd, Near Sarvesh Hall, Krishna Radha Society, Dombivli East, Dombivli, Maharashtra 421201, India",ChIJbxaruYuV5zsRwjEufE7CoQA,19.2162681,73.0916065,"['hospital', 'health', 'point_of_interest', 'establishment']",Kalyan-Dombivli
29,Saisanket Hospital,"2nd Floor, Joker Plaza, Bail Bazaar, opp. D-Mart, Kalyan-West, Maharashtra 421301, India",ChIJw5mL2H6W5zsRAvtfFFUY0N8,19.238285,73.12562199999999,"['hospital', 'health', 'point_of_interest', 'establishment']",Kalyan-Dombivli
30,Shreedevi Hospital,"Akash Arcade, Deepak Shetty Road Bail Bazar Circle Near Bhanu Sagar Cinema, Kalyan West, Mumbai, Maharashtra 421301, India",ChIJoyCmw9GV5zsR7fPzOiS7mZU,19.2360674,73.1273023,"['hospital', 'health', 'point_of_interest', 'establishment']",Kalyan-Dombivli
31,shree siddhivinayak hospital,"kalyan shill road,golavali, dawdi naka,, Dombivli East, near suyog hotel, dombivli east, Maharashtra 421203, India",ChIJ2TL7eZiV5zsRb3F8btE0h5g,19.208534,73.11103299999999,"['hospital', 'health', 'point_of_interest', 'establishment']",Kalyan-Dombivli
32,JariMari Hospital,"Kolsewadi, Shivaji Colony, Kalyan, Maharashtra 421306, India",ChIJ2dPI3DSU5zsR_a-CC24bN5s,19.2281951,73.1360919,"['hospital', 'health', 'point_of_interest', 'establishment']",Kalyan-Dombivli
33,Laxmi General Hospital,"Meera Apartment, Pune Link Road, Kalyan East, Maharashtra 421306, India",ChIJu7zHkMqV5zsRoiFUptpFcU4,19.225127,73.133062,"['hospital', 'health', 'point_of_interest', 'establishment']",Kalyan-Dombivli
34,Karwa Hospital,"1st Floor, Swar Ganga, Tilak Road, Dombivli East, Dombivli, Maharashtra 421201, India",ChIJ40RZk4uV5zsRwSTnrTvQgUs,19.2163187,73.0926827,"['hospital', 'health', 'point_of_interest', 'establishment']",Kalyan-Dombivli
35,Shree Gajanan Hospital,"No-4, Rambaug Lane, Near Holy Cross School Chikenghar, Kalyan West, Kalyan, Maharashtra 421301, India",ChIJD2AEnSuU5zsRmvw5kc3NZ1c,19.245361,73.1384929,"['hospital', 'health', 'point_of_interest', 'establishment']",Kalyan-Dombivli
36,Siddhivinayak Hospital,"Vaishnavi Dham, Behind Ramchandra Heights, Naka, Tisgaon, Kalyan, Maharashtra 421306, India",ChIJ97HNkcqV5zsRAYJgL0k4tLM,19.2257521,73.1324988,"['hospital', 'health', 'point_of_interest', 'establishment']",Kalyan-Dombivli
37,National Hospital,"Sahajanand Chowk, Agra Rd, near Kala Talao, Kalyan West, Maharashtra 421301, India",ChIJO_5yLNSV5zsRssLOz1G86Bk,19.2439555,73.1295031,"['hospital', 'health', 'point_of_interest', 'establishment']",Kalyan-Dombivli
38,Satyam General Hospital,"Salas, Rambaug - 4, Kalyan West, Kalyan, Maharashtra 421301, India",ChIJVVVVldSV5zsRoVtfq833f-I,19.2466813,73.1357034,"['hospital', 'health', 'point_of_interest', 'establishment']",Kalyan-Dombivli
39,Diamond Multispeciality Hospital,"1st floor laxmi niwas,opp. zenith rubber factory Kalyan sheel road east, Golavli, Dombivli East, Dombivli, Maharashtra 421306, India",ChIJTWXYdLyV5zsR0tJQDWShctE,19.2155397,73.1172223,"['hospital', 'health', 'point_of_interest', 'establishment']",Kalyan-Dombivli
40,Galaxy Criticare Hospital,"Ghanashyam Gupte Rd, Near Gopi Mall, Vishnu Nagar, Dombivli West, Dombivli, Maharashtra 421202, India",ChIJ091f_h6-5zsR5vg22oxQlIc,19.2228214,73.0846212,"['hospital', 'health', 'point_of_interest', 'establishment']",Kalyan-Dombivli
41,Chaitanya Hospital,"Pune Link Road, Shivaji Colony, Kalyan, Maharashtra 421306, India",ChIJh5quUDWU5zsRzexZmJJ9zzs,19.2249189,73.1354094,"['hospital', 'health', 'point_of_interest', 'establishment']",Kalyan-Dombivli
42,The Kalyan Hospital,"B-11, GF, Gagangiri Enclave, Barave Road, Near Cine Max Cinema, Sai Chowk Khadakpada, Kalyan West, Kalyan, Maharashtra 421301, India",ChIJVeaAP4SW5zsRQDYWsD7S3Sg,19.2558324,73.1425433,"['hospital', 'health', 'point_of_interest', 'establishment']",Kalyan-Dombivli
43,Lifecare hospital,"radhika apartment, east, Chakki Naka, Santosh Nagar, Kalyan, Maharashtra 421306, India",ChIJ3yS_28mV5zsRNwIy7E-5gpk,19.224346,73.1275187,"['hospital', 'health', 'point_of_interest', 'establishment']",Kalyan-Dombivli
44,SHUBHAMKAR MATERNITY HOSPITAL,"101,102, SHYAM NIVAS, NETIVALI NAAKA, KALYAN SHIL ROAD, Kalyan, Maharashtra 421306, India",ChIJ3V13j8iV5zsREpq8gGxryWc,19.2268576,73.1239359,"['hospital', 'health', 'point_of_interest', 'establishment']",Kalyan-Dombivli
45,Hardikar Hospital,"Ramchandra Nagar, Dombivli East, Dombivli, Maharashtra 421201, India",ChIJT9-B-IaV5zsROYOENBTMSSw,19.2059642,73.0913001,"['hospital', 'health', 'point_of_interest', 'establishment']",Kalyan-Dombivli
46,"Aashirwad Hospital आशिर्वाद हॉस्पिटल बालरोग आणि कान, नाक व घसा सर्जन","Om Shraddha Towers, 2nd Floor, Above TDCC Bank Tisgao Naka, Kalyan East, Santosh Nagar, Kalyan, Maharashtra 421306, India",ChIJl4UDfMqV5zsRqynq16-JPnw,19.2245918,73.13151979999999,"['hospital', 'doctor', 'health', 'point_of_interest', 'establishment']",Kalyan-Dombivli
47,Dr Arbat Gurudeo Maternity Hospital,"Kolsewadi,Kalyan East, Kalyan, Maharashtra 421306, India",ChIJu3IwXjSU5zsRb3ZP2heH12c,19.2290466,73.1380248,"['hospital', 'health', 'point_of_interest', 'establishment']",Kalyan-Dombivli
48,Fortis | Best Oncology Hospital in Kalyan,"1140, Shill Road, Bhanunagar Kalyan(West), Bail Bazar, Bhoiwada, Kalyan, Maharashtra 421301, India",ChIJ73mnTDqV5zsRnPnj9aT_R1Y,19.2377013,73.1230112,"['hospital', 'health', 'point_of_interest', 'establishment']",Kalyan-Dombivli
49,Pari Multispeciality Hospital and Diagnostic Centre,"1st Floor, Appaji Dham, Umbarde Rd, near Shree Complex, Kalyan West, Maharashtra 421301, India",ChIJnR91kZWX5zsRd0a177Y_UyE,19.2620085,73.128562,"['hospital', 'health', 'point_of_interest', 'establishment']",Kalyan-Dombivli
50,Kalptaru hospital,"Kalyan-Murbad Rd, Bhanu Sagar Talkies, Bhanunagar Kalyan(West), Bail Bazar, Bhoiwada, Kalyan, Maharashtra 421301, India",ChIJl7MvTtCV5zsRnxiDS09bbgY,19.2371933,73.1255923,"['hospital', 'health', 'point_of_interest', 'establishment']",Kalyan-Dombivli
51,City Hospital,"Bhanunagar Kalyan(West), Bail Bazar, Bhoiwada, Kalyan, Maharashtra 421301, India",ChIJoXhVbNCV5zsR5f-VQ79JIfk,19.236597,73.1240921,"['hospital', 'health', 'point_of_interest', 'establishment']",Kalyan-Dombivli
52,Vitthalkrupa Hospital,"Hanuman Nagar - Jaibhai Marathi School Rd, Katemanivali, Hanuman Nagar, Kalyan, Maharashtra 421306, India",ChIJtQFT2jWU5zsRdFFUQ_G-lJU,19.2268205,73.1403573,"['hospital', 'health', 'point_of_interest', 'establishment']",Kalyan-Dombivli
53,Samarth Hospital,"421301, Gauripada, Kalyan, Maharashtra 421301, India",ChIJRfchY5yW5zsRD5WnJR7kx8c,19.2538747,73.14991839999999,"['hospital', 'health', 'point_of_interest', 'establishment']",Kalyan-Dombivli
54,Mauli Hospital,"Chinchpada Rd, Amrai, Neelkanthnagar, Chinchpada Gaon, Kalyan, Maharashtra 421306, India",ChIJLyaGd06U5zsRgQGc6USmpo8,19.215692,73.1410034,"['hospital', 'health', 'point_of_interest', 'establishment']",Kalyan-Dombivli
55,LIFECARE NX HOSPITAL,"Gandhar Nagar, Khadakpada, Kalyan, Maharashtra 421301, India",ChIJtacLzYCW5zsRcaipuZfjAJg,19.2533043,73.1370614,"['hospital', 'health', 'point_of_interest', 'establishment']",Kalyan-Dombivli
56,Amrut hospital,"Dr Rajendra Prasad Road, Tilak Nagar, Dombivli East, Dombivli, Maharashtra 421201, India",ChIJqV4i4ouV5zsRuYk3ZiANOHE,19.2147383,73.0922016,"['hospital', 'health', 'point_of_interest', 'establishment']",Kalyan-Dombivli
57,Shree Krishna Multispeciality Hospital,"Nandivali, Kalyan East, Kalyan, Maharashtra 421306, India",ChIJZ6Qnr4GV5zsR5nF45HiARkc,19.2119231,73.131907,"['hospital', 'health', 'point_of_interest', 'establishment']",Kalyan-Dombivli
58,Sai Dhan Multispecility Hospital,"Kalyan East, Pisavli Village, Dombivli East, Dombivli, Maharashtra 421306, India",ChIJg8jbpmCV5zsRpiLietpvWlU,19.2103366,73.12862059999999,"['hospital', 'health', 'point_of_interest', 'establishment']",Kalyan-Dombivli
59,Ashwini Hospital,"Tilak Nagar, Dombivli East, Dombivli, Maharashtra 421201, India",ChIJJYqOXImV5zsROMI4tiQff_Q,19.2141532,73.09247959999999,"['hospital', 'health', 'point_of_interest', 'establishment']",Kalyan-Dombivli
