,place_name,address,place_id,latitude,longitude,types,city
0,Aster Aadhar Hospital,"Near, R. S. No. 628, 'B' Ward, near KMT Workshop, Shastri Nagar, Kolhapur, Maharashtra 416012, India",ChIJ__NorS_SQRER_WKZjDpMTVA,16.6852076,74.2380163,"['hospital', 'health', 'point_of_interest', 'establishment']",Kolhapur
1,Krishna Hospital,"Near Sambhajinagar S T stand Road, Kolhapur, Maharashtra 416012, India",ChIJDbBwFaqqwTsRX14jAfJQ3Vo,16.679605,74.216442,"['hospital', 'health', 'point_of_interest', 'establishment']",Kolhapur
2,Athaayu Hospital Kolhapur,"Bengaluru - Mumbai Hwy, Ujalaiwadi, Kolhapur, Maharashtra 416004, India",ChIJ3c8_sS7-wDsR6UiRbX-1CyQ,16.6733187,74.2717624,"['hospital', 'health', 'point_of_interest', 'establishment']",Kolhapur
3,Apple Saraswati Multispeciality Hospital,"804/2, 805/2, E Ward, Circuit House To Kadamwadi Road, Bhosalewadi, Kolhapur, Maharashtra 416003, India",ChIJq6qq6lYAwTsRYvREyFdDN9g,16.7224359,74.254611,"['hospital', 'health', 'point_of_interest', 'establishment']",Kolhapur
4,Panchganga Rugnalay,"D Ward, Shukrawar Peth, Kolhapur, Maharashtra 416002, India",ChIJqYpWeXUAwTsRPQCK0_W1JK0,16.7008142,74.21834530000001,"['hospital', 'health', 'point_of_interest', 'establishment']",Kolhapur
5,Hospital,"4th Ln, Poorvarang, Mahalaxminagar, Rajarampuri, Kolhapur, Maharashtra 416001, India",ChIJdwMkWD4AwTsRy1XUs7Ghfbg,16.696676,74.244203,"['hospital', 'health', 'point_of_interest', 'establishment']",Kolhapur
6,City Hospital Rajarampuri,"8th Ln, near city hospital, Poorvarang, Mahalaxminagar, Rajarampuri, Kolhapur, Maharashtra 416008, India",ChIJVVVVFTkAwTsRzG8Zz--846Y,16.694062,74.243087,"['hospital', 'health', 'point_of_interest', 'establishment']",Kolhapur
7,Diamond Hospital,"Kasaba Bawada Main Rd, next to Mahaveer College, Ramanmala, Kolhapur, Maharashtra 416003, India",ChIJBfhxW2UAwTsRbJTklFCo55s,16.7111041,74.2305824,"['hospital', 'health', 'point_of_interest', 'establishment']",Kolhapur
8,Hospital,"14, 12th Ln, Poorvarang, Mahalaxminagar, Rajarampuri, Kolhapur, Maharashtra 416008, India",ChIJB1mcejwAwTsRuQj7v4qvvbc,16.6925757,74.24666959999999,"['hospital', 'health', 'point_of_interest', 'establishment']",Kolhapur
9,pravara hospital,"Mangalwar Peth, C Ward, Kolhapur, Maharashtra 416012, India",ChIJlSeoJwgAwTsRoCKHpJp3M7U,16.6884759,74.2187958,"['hospital', 'health', 'point_of_interest', 'establishment']",Kolhapur
10,city hospital,"8th Ln, Poorvarang, Mahalaxminagar, Rajarampuri, Kolhapur, Maharashtra 416008, India",ChIJk-2ZKDwAwTsRXOUzqk0724A,16.6943622,74.24503610000001,"['hospital', 'health', 'point_of_interest', 'establishment']",Kolhapur
11,Ganesh Hospital,"Azad Chowk शाहू मिल मार्ग near to Uma Talkies, Kolhapur, Maharashtra 416012, India",ChIJK7gv0GwAwTsRJfOJxByP2iI,16.6913085,74.244866,"['hospital', 'health', 'point_of_interest', 'establishment']",Kolhapur
12,Kolhapur Maternity Hospital,"4th Lane, Rajarampuri, Kolhapur, Maharashtra 416008, India",ChIJzRExPz4AwTsRZ_SEIwYPNnQ,16.6961937,74.2427534,"['hospital', 'health', 'point_of_interest', 'establishment']",Kolhapur
13,Ganga hospital,"Ganga hospital,147 A ward,near rankalavesh bus stand,dudhali, Kolhapur, Maharashtra 416008, India",ChIJDZMnbqCqwTsRXyR0MJ6vo3w,16.6963638,74.2171339,"['hospital', 'health', 'point_of_interest', 'establishment']",Kolhapur
14,ORANGE MULTISPECIALITY HOSPITAL PVT.Ltd.,"Mangalwar Peth, C Ward, Kolhapur, Maharashtra 416012, India",ChIJqRSjiQgAwTsRoFuD2Aq2Syw,16.6880324,74.2209888,"['hospital', 'health', 'point_of_interest', 'establishment']",Kolhapur
15,Tulip Traumacare & Multispeciality Hospital,"mahalaxmi bhavan, unique park, Nimbalkar Colony,, Ruikar Colony, Kolhapur, Maharashtra 416005, India",ChIJZ36fRE8AwTsRHsK2zAv0_fo,16.7078017,74.2539496,"['hospital', 'health', 'point_of_interest', 'establishment']",Kolhapur
16,Ishan Hospital,"Pratiraj Complex, opp. Pitali Ganpati Mandir, Tarabai Park, Kolhapur, Maharashtra 416003, India",ChIJh74sdGcAwTsRl0qsCuyWjoo,16.7166165,74.2412348,"['hospital', 'health', 'point_of_interest', 'establishment']",Kolhapur
17,Mauli Maternity Hospital Kolhapur,"2081, Ward C, near Post Office, Shaniwar Peth, Kolhapur, Maharashtra 416002, India",ChIJU6bRlQ4AwTsRcfaeWJ8YY_4,16.7001861,74.2236178,"['hospital', 'health', 'point_of_interest', 'establishment']",Kolhapur
18,Apex Hospital,"Gadre Garden, Shivaji Park, Kolhapur, Maharashtra 416003, India",ChIJD_2EL0EAwTsRUdgDvF7tB6s,16.703892,74.24658099999999,"['hospital', 'health', 'point_of_interest', 'establishment']",Kolhapur
19,Adhar Hospital,"Mangalwar Peth, Manganwlar Peth, Kolhapur, Maharashtra 416012, India",ChIJ5xkw0xEAwTsRvXSbsCW9gSg,16.6906627,74.2301986,"['hospital', 'health', 'point_of_interest', 'establishment']",Kolhapur
20,Kelavkar Medical Centre,"247/1, E Ward, Tarabai Park, Kolhapur, Maharashtra 416003, India",ChIJK7gv0GwAwTsRd26FlEjAYjU,16.7115476,74.2403282,"['hospital', 'health', 'point_of_interest', 'establishment']",Kolhapur
21,J K Multispeciality Hospital,"306,E,New Shahupuri,Kolhapur, Kolhapur, Maharashtra 416001, India",ChIJVVVVxWsAwTsRxAw366w1_mY,16.705737,74.2423489,"['hospital', 'doctor', 'health', 'point_of_interest', 'establishment']",Kolhapur
22,Shri Siddhivinayak Heart Hospital .,"Y.P.Powar nagar, Kolhapur, Maharashtra 416012, India",ChIJpWMTYRcAwTsR5exRy-MFeys,16.6884781,74.23731970000001,"['hospital', 'health', 'point_of_interest', 'establishment']",Kolhapur
23,Sai Cardiac Hospital,"2021/B, 6th Ln, S.T.Colony, Mahalaxminagar, Rajarampuri, Kolhapur, Maharashtra 416008, India",ChIJicdQlj4AwTsRirqRrNmej6A,16.695414,74.245575,"['hospital', 'health', 'point_of_interest', 'establishment']",Kolhapur
24,Purva Hospital,"1169, Sykes Extension, Takala Road, Rajaram Road, Kolhapur, Maharashtra 416001, India",ChIJqZHblzgAwTsRRiwFuIHiYyQ,16.7000211,74.2488293,"['hospital', 'health', 'point_of_interest', 'establishment']",Kolhapur
25,Sushrisha Hospital rajarampuri,"In Front Of Rajarampuri Police Station, Daulat Nagar, Tinbatti Chowk, Beside Pratibha Nagar Hall, Kolhapur, Maharashtra 416008, India",ChIJ30x5XiMAwTsRCXSU3IoSH4w,16.6877359,74.246957,"['hospital', 'health', 'point_of_interest', 'establishment']",Kolhapur
26,Lotus Hospital & Research Centre,"252, Dasara, Opposite Khandlikar Petrol Pump, Karveer, Kolhapur, Maharashtra 416002, India",ChIJK7gv0GwAwTsRJgxftsMtCZA,16.6913521,74.2448125,"['hospital', 'health', 'point_of_interest', 'establishment']",Kolhapur
27,Hirai Hospital,"Kasaba Bawada, Kolhapur, Maharashtra 416006, India",ChIJny3Q6xUBwTsRv9ytDcuzd9Q,16.7355515,74.2441997,"['hospital', 'health', 'point_of_interest', 'establishment']",Kolhapur
28,Aastha Hospital,"Royal Pride, Station Road, Opposite Railway Station, Opposite Gokul Hotel, Kolhapur, Maharashtra 416001, India",ChIJl6z0iGsAwTsRpZB_mrUeVTk,16.703684,74.236087,"['hospital', 'health', 'point_of_interest', 'establishment']",Kolhapur
29,Rainbow Hospital,"Mirje Chambers, 1st Floor, CTS No. 1962/63, C Ward, Laxmipuri,, near Ayodhya Theater, Kolhapur, Maharashtra 416008, India",ChIJq6rq03IAwTsRzgk7-yqEy9k,16.698982,74.227043,"['hospital', 'health', 'point_of_interest', 'establishment']",Kolhapur
30,Masai Swami Samarth Children Hospital,"Lugadi Ol Rd, near Mahanagar Palika, Kavlapur, Kolhapur, Maharashtra 416002, India",ChIJPyiUsAwAwTsRc0nAO6-cBQY,16.6981232,74.2247742,"['hospital', 'health', 'point_of_interest', 'establishment']",Kolhapur
31,Mangalmurti Hospital,"Shastri Nagar chowk, beside Kale Ground, Shastri Nagar, Kolhapur, Maharashtra 416008, India",ChIJP6fakRcAwTsRUblitqQGS08,16.6892176,74.2394059,"['hospital', 'health', 'point_of_interest', 'establishment']",Kolhapur
32,Hospital,"2563 B ward, khasbag, Mangalwar Peth, khasbag, Kolhapur, Maharashtra 416012, India",ChIJZ-lRPTIBwTsRt8qftCf0aS0,16.6922145,74.22756319999999,"['hospital', 'health', 'point_of_interest', 'establishment']",Kolhapur
33,Janaki Multispeciality Hospital,"Bus route, 3rd Ln, Poorvarang, Mahalaxminagar, Rajarampuri, Kolhapur, Maharashtra 416001, India",ChIJgwm6Nz4AwTsRQWWT23c7jc4,16.6969066,74.2435888,"['hospital', 'health', 'point_of_interest', 'establishment']",Kolhapur
34,Vardhan Hospital,"Central Bus Stand, Near Parikh Pool Near Shivaji University Bus Stop, behind Swarg Jewellers, Kolhapur, Maharashtra 416001, India",ChIJJWKuEUAAwTsRACI9rr0P3_g,16.7009883,74.2423532,"['hospital', 'dentist', 'doctor', 'health', 'point_of_interest', 'establishment']",Kolhapur
35,PULSE HOSPITAL,"PLOT NO 28,DR.GHATAGE COLONY,LISHAN HOTEL, Kadamwadi Rd, Kolhapur, Maharashtra 416003, India",ChIJL-i_jk8AwTsRiB1yKzne77A,16.7161568,74.252321,"['hospital', 'health', 'point_of_interest', 'establishment']",Kolhapur
36,Western India Institute of Neurosciences,"182/83 B, Bawada Road, Near Mahaveer College, Nagala Park, Kolhapur, Maharashtra 416002, India",ChIJz0wM83oAwTsRdph3aS17Vbk,16.7120684,74.2271371,"['hospital', 'health', 'point_of_interest', 'establishment']",Kolhapur
37,Seva Hospital,"Indumati Road, Police Head Quarters, Kolhapur, Maharashtra 416006, India",ChIJ3Twl_vQAwTsRnTn734IHRvk,16.7262799,74.24412310000001,"['hospital', 'health', 'point_of_interest', 'establishment']",Kolhapur
38,Kamalai Hospital,"Rajarampuri Road, Near Kamala College, Karveer, near Metro Showroom, Kolhapur, Maharashtra 416005, India",ChIJK7gv0GwAwTsRLQtbvsAArN0,16.6913076,74.24486619999999,"['hospital', 'health', 'point_of_interest', 'establishment']",Kolhapur
39,Athaayu Multi-specialty Hospital,"44/1, National Highway 4, Ujalaiwadi, Kolhapur, Maharashtra 416004, India",ChIJ18ZssS7-wDsRcJ6dkDOVE3E,16.6733272,74.2717594,"['hospital', 'health', 'point_of_interest', 'establishment']",Kolhapur
40,Ganesh Hospital,"Tembe Rd, Raviwar Peth, Manganwlar Peth, Kolhapur, Maharashtra 416002, India",ChIJCxTnEhIAwTsR4Hacpky0xIc,16.6947626,74.2308135,"['hospital', 'health', 'point_of_interest', 'establishment']",Kolhapur
41,Matru Bal Hospital,"Dr. S.J. Nagaonkar Road, Kolhapur, Maharashtra, India",ChIJ26JUNwoAwTsR3N5Y23xNXeg,16.6937569,74.2201539,"['hospital', 'doctor', 'health', 'point_of_interest', 'establishment']",Kolhapur
42,Mahesh Hospital,"1st Lane,, Rajarampuri, Kolhapur, Maharashtra 416005, India",ChIJY6Z1zz8AwTsRJUxKsMPlA_k,16.6977449,74.2411659,"['hospital', 'health', 'point_of_interest', 'establishment']",Kolhapur
43,"Nandadeep Eye Hospital, Kolhapur","New Shahupuri, Kolhapur, Maharashtra 416001, India",ChIJZ7s8PmoAwTsROdOgUyOyr-g,16.7045042,74.2397537,"['hospital', 'doctor', 'health', 'point_of_interest', 'establishment']",Kolhapur
44,Antrang Hospital,"New Palace Rd, near Mahaveer College, Uday Singh Nagar, Ramanmala, Kolhapur, Maharashtra 416003, India",ChIJnWZRoKABwTsRrWWzAipSoW8,16.7136101,74.2313772,"['hospital', 'doctor', 'health', 'point_of_interest', 'establishment']",Kolhapur
45,Lotus Hospital & Research Centre,"252-c, Dasara Chowk :kasba Bawda Road, Karveer, Kolhapur, Maharashtra 416002, India",ChIJq1zDk4oAwTsRycNEnYt1Pe8,16.7239381,74.23946339999999,"['hospital', 'health', 'point_of_interest', 'establishment']",Kolhapur
46,Manorama Hospital,"Pratibhanagar Main Rd, Jagdale Colony, Rajarampuri, Kolhapur, Maharashtra 416008, India",ChIJP9B4NT0AwTsRs3u_1r29SRQ,16.6889511,74.24301400000002,"['hospital', 'health', 'point_of_interest', 'establishment']",Kolhapur
47,Shri Laxminarayan Hospital,"1738-E, Saraswati Apartment, 1 St Floor, 5th Lane, Main Road,, Rajarampuri, Kolhapur, Maharashtra 416008, India",ChIJC240az4AwTsRNnmLVFL3aRM,16.6954366,74.2428101,"['hospital', 'health', 'point_of_interest', 'establishment']",Kolhapur
48,Savitribai Phule Hospital,"850-b, Subhash Rd, Shivaji Udyam Nagar, Kolhapur, Maharashtra 416002, India",ChIJ5cyePhIAwTsRuakeAlMmDt4,16.6944155,74.231775,"['hospital', 'health', 'point_of_interest', 'establishment']",Kolhapur
49,Chougule Hospital,"Shahupuri 5th Ln, E Ward, Shahupuri, Kolhapur, Maharashtra 416001, India",ChIJN7KlQWsAwTsR2aCeQ8ZXxJc,16.7002041,74.23593679999999,"['hospital', 'health', 'point_of_interest', 'establishment']",Kolhapur
50,Shah Hospital,"8th Ln, Poorvarang, Mahalaxminagar, Rajarampuri, Kolhapur, Maharashtra 416001, India",ChIJeQ3o-T0AwTsRVXY1yVigpfQ,16.6938329,74.2418749,"['hospital', 'health', 'point_of_interest', 'establishment']",Kolhapur
51,Shri Hospital,"Bus Route, 1st Ln, Poorvarang, Mahalaxminagar, Rajarampuri, Kolhapur, Maharashtra 416001, India",ChIJD0Iytz8AwTsRcjCwMPB2nWs,16.6974482,74.24239829999999,"['hospital', 'health', 'point_of_interest', 'establishment']",Kolhapur
52,Purvapunyai Hospital,"Ujalaiwadi, Kolhapur, Maharashtra 416004, India",ChIJQUlLMzL-wDsRRrIvSKfPrtM,16.6650285,74.269724,"['hospital', 'health', 'point_of_interest', 'establishment']",Kolhapur
53,Chintamani Hospital,"Kunkeshwar - Talewadi Rd, Uttareshwar Peth, Kolhapur, Maharashtra 416012, India",ChIJpW-Pe6CqwTsRDqgNx31sviw,16.695677,74.217484,"['hospital', 'health', 'point_of_interest', 'establishment']",Kolhapur
54,Sanjeevani Hospital,"Rajaram Rd, Sykes Extension, Kolhapur, Maharashtra 416001, India",ChIJ1dKS6z8AwTsRAoTpWcY0XQU,16.6990186,74.2426066,"['hospital', 'health', 'point_of_interest', 'establishment']",Kolhapur
55,Kapale Hospital & I.C.U.,"1101 / E Shahupuri, Opposite Shahaji Law College, Kolhapur, Maharashtra 416001, India",ChIJL6XE_j8AwTsRriIUBuv4cFw,16.6998665,74.24175389999999,"['hospital', 'health', 'point_of_interest', 'establishment']",Kolhapur
56,"District TB Centre, Kolhapur","Kolhapur Station Rd, Kavlapur, Kolhapur, Maharashtra 416002, India",ChIJYZKJTXIAwTsRBMHM7zX5Dao,16.7023306,74.2269373,"['hospital', 'health', 'point_of_interest', 'establishment']",Kolhapur
57,Pristine Womens Hospital,"395/2, E Ward, Square 9 Building, Near Basant Bahar Talkies, opposite Shahupuri, Kolhapur, Maharashtra 416003, India",ChIJ4aCdJ2wAwTsRZlJiTX1Hct4,16.705112,74.2335839,"['health', 'point_of_interest', 'establishment']",Kolhapur
58,Surya Hospital and Diagnostic Centre with Diabetic foot care,"Laxmipuri, Kolhapur, Maharashtra 416002, India",ChIJbXmAnnIAwTsROwmg_57Wrio,16.701211,74.229231,"['hospital', 'health', 'point_of_interest', 'establishment']",Kolhapur
59,Pishwikar Hospital,"273, Gangavesh Rd, D Ward, Papachi Tikati, Kolhapur, Maharashtra 410016, India",ChIJ__8DyQoAwTsRu4GYRxgREf4,16.6972852,74.2203979,"['hospital', 'health', 'point_of_interest', 'establishment']",Kolhapur
