,place_name,address,place_id,latitude,longitude,types,city
0,Dwarkamani Hospital,"NH 3, Osiya Nagar, Maloji nagar, Malegaon, Maharashtra 423203, India",ChIJK_aWIpWZ3jsRUjVYA111oGU,20.5536228,74.5206154,"['hospital', 'health', 'point_of_interest', 'establishment']",Malegaon
1,Malegaon Hospital,"3, Hudco Colony Main Rd, Hudco Colony, Hudco Colony Main Rd, Hudco Colony, Dnyane, Malegaon, Maharashtra 423203, India",ChIJ40NML8eZ3jsRG555uZmh7AQ,20.5583189,74.5294217,"['hospital', 'health', 'point_of_interest', 'establishment']",Malegaon
2,Sparsh Hospital & Critical care Centre malegaon camp.,"Vardhaman Nagar, Malegaon, Maharashtra 423105, India",ChIJYWz5a8CZ3jsR2Z4C5YoPOkk,20.5567502,74.5246812,"['hospital', 'health', 'point_of_interest', 'establishment']",Malegaon
3,Morya Hospital,"Shivaji Putla, Opp. Panjrapol, Juna Agra Road, Malegaon, Maharashtra 423203, India",ChIJAfwmvbiZ3jsRK6zlLDDO13Q,20.5550753,74.5300453,"['hospital', 'health', 'point_of_interest', 'establishment']",Malegaon
4,"Sub District Hospital, Malegaon","Dnyane, Malegaon, Maharashtra 423203, India",ChIJyZfcL8eZ3jsRug2vmFBN83A,20.5580069,74.5293725,"['hospital', 'health', 'point_of_interest', 'establishment']",Malegaon
5,Sukhkarta Hospital,"Soygaon, Malegaon, Maharashtra 423105, India",ChIJYbHcU5WZ3jsRMLotv3gSsAQ,20.554838,74.5224369,"['hospital', 'health', 'point_of_interest', 'establishment']",Malegaon
6,Vaidya Hospital,"Malegaon - Satana Rd, Satana Naka, Osiya Nagar, Maloji nagar, Malegaon, Maharashtra 423203, India",ChIJTxoUX5WZ3jsR27m9DY5abHQ,20.5534142,74.5183936,"['hospital', 'health', 'point_of_interest', 'establishment']",Malegaon
7,Al Aziz Hospital Malegaon,"Mirza Ghalib Rd, Murtuza Bagh, Nayapura, Malegaon, Maharashtra 423203, India",ChIJZbZ3w7aZ3jsRUMGk1uTLXVk,20.5518817,74.53855999999999,"['hospital', 'health', 'point_of_interest', 'establishment']",Malegaon
8,Life Care Hospital,"60ft Road, Malegaon, Maharashtra 423203, India",ChIJu_Vur-uZ3jsR10bv_F2cT8k,20.5582614,74.51929129999999,"['hospital', 'health', 'point_of_interest', 'establishment']",Malegaon
9,Shah Hospital,"Samkit, Near Mauktik Corner, Vardhaman Nagar, Ekatmata Chowk, Malegaon, Maharashtra 423203, India",ChIJ4T5iH-qZ3jsRfT2Ie5fMBb4,20.5606292,74.521438,"['hospital', 'doctor', 'health', 'point_of_interest', 'establishment']",Malegaon
10,Mauli Hospital,"AgricultureCollage Farm Area, Malegaon, Maharashtra 423105, India",ChIJ-aKmNu-Z3jsRaUd9gmPIhlw,20.5644804,74.5166443,"['hospital', 'health', 'point_of_interest', 'establishment']",Malegaon
11,Malegaon Accident Hospital,"Mominpura,, Mirza Ghalib Rd, Nayapura, Malegaon, Maharashtra 423203, India",ChIJlTPb97aZ3jsRIdoIcII95mA,20.5535778,74.53851999999999,"['hospital', 'health', 'point_of_interest', 'establishment']",Malegaon
12,PRAYAS HOSPITAL,"2, Soygaon College Rd, Soygaon, Malegaon, Maharashtra 423105, India",ChIJM-8ELuyZ3jsRt-v1jhKsgDo,20.5592471,74.5136895,"['hospital', 'health', 'point_of_interest', 'establishment']",Malegaon
13,Malegaon baby care Hospital,"659/60, Mohammad Ali Rd, Somwar Ward, Gulshanabad, Malegaon, Maharashtra 423203, India",ChIJ3xaKCrqZ3jsRZ6DLT2eKuBg,20.5491752,74.53435019999999,"['hospital', 'health', 'point_of_interest', 'establishment']",Malegaon
14,Balaji Accident Hospital,"Camp, Malegaon, Maharashtra 423105, India",ChIJhXdo4uSZ3jsRkUb8XUaO1c8,20.5689657,74.51310029999999,"['hospital', 'health', 'point_of_interest', 'establishment']",Malegaon
15,SHIVAM HOSPITAL,"Osiya Nagar, Maloji nagar, Malegaon, Maharashtra 423203, India",ChIJ6-NM6r-Z3jsRi47JPXRIikQ,20.5539051,74.5241935,"['hospital', 'health', 'point_of_interest', 'establishment']",Malegaon
16,Swat Hospital,"Old Agra Road, Imdad Nagar, Malegaon, Maharashtra 423203, India",ChIJv2sScraZ3jsRN8YvT2DKFls,20.5574465,74.543514,"['hospital', 'health', 'point_of_interest', 'establishment']",Malegaon
17,Chaitanya Accident & Trauma Care Center,"Motibagh Naka, Old Agra Road Oop. Nanavati Petrol Pump, Sangameshwar, Malegaon, Maharashtra 423203, India",ChIJ985Tc72Z3jsRVxVSvioObfg,20.5462469,74.5243642,"['hospital', 'health', 'point_of_interest', 'establishment']",Malegaon
18,YASHFEEN HOSPITAL,"03, Mohammad Ali Rd, Murtuza Bagh, Nayapura, Malegaon, Maharashtra 423203, India",ChIJ2S6osLaZ3jsRiLTm5ByIJLU,20.551524,74.539417,"['hospital', 'health', 'point_of_interest', 'establishment']",Malegaon
19,Navjeevan Hospital,"SH16, Soygaon, Malegaon, Maharashtra 423105, India",ChIJmTC1ZeqZ3jsRghr9TR2R92w,20.5586033,74.5212105,"['hospital', 'health', 'point_of_interest', 'establishment']",Malegaon
20,Surya Hospital,"Kamlai Complex, Old Agra Rd, Nashik Dist., opp. Nisarg Hotel, Malegaon, Maharashtra 423203, India",ChIJY0rRvr2Z3jsRdX_GXoK9SSA,20.5479122,74.52469430000001,"['hospital', 'health', 'point_of_interest', 'establishment']",Malegaon
21,New Faran Hospital,"Old Agra Rd, Malegaon, Maharashtra 423203, India",ChIJ-0oHZjSY3jsRLZYhc0os6ZA,20.5623582,74.5498702,"['hospital', 'health', 'point_of_interest', 'establishment']",Malegaon
22,Anjani Hospital,"NH 3, Osiya Nagar, Maloji nagar, Malegaon, Maharashtra 423203, India",ChIJdQqxEJWZ3jsRbLwTKsAtYB0,20.5531326,74.5208087,"['hospital', 'health', 'point_of_interest', 'establishment']",Malegaon
23,Malegaon Nursing Home,"Shivaji Nagar Rd, Vardhaman Nagar, Malegaon, Maharashtra 423105, India",ChIJq1x05uiZ3jsRllagJQqvNGg,20.5636385,74.5184924,"['hospital', 'health', 'point_of_interest', 'establishment']",Malegaon
24,Shri Sai Hospital,"Opp. Gangamai Mangal Karyalay, Satana Road, Malegaon, Maharashtra 423203, India",ChIJz8JODZOZ3jsR1xXiHoOAKds,20.5522952,74.51553559999999,"['hospital', 'health', 'point_of_interest', 'establishment']",Malegaon
25,Om Hospital,"1st Floor, Balaji Arcade, 60 Feet Road, Soygaon, Malegaon, Maharashtra 423203, India",ChIJfRk5xpSZ3jsRbQUpmxFXLeE,20.553912,74.5188864,"['hospital', 'health', 'point_of_interest', 'establishment']",Malegaon
26,Arogya Sampada Hospital,"Camp Rd, Behind LIC office, Vardhaman Nagar, Malegaon, Maharashtra 423105, India",ChIJw0sn3euZ3jsRz7mJGSzvlJo,20.5622241,74.51940359999999,"['hospital', 'health', 'point_of_interest', 'establishment']",Malegaon
27,Kilbil Pediatric Hospital,"Royal Hub,1st floor,Shreeram Nagar Road, Mosam Pul, Malegaon, Maharashtra 423105, India",ChIJ_1hvacCZ3jsRPNqnagvOeuI,20.5567615,74.5246879,"['hospital', 'health', 'point_of_interest', 'establishment']",Malegaon
28,Lokmanya Hospital,"Malegaon - Satana Rd, opp. Anand Nursing Home, Satana Naka, Soygaon, Sangameshwar, Maharashtra 423203, India",ChIJ5dVyoJSZ3jsR-h-sZfgPeTs,20.5533158,74.51706709999999,"['hospital', 'health', 'point_of_interest', 'establishment']",Malegaon
29,Madeena Hospital,"S.No. 149, P.No.7, Abdul aziz Mistri Road, Abdullah Nagar, Chowk, Malegaon, Maharashtra 423203, India",ChIJ0YU447KZ3jsRX1dn3rWZuWQ,20.5483452,74.54436799999999,"['hospital', 'health', 'point_of_interest', 'establishment']",Malegaon
30,Dr Chopde Hospital ENT Sergon,"Near Hindu Jimkhana, Collector Zone, Sharada Nagar, Osiya Nagar, Malegaon, Maharashtra 423203, India",ChIJIxealb-Z3jsRP3kWN3NH5Kw,20.5539706,74.5245806,"['hospital', 'health', 'point_of_interest', 'establishment']",Malegaon
31,ISLAH HOSPITAL,"islah hospital, Malegaon, Maharashtra 423203, India",ChIJERSxw0qY3jsR24l1PXizcBo,20.5555155,74.54758,"['hospital', 'health', 'point_of_interest', 'establishment']",Malegaon
32,Shree Sai Krupa Hospital,"Camp, Malegaon, Maharashtra 423105, India",ChIJbXNZAFaX3jsRpmozv7TcCH0,20.5769888,74.50545799999999,"['hospital', 'health', 'point_of_interest', 'establishment']",Malegaon
33,Excel Hospital,"22, Ansar X-ray Clinic, Teen Qandeel, near Shahi Masjid, Malegaon, Maharashtra 423203, India",ChIJu_eTZrCZ3jsRmAVP8t8yXN0,20.5471934,74.53581179999999,"['hospital', 'health', 'point_of_interest', 'establishment']",Malegaon
34,Arfat Hospital,"Mohammad Ali Rd, Somwar Ward, Nayapura, Malegaon, Maharashtra 423203, India",ChIJO-SlEbqZ3jsRhSnlenmQAzw,20.5494323,74.5337196,"['hospital', 'health', 'point_of_interest', 'establishment']",Malegaon
35,"RCH Room, N.N. Wadia Hospital Malegaon","Kapad Bazar Rd, opp. Malegaon Municipal Corporation, Building, Gulshanabad, Malegaon, Maharashtra 423203, India",ChIJkafyHLuZ3jsRHUr6DT2DH70,20.5464166,74.5314094,"['hospital', 'health', 'point_of_interest', 'establishment']",Malegaon
36,Abhinandan Hospital,"423105, Gaytri Nagar, AgricultureCollage Farm Area, Malegaon, Maharashtra 423105, India",ChIJpVJoW--Z3jsRarQm-nChmOc,20.5655481,74.51599019999999,"['hospital', 'health', 'point_of_interest', 'establishment']",Malegaon
37,Sitabai hospital,"12, Camp Rd, Soygaon, Malegaon, Maharashtra 423203, India",ChIJrcrrt1SZ3jsRsX-VaY4Q57Y,20.5596848,74.5220628,"['hospital', 'health', 'point_of_interest', 'establishment']",Malegaon
38,Six Sigma Hospital,"Osiya Nagar, Maloji nagar, Malegaon, Maharashtra 423203, India",ChIJd_OamjOZ3jsRD5HBBN80evM,20.5543109,74.5250875,"['hospital', 'health', 'point_of_interest', 'establishment']",Malegaon
39,More Accident Hospital,"Malegaon Road, Behind Kankariya Nivas, Soygaon, Malegaon, Maharashtra 423105, India",ChIJvbBLQeqZ3jsRXY3GbjY4bQQ,20.5590635,74.52109039999999,"['hospital', 'health', 'point_of_interest', 'establishment']",Malegaon
40,Sai Shradha Hospital,"Satana Rd, behind Jaju Hospital, Osiya Nagar, Maloji nagar, Malegaon, Maharashtra 423203, India",ChIJHeIuEZWZ3jsRzVFiIE78pVU,20.5532975,74.5210505,"['hospital', 'health', 'point_of_interest', 'establishment']",Malegaon
41,Al Ameen Multi Speciality Hospital,"Mohammad Ali Rd, Sardar Nagar, Nayapura, Malegaon, Maharashtra 423203, India",ChIJOQVcMbGZ3jsR3T6kSlXveSE,20.5504411,74.5385671,"['hospital', 'health', 'point_of_interest', 'establishment']",Malegaon
42,Mamta Hospital,"Suryakiran Apartment, Satana Naka, Osiya Nagar, Maloji nagar, Malegaon, Maharashtra 423203, India",ChIJx3loH5WZ3jsRPGfXMMIeQqo,20.5535739,74.5202087,"['hospital', 'health', 'point_of_interest', 'establishment']",Malegaon
43,Gayatri Accident Hospital,"Gayatri Accident Hospital, Jyoti Nagar, Osiya Nagar, Maloji nagar, Malegaon, Maharashtra 423203, India",ChIJKYUZlb2Z3jsRUr6UhLLs1kM,20.5479534,74.5242095,"['hospital', 'health', 'point_of_interest', 'establishment']",Malegaon
44,Sai Accident Hospital,"West End Complex, Satana Naka, Malegaon, Maharashtra 423203, India",ChIJvcCXlpSZ3jsRZ6mm9F-Avh0,20.553048,74.518078,"['hospital', 'health', 'point_of_interest', 'establishment']",Malegaon
45,Shree Hospital,"60 Feet Rd, Camp, Malegaon, Maharashtra 423203, India",ChIJbeZ-FuuZ3jsRIEtckka0wiI,20.5591052,74.51967119999999,"['hospital', 'health', 'point_of_interest', 'establishment']",Malegaon
46,Noor Hospital,"Mushawarat Chowk, Nayapura, Malegaon, Maharashtra 423203, India",ChIJmQxw0raZ3jsRY-tWARklN3w,20.5509904,74.5383119,"['hospital', 'health', 'point_of_interest', 'establishment']",Malegaon
47,Sahara Hospital,"Nayapura, Malegaon, Maharashtra 423203, India",ChIJl6eoOLiZ3jsRZ2bqhuxi5sk,20.55428,74.533165,"['hospital', 'health', 'point_of_interest', 'establishment']",Malegaon
48,Sankalp Hospital,"shadhari medical road jaju bildig, Satana Naka, Malegaon, Maharashtra, India",ChIJaUtIEZWZ3jsRKi1PCDPdd4c,20.5535082,74.5210559,"['hospital', 'health', 'point_of_interest', 'establishment']",Malegaon
49,Samarth Hospital/Seva LAB,"Camp Rd, opp. Deepak Theater, Soygaon, Malegaon, Maharashtra 423105, India",ChIJ315vaOqZ3jsRcqrRFWXAKhA,20.55877,74.5215632,"['hospital', 'health', 'point_of_interest', 'establishment']",Malegaon
50,Mangulkar Eye Hospital,"Camp Rd, Near deepak talkies, Vardhaman Nagar, Malegaon, Maharashtra 423105, India",ChIJLyhZDeqZ3jsR-sapfmGZzyI,20.5595526,74.52217069999999,"['hospital', 'health', 'point_of_interest', 'establishment']",Malegaon
51,Alfa Accident Hospital,"Old Agra Road, Golden Nagar, Malegaon, Maharashtra 423203, India",ChIJNfENg7WZ3jsR337QfJctuEE,20.5564822,74.5431629,"['hospital', 'health', 'point_of_interest', 'establishment']",Malegaon
52,Al-hera Hospital,"Sardar Nagar, Nayapura, Malegaon, Maharashtra 423203, India",ChIJwX5JDLGZ3jsRwqSGrFV11QU,20.5485847,74.5387236,"['hospital', 'health', 'point_of_interest', 'establishment']",Malegaon
53,Chaitanya sai hospital,"Balaji Arcked, 60 Feet Rd, Satana Naka, Soygaon, Malegaon, Maharashtra 423203, India",ChIJpZ0GWW2Z3jsRiEp-zVkufMg,20.5539817,74.5188545,"['hospital', 'health', 'point_of_interest', 'establishment']",Malegaon
54,Bafna Hospital,"Soygaon, Malegaon, Maharashtra 423105, India",ChIJ__uXr-uZ3jsRfXneBoYvixg,20.5583722,74.51931809999999,"['hospital', 'health', 'point_of_interest', 'establishment']",Malegaon
55,Lotus Hospital,"Church Gate Rd, Camp, Malegaon, Maharashtra 423105, India",ChIJC8-_VPqZ3jsR9iRI7OHcS5Y,20.5680929,74.50790099999999,"['hospital', 'health', 'point_of_interest', 'establishment']",Malegaon
56,Bora Children's Hospital,"Beside Dr. Paripathyadar Hospital, Savata Nagar, Sangameshwar, Malegaon, Maharashtra 423203, India",ChIJZZit3byZ3jsRTiInCknfrd8,20.5451981,74.52633039999999,"['hospital', 'health', 'point_of_interest', 'establishment']",Malegaon
57,Ashray Hospital,"Shivaji Rd, Camp, Malegaon, Maharashtra 423105, India",ChIJwb9Do-WZ3jsROc70zplNmgI,20.5678462,74.5148188,"['hospital', 'health', 'point_of_interest', 'establishment']",Malegaon
58,Susmit Nursing Home,"Camp, Malegaon, Maharashtra 423105, India",ChIJYWlNPPuZ3jsR87xWe6jk5iA,20.5694741,74.5098969,"['hospital', 'health', 'point_of_interest', 'establishment']",Malegaon
59,"Rachana Hospital, Malegaon Camp, Malegaon","Camp, Malegaon, Maharashtra 423105, India",ChIJgxhGueOZ3jsR7A9n1S2wMOY,20.5736373,74.5151214,"['hospital', 'health', 'point_of_interest', 'establishment']",Malegaon
