,place_name,address,place_id,latitude,longitude,types,city
0,Wockhardt Hospitals,"The Umrao IMSR, near Railway Station, Mira Road, Mira Bhayandar, Maharashtra 401107, India",ChIJJ_ICTU-w5zsRf2A9_oNk9wM,19.2842953,72.862231,"['hospital', 'doctor', 'health', 'point_of_interest', 'establishment']",Mira-Bhayandar
1,Bhaktivedanta Hospital & Research Institute,"Bhaktivedanta Swami Marg, Sector 6, Sector 1, Srishti Complex, Mira Road, Mira Bhayandar, Maharashtra 401107, India",ChIJkXIZPF-w5zsR486BQiWoZbo,19.2701049,72.8704989,"['hospital', 'health', 'point_of_interest', 'establishment']",Mira-Bhayandar
2,Indira Gandhi Municipal Hospital,"Poonam Sagar Rd, Poonam Sagar Complex, Mira Road, Mira Bhayandar, Maharashtra 401107, India",ChIJe1WC21Cw5zsRjNvxEdUzIGw,19.2741746,72.8608909,"['hospital', 'health', 'point_of_interest', 'establishment']",Mira-Bhayandar
3,Suvarna Hospital,"First Floor, Chandan Valley, Mira Bhayandar Road, Mira Road E, near Brahmdev Mandir, Mira Bhayandar, Maharashtra 401107, India",ChIJJUkgVEaw5zsRK1nhm3AH91c,19.287862,72.866019,"['hospital', 'health', 'point_of_interest', 'establishment']",Mira-Bhayandar
4,Vipassana Hospital,"Sheetal Swar, MTNL Road, Sheetal Nagar, Mira Road East, opp. Archies Gallery, Mira Bhayandar, Maharashtra 401107, India",ChIJ9fvQs0Ww5zsR5D-Irr0PgQs,19.2832002,72.8659016,"['hospital', 'health', 'point_of_interest', 'establishment']",Mira-Bhayandar
5,Life - Line Hospital,"Wing-C, Mira Bhayandar Rd, Puja Nagar, Mira Road, Mira Bhayandar, Maharashtra 401107, India",ChIJcyA22U2w5zsRuLJCvDyDOKY,19.2949587,72.8560629,"['hospital', 'health', 'point_of_interest', 'establishment']",Mira-Bhayandar
6,Shiv Om Hospital mother and child care.,"Mira Bhayandar Rd, opposite Golden Nest Complex, Geeta Nagar, Mira Road, Mira Bhayandar, Maharashtra 401107, India",ChIJbUKG_zaw5zsRFiQWHbXRpX8,19.2933075,72.8602365,"['hospital', 'health', 'point_of_interest', 'establishment']",Mira-Bhayandar
7,Riddhi Siddhi Hospital,"1st Floor, Sheetal Plaza, Mira Bhayandar Rd, opposite Shivar Garden, Mira Road, Maharashtra 401107, India",ChIJWX6ptTC35zsRWG6X6lo93uM,19.2892719,72.8655996,"['hospital', 'health', 'point_of_interest', 'establishment']",Mira-Bhayandar
8,Shree Krishnakripa Hospital,"101 - 105, Prachi Tower, Opposite Shiv Mandir, Thane West, 90 Feet Rd, Bhayandar West, Maharashtra 401101, India",ChIJS4KbqSyw5zsRRh2xzNtyV5M,19.2961112,72.8522193,"['hospital', 'health', 'point_of_interest', 'establishment']",Mira-Bhayandar
9,Tembha Hospital,"Swami Satyanand Maharaj Rd, Near Maxus Mall, Bhayandar, Chandmal Nagar, Bhayandar West, Mira Bhayandar, Maharashtra 401101, India",ChIJQ3POUcyx5zsRkjO3arfj55U,19.2974719,72.84811719999999,"['hospital', 'health', 'point_of_interest', 'establishment']",Mira-Bhayandar
10,Mangal Murti Hospital & Polyclinic,"Prithve Sadan Building, 1st Floor ,B.P. Road, Bhayandar East, Mira Bhayandar, Maharashtra 401105, India",ChIJAQOPECyw5zsRX6m_v7BUa4A,19.3063638,72.8566604,"['hospital', 'health', 'point_of_interest', 'establishment']",Mira-Bhayandar
11,Shalom Medicare Hospital,"Phase -6 Indralok, Bhayandar, Mumbai, Maharashtra 401101, India",ChIJ_40TlDyw5zsR2l9tvEpwYCQ,19.3008656,72.8700252,"['hospital', 'health', 'point_of_interest', 'establishment']",Mira-Bhayandar
12,Nakoda Hospital,"60 Feet X Road, Nageshwar Park, Bhayandar West, Mira Bhayandar, Maharashtra 401101, India",ChIJC3hELS2w5zsROKTkC3PsaiA,19.3034562,72.8516409,"['hospital', 'health', 'point_of_interest', 'establishment']",Mira-Bhayandar
13,Tanwar Hospital,"Tanwar Tower, Queens Park, P.K. Road, Off Mira-Bhyandar Rd, Mira Road East, Thane, Maharashtra 401107, India",ChIJbZQ2ejew5zsRHogs574kDww,19.2938625,72.8625516,"['hospital', 'health', 'point_of_interest', 'establishment']",Mira-Bhayandar
14,Ashoka General Hospital,"Shalibhadra Tower, 1st Floor, Flat No. 101, 102, Mira Bhayandar Rd, Thane District, Mira Road, Maharashtra 401105, India",ChIJqQTnB2Sw5zsR2rTFgECv5Vw,19.2752598,72.88171659999999,"['hospital', 'health', 'point_of_interest', 'establishment']",Mira-Bhayandar
15,Apple Hospital & Medical Centre,"Sonam Shree CHS New Golden Nest Phase 11 Opp. Sports Complex, Bhayandar East, 12, Mira Road, Maharashtra 401105, India",ChIJr_HaejCw5zsRVHN9t5M25_M,19.3000951,72.8628347,"['hospital', 'health', 'point_of_interest', 'establishment']",Mira-Bhayandar
16,Saibaba Hospital,"1st Floor, Shraddha Complex, Shiv, BP Rd, Bhayandar East, Maharashtra 401105, India",ChIJy3DeHiyw5zsROljzkIXJ8Ts,19.3061517,72.8572231,"['hospital', 'health', 'point_of_interest', 'establishment']",Mira-Bhayandar
17,Life Care Hospital,"Sheetal Nagar, Mira Road East, Thane - 401107 India, Thane, Maharashtra 401107, India",ChIJq6qqGkWw5zsR6qJpeOPEOog,19.2841179,72.8658054,"['hospital', 'health', 'point_of_interest', 'establishment']",Mira-Bhayandar
18,"Advanced Surgical Clinic, Mira-Bhayander, Mumbai","Room No -6, Ground Floor, Sristhi Complex, Sector -1, Bhaktivedanta Swami Marg, near Dalmiya College, Mira Road, Mira Bhayandar, Maharashtra 401107, India",ChIJvTHOpl-w5zsRY1F0nTMj56U,19.270387,72.872459,"['hospital', 'health', 'point_of_interest', 'establishment']",Mira-Bhayandar
19,Family Care Hospitals - Multispeciality Hospital,"Family Care Hospital, Golden Nest Phase 1 Rd, near Seven square academy, Golden Nest Phase 1, Queens Park, Mira Road, Maharashtra 401107, India",ChIJp3SWiomw5zsRjJjLivMwoQ4,19.2967196,72.864609,"['hospital', 'doctor', 'health', 'point_of_interest', 'establishment']",Mira-Bhayandar
20,SAI AASHIRWAD HOSPITAL,"1, Dharti Building, Shivam, Sai Sadan, House No, Mira Road, Maharashtra 401107, India",ChIJuTRcAEaw5zsRCq7dAXUHuaQ,19.2862811,72.86357799999999,"['hospital', 'health', 'point_of_interest', 'establishment']",Mira-Bhayandar
21,Ansh hospital,"Panchamratna Park, Mira Road East, Vishweshwar Tower, Inderlok phase 6, Mira Bhayandar, Maharashtra 401105, India",ChIJPVo8_Dyw5zsRvlAZf_Pd0eM,19.300713,72.87187999999999,"['hospital', 'health', 'point_of_interest', 'establishment']",Mira-Bhayandar
22,Sai Vedant Multi Speciality Hospital,"Near Shree Mahalaxmi Complex C.H.S., Near East-West Public Bridge, Cabin Cross Road, Bhayandar East, Mira Bhayandar, Maharashtra 401105, India",ChIJ5dXO-yyw5zsRNsj5o5Gbknk,19.304662,72.85408500000001,"['hospital', 'health', 'point_of_interest', 'establishment']",Mira-Bhayandar
23,Gurukrupa hospital and polyclinic,"kashi bhavan, BP Rd, Bhayandar, Maharashtra 401105, India",ChIJV351dyuw5zsR6L0X_rsqr8A,19.3080475,72.8544287,"['hospital', 'health', 'point_of_interest', 'establishment']",Mira-Bhayandar
24,Sharadha Hospital,"India Complex Bldg No 3, 60 Feet Rd, Bhayandar West, Maharashtra 401101, India",ChIJQxSzXC2w5zsRmDNLYponCxk,19.3018783,72.8527967,"['hospital', 'health', 'point_of_interest', 'establishment']",Mira-Bhayandar
25,Manav Kalyan Kendra Hospital,"101/108, A - Wing, Aradhana, 1st Floor, Navghar Rd, opposite Shilpa Hotel, Bhayandar East, Mira Bhayandar, Maharashtra 401105, India",ChIJi5L7QSqw5zsRXSkhGj_tlAE,19.3114831,72.85563909999999,"['hospital', 'health', 'point_of_interest', 'establishment']",Mira-Bhayandar
26,A.Care Orthopaedic & General Hospital,"G-1, Giriraj Tower, Opp. New Petrol Pump, Mira Bhayandar Highway, Mira Bhayandar Rd, Sai Baba Nagar, Mira Road, Mira Bhayandar, Maharashtra 401107, India",ChIJM3B17EOw5zsREiUNW12QkkA,19.2844331,72.8703752,"['hospital', 'doctor', 'health', 'point_of_interest', 'establishment']",Mira-Bhayandar
27,Hospital,"Shop number 7 to 12, First floor, Rishita appartment Building,near wagad Nagar, Ramdev Park, Mira Road, Maharashtra 401107, India",ChIJ-xknSgax5zsRe0w-SkjZKoA,19.2960294,72.8698236,"['hospital', 'health', 'point_of_interest', 'establishment']",Mira-Bhayandar
28,Kasturi Hospital,"Harsh Niketan, Gaodevi Road, behind Navrang Hotel Oppsite, Mira Gaothan, Geeta Nagar, Bhayandar West, Mira Bhayandar, Maharashtra 401101, India",ChIJ6eISSc2x5zsR8w_RST9WEO4,19.2519424,72.8706557,"['hospital', 'health', 'point_of_interest', 'establishment']",Mira-Bhayandar
29,HR HOSPITAL & TRAUMA CENTRE,"GREEN PARK,BUILDING NO.A-1,SHANTI PARK,OPP, Jangid Complex Rd, Mira Road, Maharashtra 401107, India",ChIJuWjKLVuw5zsRs7XDaSTF7rU,19.2795341,72.87086169999999,"['hospital', 'health', 'point_of_interest', 'establishment']",Mira-Bhayandar
30,Thunga Hospital,"Mira Bhayander Rd, Medetiya Nagar, Queens Park, Mira Road, Mira Bhayandar, Maharashtra 401107, India",ChIJG33ckzew5zsR8Xwx07cn8H4,19.2922486,72.86236819999999,"['doctor', 'hospital', 'health', 'point_of_interest', 'establishment']",Mira-Bhayandar
31,Neel Orthopedic Super Specialty Hospital,"1st Floor, Sheetal Niketan CHS, Opp. Hum Video, BP Rd, Navghar Naka, Bhayandar East, Mira Bhayandar, Maharashtra 401105, India",ChIJtQL7ni6w5zsR_YXoU_OoWCk,19.3057411,72.8576779,"['hospital', 'health', 'point_of_interest', 'establishment']",Mira-Bhayandar
32,Bhayandar Criticare Hospital,"Goddev, Fatak Rd, near Abhinav Vidya Mandir, Lazarus Park, Bhayandar East, Mira Bhayandar, Maharashtra 401105, India",ChIJ22-Lby6w5zsRIOoFmqih9FY,19.3038378,72.85829509999999,"['hospital', 'health', 'point_of_interest', 'establishment']",Mira-Bhayandar
33,Galaxy Hospital,"near Vasudev Arcade, Beverly Park, Mira Road, Mumbai, Maharashtra 401105, India",ChIJ6YDf9hWw5zsRAqm21iqwNec,19.2967041,72.8751494,"['hospital', 'health', 'point_of_interest', 'establishment']",Mira-Bhayandar
34,Navita Hospital,"2/3 Shinhal recidency, Srishti Rd, Silver Park, Mira Road, Mira Bhayandar, Maharashtra 401107, India",ChIJY1QUpkKw5zsR3lKbzjQLRKg,19.281089,72.8748894,"['hospital', 'health', 'point_of_interest', 'establishment']",Mira-Bhayandar
35,Balaji Hospital,"1st Floor, Sonam Ekta Towers, Golden Nest Circle, Phase 6, Mira Road East, Mira Bhayandar, Thane, Maharashtra 401105, India",ChIJLXg2xjaw5zsRDt1CePL_TwE,19.2952519,72.859196,"['hospital', 'health', 'point_of_interest', 'establishment']",Mira-Bhayandar
36,Mira Bhayander Aarogya Vibhag,"Evershine Rd, opposite Umrao Hospital, Bharti Nagar, Mira Road, Mira Bhayandar, Maharashtra 401107, India",ChIJUU1C_0Ww5zsRK2cBbIhRqs0,19.2845761,72.8630645,"['hospital', 'health', 'point_of_interest', 'establishment']",Mira-Bhayandar
37,S R Hospital,"8, Poonam Garden Rd, Chandan Shanti, Mira Road, Mira Bhayandar, Maharashtra 401107, India",ChIJfamg-maw5zsRcA4A_a7RFoo,19.2770347,72.8789168,"['hospital', 'health', 'point_of_interest', 'establishment']",Mira-Bhayandar
38,Fatima Maternity & General Hospital,"Fatima Mahal, Naya Nagar, Mira Road East, Mira Bhayandar, Maharashtra 401107, India",ChIJc6RNWEmw5zsRm7imiuKp7O4,19.2852783,72.8576417,"['hospital', 'health', 'point_of_interest', 'establishment']",Mira-Bhayandar
39,The Umrao Institute of Medical Science and Research,"Naya Nagar, Mira Road, Mira Bhayandar, Maharashtra 401107, India",ChIJhbH4GpOx5zsRjvFriO6lMzI,19.2844809,72.86219299999999,"['hospital', 'health', 'point_of_interest', 'establishment']",Mira-Bhayandar
40,Dr Farids Hospital,"1st Floor, Asmita Ascon Acres, III, Near Corporation Bank, Naya Nagar, Mira Road, Mira Bhayandar, Maharashtra 401107, India",ChIJTx7aok6w5zsRjS5HSH1MhcI,19.2833533,72.8582284,"['hospital', 'health', 'point_of_interest', 'establishment']",Mira-Bhayandar
41,Dr. Jeevrajika Hospital,"Bhayandar, Jesal Park, Bhayandar East, Mira Bhayandar, Maharashtra 401105, India",ChIJnY3jcNWv5zsRg7_eZ20sj-Y,19.3136568,72.8539352,"['hospital', 'health', 'point_of_interest', 'establishment']",Mira-Bhayandar
42,Surana Hospital,"1st Floor, Shri Sai Darshan, Near Old Golden Nest, Mira Bhayandar Road Bhayandar East, Mira Road, Mira Bhayandar, Maharashtra 401105, India",ChIJMW3Vpzew5zsRFQK9L2BrCfg,19.2932793,72.8611251,"['hospital', 'health', 'point_of_interest', 'establishment']",Mira-Bhayandar
43,Ascent Multi Speciality Hospital & ICU,"Mira Bhayandar Rd, Opp.Petrol Pump, New Panchawati Co-operative Housing Society, Mira Road, Mira Bhayandar, Maharashtra 401107, India",ChIJg6f0ADiw5zsRzHGMcXSmtF4,19.2907999,72.8635711,"['hospital', 'health', 'point_of_interest', 'establishment']",Mira-Bhayandar
44,Global Multi-speciality Hospital,"Stanley Regency,Kanakia Beverley Park, Vagad Nagar, Mira Road, Mira Bhayandar, Maharashtra 401107, India",ChIJ99RvFz-w5zsRQ1mAV5MUp_0,19.2935295,72.8709679,"['hospital', 'health', 'point_of_interest', 'establishment']",Mira-Bhayandar
45,RL ENT HOSPITAL,"Fatak Rd, Bhayandar, Chandmal Nagar, Bhayandar West, Mira Bhayandar, Maharashtra 401101, India",ChIJJbjuxDKw5zsREPlVMpOVNGc,19.2998948,72.8475131,"['hospital', 'doctor', 'health', 'point_of_interest', 'establishment']",Mira-Bhayandar
46,Dr. Drago's LifeLine-Health Hospital,"Building # 8, Sheetal Nagar, opposite Snehanjali Electronic Showroom, Mira Road, Maharashtra 401107, India",ChIJG_m_7EWw5zsR2_X_zziLyDc,19.283741,72.86455,"['hospital', 'health', 'point_of_interest', 'establishment']",Mira-Bhayandar
47,Mantora Hospital,"Ground Floor, Arunodaya Apartment, Navghar Fatak Rd, Bhayandar East, Ghoddev, Naka, Mira Bhayandar, Maharashtra 401301, India",ChIJlc3mUS6w5zsR1n8T_2pz-rU,19.3043883,72.8596731,"['hospital', 'health', 'point_of_interest', 'establishment']",Mira-Bhayandar
48,Shree Multispeciality Hospital,"B 101, Ramdev Park Rd, Vagad Nagar, Beverly Park, Mira Road, Mira Bhayandar, Maharashtra 401107, India",ChIJtfkJsD6w5zsRQ87VF4gGs1A,19.2962906,72.8700071,"['hospital', 'health', 'point_of_interest', 'establishment']",Mira-Bhayandar
49,Juana Mother And Child Care hospital,"Bhairav Residency, Kanakia Rd, opp. laxmi park, Unique Gardens, Gaurav City, Mira Road, Mira Bhayandar, Maharashtra 401107, India",ChIJC9HnMj6w5zsRM4QsPmivrKQ,19.2946037,72.87428469999999,"['hospital', 'health', 'point_of_interest', 'establishment']",Mira-Bhayandar
50,Gurukrupa Hospital,"Poonam Garden Rd, Sheetal Naka, Sheetal Nagar, Mira Road, Mira Bhayandar, Maharashtra 401107, India",ChIJ67hqYLmx5zsR_7JsLOKr8mQ,19.2825976,72.8652097,"['hospital', 'health', 'point_of_interest', 'establishment']",Mira-Bhayandar
51,Chirayu Superspeciality Hospital,"Ground Floor , Vimal Deep Sorvoday Paradise, Near, Road, Golden Nest Circle, Mira Bhayandar, Maharashtra 401105, India",ChIJWUHDKTew5zsReYBH1kqL33g,19.2956559,72.860472,"['hospital', 'health', 'point_of_interest', 'establishment']",Mira-Bhayandar
52,Ashirwad Hospital,"Samir Apartment, Sector K 7, Jesal Park, Bhayandar East, Mira Bhayandar, Maharashtra 401105, India",ChIJRZkfE9Wv5zsRbwiMadlj19E,19.3142665,72.8535685,"['hospital', 'health', 'point_of_interest', 'establishment']",Mira-Bhayandar
53,Sheth P.V. Doshi Hospital,"Shanti Park Rd, opp. sector6/7, Poonam Nagar, Mira Road, Mira Bhayandar, Maharashtra 401107, India",ChIJaU4kuVqw5zsR_xIVw-TV6EE,19.278254,72.8645957,"['hospital', 'health', 'point_of_interest', 'establishment']",Mira-Bhayandar
54,Global Hospital,"Door No. B2/ C1, 1st Floor, Shanti Shopping Centre, Mira Road, Mira Bhayandar, Maharashtra 401107, India",ChIJVVUVyE2w5zsRTM-yCYWPw0I,19.2803795,72.8565793,"['hospital', 'health', 'point_of_interest', 'establishment']",Mira-Bhayandar
55,Saxena Children Hospital,"Railway, B P Road, Station Rd, Bhayandar, Bhaurao Udyog Nagar, Chandan nagar, Bhayandar East, Mira Bhayandar, Maharashtra 401105, India",ChIJ7RjODiuw5zsRWvUewOyjhIE,19.3084382,72.85456649999999,"['hospital', 'health', 'point_of_interest', 'establishment']",Mira-Bhayandar
56,Kakade Hospital,"C-WING, Miragaon Rd, MIra Co-operative Housing Society, AG Nagar, MIDC, Mira Road, Mira Bhayandar, Maharashtra 401107, India",ChIJwX1uuGGw5zsRz0Mc54LXX4k,19.2706896,72.878986,"['hospital', 'health', 'point_of_interest', 'establishment']",Mira-Bhayandar
57,Jugura hospital,"New Golden Nest Rd, Bhayandar, Sonam Sagar, Indira Nagar, Bhayandar East, Mira Bhayandar, Maharashtra 401105, India",ChIJUWP_HTGw5zsRzrd76T4DiZ4,19.2979644,72.8604084,"['hospital', 'health', 'point_of_interest', 'establishment']",Mira-Bhayandar
58,Sanjeevani Hospital,"Ground Floor, A/7, Sector 2, Shanti Nagar, Mira Road East, Thane, Maharashtra 401107, India",ChIJmf6bvFGw5zsRHSm3Q1du9no,19.2767568,72.8592893,"['hospital', 'health', 'point_of_interest', 'establishment']",Mira-Bhayandar
59,Shobha Hospital,"Ghoddev Gaothan Road, Bhayandar, Bhaurao Udyog Nagar, Chandan nagar, Bhayandar East, Mira Bhayandar, Maharashtra 401105, India",ChIJg_UYjiuw5zsR5yAH_B0XsSw,19.3078698,72.8555238,"['hospital', 'health', 'point_of_interest', 'establishment']",Mira-Bhayandar
