,place_name,address,place_id,latitude,longitude,types,city
0,Rakshak Accident Hospital,"9B, near SBI Nandurbar Branch, Shivaji Colony, Nandurbar, Maharashtra 425412, India",ChIJ40Gs6ZUJ3zsR79TUAgOtRFI,21.3667976,74.2462056,"['hospital', 'health', 'point_of_interest', 'establishment']",Nandurbar
1,"SHRI TULSI CRITICARE CLINIC ,NANDURBAR","Darmaraj Nagar, Nandurbar, Maharashtra 425412, India",ChIJb5dbgiAK3zsRrfnl5spQgr4,21.387705,74.2448419,"['hospital', 'health', 'point_of_interest', 'establishment']",Nandurbar
2,Shinde Hospital And Surgical ICU,"Khodai Mata Road, Nehru Nagar, Nandurbar, Maharashtra 425412, India",ChIJQaseXZcJ3zsRKD16UHsG6aA,21.3697135,74.2514996,"['hospital', 'health', 'point_of_interest', 'establishment']",Nandurbar
3,Patil Hospital,"Khodai Mata Road, Nandurbar, Maharashtra 425412, India",ChIJR_iRwJYJ3zsRAjkjPzikjz0,21.3693464,74.24883419999999,"['hospital', 'health', 'point_of_interest', 'establishment']",Nandurbar
4,Madhuram Eye Hospital,"38, Khodai Mata Rd, Viral Vihar, Nandurbar, Maharashtra 425412, India",ChIJ5SYMO5cJ3zsRnrWDkaXqj9g,21.3697701,74.2511275,"['hospital', 'health', 'point_of_interest', 'establishment']",Nandurbar
5,MADHURA MATERNITY HOSPITAL NANDURBAR,"61 rupaseth park near kaka ka dhabha ,behind upnagar police station nandurbar., India",ChIJOeovEPMJ3zsRpmPpix1d5lM,21.3792951,74.2390676,"['hospital', 'health', 'point_of_interest', 'establishment']",Nandurbar
6,"District General Hospital, Nandurbar","NH753B, Dudhale Shivar, Nandurbar, Maharashtra 425412, India",ChIJg_W2vhme3zsRT24eUvWDzPE,21.3386398,74.2340854,"['hospital', 'health', 'point_of_interest', 'establishment']",Nandurbar
7,Medicare Hospital,"Plot No.37, Taloda Rd, Kanhaiya Nagar, Nandurbar, Maharashtra 425412, India",ChIJM1A6AiAK3zsRy-kXRWzDzcA,21.3876361,74.2415376,"['hospital', 'health', 'point_of_interest', 'establishment']",Nandurbar
8,Kilbil Hospital,"Bhuvaneshwar Nagar, Gandhinagar, Nandurbar, Maharashtra 425412, India",ChIJFUGfbYoJ3zsR_VWPWpHwTek,21.3867938,74.24560919999999,"['hospital', 'health', 'point_of_interest', 'establishment']",Nandurbar
9,CHIRAYU CHILDREN HOSPITAL,"12,Manik Nagar Near State Bank of India, Dhule Road Nandurbar, Nandurbar, Maharashtra 425412, India",ChIJYeVYMJUJ3zsRL6KBZKO_ZEo,21.3755507,74.2427644,"['hospital', 'health', 'point_of_interest', 'establishment']",Nandurbar
10,JAIN Children & General Hospital,"Lokmanya Dhule Road Railway Colony Nandurbar, 425412, India",ChIJMeJTNZQJ3zsRzhvFlza05Ew,21.367355,74.2458378,"['hospital', 'health', 'point_of_interest', 'establishment']",Nandurbar
11,charak Hospital,"Chitte Nagar, Rupam Nagar, Nandurbar, Maharashtra 425412, India",ChIJ3xkFGfMJ3zsRwGcv11I7cEE,21.3788483,74.2397214,"['hospital', 'health', 'point_of_interest', 'establishment']",Nandurbar
12,Saideep Hospital,"Swami Samartha Nagar, Gandhinagar, Nandurbar, Maharashtra 425412, India",ChIJoyErMIwJ3zsRBykyTdtX2Mk,21.3797416,74.246669,"['hospital', 'health', 'point_of_interest', 'establishment']",Nandurbar
13,AKSHAY ENT HOSPITAL,"10, Manik Nagar, near LIC Office, Maharashtra 425412, India",ChIJA2R1ijYJ3zsRMouUmioIsYs,21.3655612,74.2466405,"['hospital', 'health', 'point_of_interest', 'establishment']",Nandurbar
14,Navjeevan Hospital,"Taloda Rd, kanhaiyya nagar, Nandurbar, Maharashtra 425412, India",ChIJ-QjbqYoJ3zsRh60i1b9h4u8,21.3872143,74.2418987,"['health', 'point_of_interest', 'establishment']",Nandurbar
15,Dindayal Eye Hospital,"2, Girikunj Hsg. Society Khodai Mata, Mandir Rd, Nandurbar, Maharashtra 425412, India",ChIJXaJq04UJ3zsRPNEh1NLBv_Y,21.3714663,74.2579464,"['hospital', 'health', 'point_of_interest', 'establishment']",Nandurbar
16,Shree Narayan Hospital,"Navnath Nagar, Viral Vihar, Nandurbar, Maharashtra 425412, India",ChIJCR2lT5QJ3zsRKH8_3wW9fTc,21.3678902,74.2452224,"['hospital', 'health', 'point_of_interest', 'establishment']",Nandurbar
17,Kantalaxmi Shah Eye Hospital OPD,"Shivaji Colony, Nandurbar, Maharashtra 425412, India",ChIJ1_Iax5UJ3zsRHMqzS64Z-tE,21.3664956,74.2459095,"['health', 'point_of_interest', 'establishment']",Nandurbar
18,C D Mahajan Accident Hospital,"38, Khodai Mata Rd, Nehru Nagar, Nandurbar, Maharashtra 425412, India",ChIJYYso3JYJ3zsRiEQxEmHBSl8,21.3694279,74.2498356,"['hospital', 'health', 'point_of_interest', 'establishment']",Nandurbar
19,KILBIL BALRUGNALAYA,"14 Bhagwati Nagar. Jijamata college road., Nandurbar, Maharashtra 425412, India",ChIJlz3kQ4oJ3zsRg751jNa5wxA,21.385821,74.245542,"['hospital', 'health', 'point_of_interest', 'establishment']",Nandurbar
20,Dr Jayant Shah's SHAISHAV HOSPITAL,"LOKMANYA HOUSING SOCIETY, Nr Post Office, Nandurbar, Maharashtra 425412, India",ChIJhdibOJQJ3zsRJV0Nb-yfA48,21.3684478,74.2458922,"['hospital', 'health', 'point_of_interest', 'establishment']",Nandurbar
21,Bhagwati ENT Hospital,"NH753B, near prakash oil mill, Arihant Nagar, Nandurbar, Maharashtra 425412, India",ChIJpfVOo4QJ3zsRd9GShxtpKtE,21.3783682,74.25831079999999,"['hospital', 'health', 'point_of_interest', 'establishment']",Nandurbar
22,VATSALYA HOSPITAL,"80, Rupaseth park, behind Meena Complex, Nandurbar, Maharashtra 425412, India",ChIJUULMGfMJ3zsRALjaZ231Kg4,21.3789642,74.23975010000001,"['hospital', 'health', 'point_of_interest', 'establishment']",Nandurbar
23,Aayushyavardhini Hospital,"Nalwa Rd, Gandhi Putala, hat Darwaja, Nandurbar, Maharashtra 425412, India",ChIJQ48Bo-wJ3zsRcWYC5WRXCMY,21.3702503,74.2401338,"['hospital', 'health', 'point_of_interest', 'establishment']",Nandurbar
24,Aasha Accident And Maternity Hospital,"24,Madhavmama Vihar, Bypass Rd, near Uddan pool, Nandurbar, Maharashtra 425412, India",ChIJNwGQlYQJ3zsRnNx4UsMoUmw,21.3786691,74.257778,"['hospital', 'health', 'point_of_interest', 'establishment']",Nandurbar
25,Sanjeevani Children's Hospital,"Om Sai Plaza,, Korit Rd, Nandurbar, Maharashtra 425412, India",ChIJb_0AUYgJ3zsRFWdqTnrqcOA,21.3857301,74.2507486,"['hospital', 'health', 'point_of_interest', 'establishment']",Nandurbar
26,Jai Prakash Narayan Hospital,"SH5, Viral Vihar, Nandurbar, Maharashtra 425412, India",ChIJA3LQl5QJ3zsRzdZT_Ma0Dak,21.3690888,74.2429152,"['hospital', 'health', 'point_of_interest', 'establishment']",Nandurbar
27,Om Accident Hospital,"Dongargaon Main Road, Shahada (Dist-Nandurbar), behind Hotel Patel Residency, Shahada, Maharashtra 425409, India",ChIJC0weHfVs3zsR5sAPTDszlGU,21.5471031,74.4767006,"['hospital', 'health', 'point_of_interest', 'establishment']",Nandurbar
28,Adhar Hospital,"19, Khodai Mata Rd, Telephone Colony, Raghubir Nagar, Nehru Nagar, Nandurbar, Maharashtra 425412, India",ChIJGfUY4ZsJ3zsRDSz9Oa7l2DQ,21.371639,74.2577649,"['hospital', 'health', 'point_of_interest', 'establishment']",Nandurbar
29,Civil Hospital,"Viral Vihar, Nandurbar, Maharashtra 425412, India",ChIJWc6Vo-wJ3zsRIr_q_t3KgVo,21.3701663,74.2402137,"['hospital', 'health', 'point_of_interest', 'establishment']",Nandurbar
30,DAGA CLINIC,"20, Nalwa Rd, Viral Vihar, Nandurbar, Maharashtra 425412, India",ChIJf5YvvewJ3zsRV5t3WrRaYDk,21.3704295,74.2400315,"['hospital', 'health', 'point_of_interest', 'establishment']",Nandurbar
31,"VARAD DIAGNOSTIC CENTER, SONOGRAPHY & X RAY CLINIC","3A, Dhule Rd, Talathi Colony, Nandurbar, Maharashtra 425412, India",ChIJlUkPuJUJ3zsR0KUZWqlyz7A,21.366656,74.24578,"['hospital', 'health', 'point_of_interest', 'establishment']",Nandurbar
32,Navkar Netralaya,"opp wine shop Girivihar Complex Taloda Road, near more, Nandurbar, Maharashtra 425412, India",ChIJg_d5CgYJ3zsRVxIfDabFk3Y,21.3800804,74.24119360000002,"['hospital', 'health', 'point_of_interest', 'establishment']",Nandurbar
33,Dr Shivajirao Patil - Himmatrao Hospital,"Navnath Nagar, Shivaji Colony, Nandurbar, Maharashtra 425412, India",ChIJs2cjlZUJ3zsRWBEM6bWpJ08,21.3657492,74.2457396,"['hospital', 'health', 'point_of_interest', 'establishment']",Nandurbar
34,Life Care Hospital,"Vadali, Nandurbar SH-4, Shirpur, Taloda Rd, Shahada, Maharashtra 425423, India",ChIJfWatgDA-3zsRN3uQuc9sFFY,21.4570962,74.6079263,"['hospital', 'health', 'point_of_interest', 'establishment']",Nandurbar
35,BHAGWATI E.N.T HOSPITAL AND ENDOSCOPY CENTER,"27 MADHAV MAMA VIHAR, NEAR INDIRA SOLVENT, NEAR BYPASS ROAD FLYOVER, Nandurbar, Maharashtra 425412, India",ChIJ0UIpmIQJ3zsRcBH_7JrpkQE,21.3778389,74.2583044,"['doctor', 'health', 'point_of_interest', 'establishment']",Nandurbar
36,Nandurbar Institute of Medical Sciences,"Nehru Nagar, Nandurbar, Maharashtra 425412, India",ChIJwTfWOV0J3zsRz_Etmz1khCc,21.3716144,74.2529299,"['hospital', 'health', 'point_of_interest', 'establishment']",Nandurbar
37,lifecare lab,"MANIK CHOWK Viral Vihar, Navnath Nagar, Nandurbar, Maharashtra 425412, India",ChIJS5MQLesJ3zsRDwp9tDSLHsY,21.3674899,74.2413243,"['hospital', 'health', 'point_of_interest', 'establishment']",Nandurbar
38,Shraddha Hospital,"SH 6, Navnath Nagar, Viral Vihar, Nandurbar, Maharashtra 425412, India",ChIJIe2abZUJ3zsRtXN0JDAVizY,21.3653669,74.2433904,"['hospital', 'health', 'point_of_interest', 'establishment']",Nandurbar
39,Ankur Maternity Centre,"SH5, Viral Vihar, Nandurbar, Maharashtra 425412, India",ChIJVR3dV-sJ3zsR0kJSzJFZK18,21.3697323,74.2408147,"['hospital', 'health', 'point_of_interest', 'establishment']",Nandurbar
40,Suyog Hospital,"Arihant Nagar, Nandurbar, Maharashtra 425412, India",ChIJWeqpAx0J3zsRbUSUb-HSSn4,21.3796018,74.2581003,"['hospital', 'health', 'point_of_interest', 'establishment']",Nandurbar
41,Dr. R. S. Chaudhari,"Manik Chowk, District, Navnath Nagar, Viral Vihar, Nandurbar, Maharashtra 425412, India",ChIJZ4ANOesJ3zsRjskjUESa2bo,21.3672404,74.24112889999999,"['hospital', 'health', 'point_of_interest', 'establishment']",Nandurbar
42,Kantalaxmi Shah eye hospital,"401, Dhule Bipas Road, MH SH 17, Arihant Nagar, Hol T. Haveli, Maharashtra 425412, India",ChIJuXKQ-YEJ3zsRKWrdQxwVDiM,21.3839051,74.2642844,"['hospital', 'health', 'point_of_interest', 'establishment']",Nandurbar
43,"District TB Centre, Nandurbar","Dudhale, Maharashtra 425412, India",ChIJHcECnTMI3zsRaiRrUAkslSU,21.3370989,74.2346644,"['hospital', 'health', 'point_of_interest', 'establishment']",Nandurbar
44,Aastha Hospital,"6, Taloda Rd, Rajendra Nagar, Gandhinagar, Nandurbar, Maharashtra 425412, India",ChIJy26oQ_UJ3zsR_J6DclAZ63g,21.3861791,74.24022889999999,"['hospital', 'health', 'point_of_interest', 'establishment']",Nandurbar
45,Suryakanta Eye Hospital,"CLINIC Opp Nagarplika, above Shriram Medical,HOSPITAL Behind Nagar palika, 580 D, behind Aamdar Karyalaya, Pardeshi Pura, Viral Vihar, Nandurbar, Maharashtra 425412, India",ChIJITFIiooJ3zsRZES5-CNH6I8,21.3685661,74.2434336,"['doctor', 'health', 'point_of_interest', 'establishment']",Nandurbar
46,NAVJIVAN CT SCAN CENTER,"21°23'13. 74°14'31., 9, 0 E, Roosevelt, Utah, India",ChIJKdzNqYoJ3zsRaMDvfLUzAYk,21.387201,74.24193799999999,"['hospital', 'health', 'point_of_interest', 'establishment']",Nandurbar
47,PUSHPRAVI HOSPITAL,"Gokul Nagar Rd, Vrindavan Nagar, Kuber Nagar, Gokulbhai Nagar, Shahada, Maharashtra 425409, India",ChIJ7TIrWvNs3zsR5W290BHwCU8,21.5425227,74.47509339999999,"['hospital', 'health', 'point_of_interest', 'establishment']",Nandurbar
48,Sanjari Hospital and Nursing Home,"19, HARSHA CONSTRUCTION, AMBEDKAR SHOPPING COMPEX, OPPOSITE AMBIKA TRADERS, NEAR MAHSOBA MANDIR, NANDURBAR, MAHARADHTRA, 55, Korit Rd, Laxmi Nagar, Viral Vihar, Nandurbar, Maharashtra 425412, India",ChIJQw-SWggJ3zsRTFiIIHB7Css,21.368528,74.241813,"['hospital', 'health', 'point_of_interest', 'establishment']",Nandurbar
49,Aasha accident and maternity Hospital,"Madhav mama vihar,bypass road, Maharashtra 425412, India",ChIJGbOzu4QJ3zsRN5NIogEbcIY,21.3700907,74.24033589999999,"['hospital', 'health', 'point_of_interest', 'establishment']",Nandurbar
50,Panjarale Hospital,"Taloda, Maharashtra 425413, India",ChIJe6FUfAOe3zsRak2EeHyWuxE,21.560737,74.2122511,"['hospital', 'health', 'point_of_interest', 'establishment']",Nandurbar
51,Krushna Hospital,"Mangal murti nagar, 47, Dongargoan Rd, Krushna Kunj Colony, Kuber Nagar, Ganesh Nagar, Shahada, Maharashtra 425409, India",ChIJoc5c2Ips3zsRJRNH2ql26TA,21.5460771,74.47688029999999,"['hospital', 'health', 'point_of_interest', 'establishment']",Nandurbar
52,KUWAR HOSPITAL,"Naheru Rd, Navapur, Maharashtra 425418, India",ChIJVd44TH7J3zsRLVGbVayZyUo,21.159801,73.7915977,"['hospital', 'health', 'point_of_interest', 'establishment']",Nandurbar
53,"Sushrut Nursing Home,Shahada","Khetiya Road, Mahalaxmi Nagar, Shahada, Maharashtra 425409, India",ChIJRYueK1xs3zsRr4H07dXRaRc,21.554835,74.472934,"['hospital', 'health', 'point_of_interest', 'establishment']",Nandurbar
54,Aditya Maternity and Eye Hospital,"Plot 3, Dongargaon Rd, near Patel Residency, Garib Nawaz Colony, Mahalaxmi Nagar, Shahada, Maharashtra 425409, India",ChIJyYsAyIps3zsR7j-vk3L2XJ8,21.5473753,74.4767377,"['hospital', 'health', 'point_of_interest', 'establishment']",Nandurbar
55,Shreyas Accident Hospital,"Kashinath Sajan Nagar, Kuber Nagar, Ganesh Nagar, Shahada, Maharashtra 425409, India",ChIJu4V5WIxs3zsRM0XplhgL13o,21.5412356,74.4789603,"['hospital', 'health', 'point_of_interest', 'establishment']",Nandurbar
56,Chinchpada Hospital,"Gangapur, Maharashtra 425417, India",ChIJXZhgpbm23zsRcSTCz9t7ZwM,21.1904946,73.9219265,"['hospital', 'health', 'point_of_interest', 'establishment']",Nandurbar
57,SAMRUDDHI HOSPITAL,"99, Jijamata College Rd, Shriramnagar, Gandhinagar, Nandurbar, Maharashtra 425412, India",ChIJ3XDYZcEJ3zsR8ndN21e76as,21.3859295,74.2431865,"['hospital', 'health', 'point_of_interest', 'establishment']",Nandurbar
58,"SHIVSHANTI ACCIDENT HOSPITAL, NAVAPUR","in front of vanita highschool, Navapur, Maharashtra 425418, India",ChIJe9EWnZnJ3zsRWunhNwjJukg,21.164335,73.7986676,"['hospital', 'health', 'point_of_interest', 'establishment']",Nandurbar
59,Jai Shree Datta Accident Hospital and Physiotherapy centre.,"22, Dongargaon Rd, Shivram Nagar, Kuber Nagar, Ganesh Nagar, Shahada, Maharashtra 425409, India",ChIJmZIwnWJs3zsRPYObGhu_Fks,21.5498192,74.4855733,"['hospital', 'health', 'point_of_interest', 'establishment']",Nandurbar
