,place_name,address,place_id,latitude,longitude,types,city
0,Sahyadri Multispeciality Hospital,"Kakde Plot, DIC Road, Osmanabad, India",ChIJpd55pn-hxTsR-T0fo6aVg40,18.1991518,76.0371523,"['hospital', 'health', 'point_of_interest', 'establishment']",Osmanabad
1,Sanjeevan Hospital,"S.R.T. Colony, Near Shivaji Chatrapati Chowk, opposite Stadium, Maharashtra 413501, India",ChIJ4Xc-njKixTsRevW00HOXXDM,18.1852109,76.0409052,"['hospital', 'health', 'point_of_interest', 'establishment']",Osmanabad
2,Niramay Hospital,"S.R.T.Colony, Osmanabad, Maharashtra 413501, India",ChIJRerNnNGjxTsRwf-PnPF7GgM,18.1873374,76.0326453,"['hospital', 'health', 'point_of_interest', 'establishment']",Osmanabad
3,Akshay Hospital & Infertility Center,"MH SH 67, Lakshmi Nagar, Osmanabad, Maharashtra 413501, India",ChIJu28j8i-ixTsRUPU9mItOFGk,18.1869593,76.0496271,"['hospital', 'health', 'point_of_interest', 'establishment']",Osmanabad
4,"District Civil Hospital, Osmanabad","Niramay Hospital, Shivram Wada, S.R.T.Colony, Osmanabad, Maharashtra 413501, India",ChIJ____9syjxTsRbY24GNm46B0,18.1809938,76.03638699999999,"['hospital', 'health', 'point_of_interest', 'establishment']",Osmanabad
5,Pakle Hospital,"Vikas Nagar Osmanabad, Osmanabad, Maharashtra 413501, India",ChIJ-8DC0p-hxTsRvdPJQD5czWc,18.217008,76.04001,"['hospital', 'health', 'point_of_interest', 'establishment']",Osmanabad
6,Miniyar Hospital,"Shradha building, Barshi-Osmanabad Rd, Tambari Vibhag, Osmanabad, Maharashtra 413501, India",ChIJN2S9BNGjxTsRa7DhqRI8Nt4,18.1863586,76.0294273,"['hospital', 'health', 'point_of_interest', 'establishment']",Osmanabad
7,Sree Sai Hospital,"Barshi Naka, Adarsh Nagar, Osmanabad, Maharashtra 413501, India",ChIJ5y7LG9GjxTsRYFGuAnqzE3I,18.1884596,76.03102930000001,"['hospital', 'health', 'point_of_interest', 'establishment']",Osmanabad
8,Sahyadri Multispeciality Hospital Osmanabad,"kakade plot, Osmanabad, Maharashtra, India",ChIJ3WyE_vWjxTsRLhhmv8AX8i0,18.1860659,76.0419409,"['hospital', 'health', 'point_of_interest', 'establishment']",Osmanabad
9,Garad Hospital,"Samta Colony, Osmanabad, Maharashtra 413501, India",ChIJEZeSBNSjxTsRLumvZ8ZcJjw,18.1911482,76.0338352,"['hospital', 'health', 'point_of_interest', 'establishment']",Osmanabad
10,Suvidha Hospital And ICU Centre,"Shree Umesh Gore complex , D. I. C. road, Barshi naka, Osmanabad, Maharashtra 413501, India",ChIJJw4peC2ixTsREJBGjhGMC80,18.1895699,76.032253,"['hospital', 'health', 'point_of_interest', 'establishment']",Osmanabad
11,Shreeyash Hospital,"Samarth Nagar, Osmanabad, Maharashtra 413501, India",ChIJTYTFgi6ixTsRcbmLYuxq1oI,18.1891689,76.045129,"['hospital', 'health', 'point_of_interest', 'establishment']",Osmanabad
12,Paris Hospital,"S.R.T.Colony, Osmanabad, Maharashtra 413501, India",ChIJ3zvZ0iyixTsRFruhBo_3fS4,18.1886156,76.039255,"['hospital', 'health', 'point_of_interest', 'establishment']",Osmanabad
13,CHIRAYU Hospital,"Central Building, Near Johny Hotel, Ramnagar, Osmanabad, Maharashtra 413501, India",ChIJH9dcJIChxTsR3OH5v7G2XCI,18.1987273,76.0396786,"['hospital', 'health', 'point_of_interest', 'establishment']",Osmanabad
14,Pulse ICU Center &Hospital,"front of Chyayadip lons, Solapur - Aurangabad Hwy, Mahatma Gandhi Nagar, krishna nagar, Osmanabad, Maharashtra 413501, India",ChIJTS96veihxTsRFceCYAH6u8I,18.2131313,76.0407044,"['hospital', 'health', 'point_of_interest', 'establishment']",Osmanabad
15,Spandan Hospital,"Samta Colony, Osmanabad, Maharashtra 413501, India",ChIJfRYnK9OjxTsROqVM5h5UXsk,18.1880837,76.0392291,"['hospital', 'health', 'point_of_interest', 'establishment']",Osmanabad
16,Sachin Deshmukh Hospital,"Tambari Vibhag, Osmanabad, Maharashtra 413501, India",ChIJH6DQG86jxTsRYttShjRv_y0,18.1834421,76.0331791,"['hospital', 'health', 'point_of_interest', 'establishment']",Osmanabad
17,Deshmukh Accident Hospital,"Samta Colony, Osmanabad, Maharashtra 413501, India",ChIJhSh_GtSjxTsRgUUOrlBNkxA,18.1896976,76.03743999999999,"['hospital', 'health', 'point_of_interest', 'establishment']",Osmanabad
18,Sushrut Hospital,"Waruda Rd, Samarth Nagar, Lakshmi Nagar, Osmanabad, Maharashtra 413501, India",ChIJm2gVkS6ixTsRf7vsTtkd85k,18.1900863,76.0460208,"['hospital', 'health', 'point_of_interest', 'establishment']",Osmanabad
19,Parvati hospital,"Datta Nagar, Osmanabad, Maharashtra 413501, India",ChIJuxdYSoChxTsRfbL0SOHwhkg,18.1995792,76.0407741,"['hospital', 'health', 'point_of_interest', 'establishment']",Osmanabad
20,Kazi Hospital,"Samarth Nagar, Lakshmi Nagar, Osmanabad, Maharashtra 413501, India",ChIJX65y9hejxTsRiI0Q2AHBoxg,18.1898214,76.04355249999999,"['hospital', 'health', 'point_of_interest', 'establishment']",Osmanabad
21,Eye Hospital,"Civil Hospital Rd, Shivram Wada, Nehru Chowk, Osmanabad, Maharashtra 413501, India",ChIJL3xVTcyjxTsRVvz7rwbjrmU,18.1819842,76.0355625,"['hospital', 'health', 'point_of_interest', 'establishment']",Osmanabad
22,Keshavraj Hospital,"Samarth Nagar, Lakshmi Nagar, Osmanabad, Maharashtra 413501, India",ChIJAw1M1i2ixTsRWl0Tp5JSnFE,18.1888994,76.0451649,"['hospital', 'health', 'point_of_interest', 'establishment']",Osmanabad
23,Rukmini Hospital,"S.R.T.Colony, Osmanabad, Maharashtra 413501, India",ChIJW8BoQNGjxTsRc3f93q2H4tY,18.1890509,76.03205729999999,"['hospital', 'health', 'point_of_interest', 'establishment']",Osmanabad
24,Tolai Hospital,"Barshi Rd, Hanuman chowk, Osmanabad, Maharashtra 413501, India",ChIJw2BGIs-jxTsRpG5FD6Grf68,18.1806039,76.0230732,"['hospital', 'health', 'point_of_interest', 'establishment']",Osmanabad
25,"PATIL PHYSIOTHERAPY & REHABILITATION CLINIC ,","Samta Colony, Osmanabad, Maharashtra 413501, India",ChIJWWZ6lXujxTsREC58XYo17xI,18.1899521,76.0352102,"['hospital', 'health', 'point_of_interest', 'establishment']",Osmanabad
26,Sai Baba Piles Hospital,"Dargah Rd, Anand Nagar, Osmanabad, Maharashtra 413501, India",ChIJv4c1WTWixTsRcJDyl-PM9LY,18.1738859,76.0402631,"['hospital', 'health', 'point_of_interest', 'establishment']",Osmanabad
27,Kaveri hospital,"Jijau Nagar, Dharshiv, Osmanabad, Maharashtra 413501, India",ChIJBTU8_tajxTsRvRM5Pl7oyHc,18.1929126,76.0305766,"['hospital', 'health', 'point_of_interest', 'establishment']",Osmanabad
28,Hospital,"Mahatma Gandhi Nagar, Rajiv Gandhi Nagar, Osmanabad, Maharashtra 413501, India",ChIJAUk441uhxTsRyYhtfLGBNg8,18.2080213,76.0411908,"['hospital', 'health', 'point_of_interest', 'establishment']",Osmanabad
29,K K Hospital,"Ganesh Nagar, Osmanabad, Maharashtra 413501, India",ChIJ4eDmfUmixTsRV4YAbK6Nz9k,18.1706987,76.0450713,"['hospital', 'health', 'point_of_interest', 'establishment']",Osmanabad
30,MAULI HOSPITAL,"Samta Colony, Osmanabad, Maharashtra 413501, India",ChIJFTXNqxKjxTsRwHv2ffdOsvY,18.1888508,76.040041,"['hospital', 'health', 'point_of_interest', 'establishment']",Osmanabad
31,Nagar Accident Hospital,"S.R.T.Colony, Osmanabad, Maharashtra 413501, India",ChIJpfKUEtOjxTsRlStfJiSXPow,18.1892396,76.0370971,"['hospital', 'health', 'point_of_interest', 'establishment']",Osmanabad
32,Ramkrushna Hospital,"Maharashtra, Samarth Nagar, Lakshmi Nagar, Osmanabad, Maharashtra 413501, India",ChIJ8xYfUyyixTsR2FGPC_xLTjs,18.1882385,76.0426456,"['hospital', 'health', 'point_of_interest', 'establishment']",Osmanabad
33,Navodaya Multispeciality Hospital,"Navodaya Multispeciality Hospital Ambedkar Chowk, near Yuvraj Lodge, Samta Colony, Osmanabad, Maharashtra 413501, India",ChIJd1QoNoHaxTsRooZaX9DXHw0,18.1857712,76.0399714,"['hospital', 'health', 'point_of_interest', 'establishment']",Osmanabad
34,Lifeline Hospital,"Samta Colony, Osmanabad, Maharashtra 413501, India",ChIJIbq0W2WjxTsRy8d6cy9H0VU,18.1908013,76.0366643,"['hospital', 'health', 'point_of_interest', 'establishment']",Osmanabad
35,Chirayu Hospital,"Ramnagar, Osmanabad, Maharashtra 413501, India",ChIJW2h0ruyjxTsR8jMPEayl62w,18.1963383,76.06312299999999,"['hospital', 'health', 'point_of_interest', 'establishment']",Osmanabad
36,Government Hospital,"Vairag Rd, Khadak Pura, Islam Pura, Osmanabad, Maharashtra 413501, India",ChIJcxdLo8qjxTsRktozztDVOds,18.1741941,76.03802560000001,"['hospital', 'health', 'point_of_interest', 'establishment']",Osmanabad
37,Osmanabad Police Hospital,"Kusumtai Patil Nagar, Police Line, Osmanabad, Maharashtra 413501, India",ChIJKc-t34ChxTsRleUlPZboOKw,18.199862,76.0436927,"['hospital', 'health', 'point_of_interest', 'establishment']",Osmanabad
38,Shrisai Multispeciality & Balrugnalaya (Dr Sontakke Hospital) & Vaccination Centre,"Manik chowk, near petrol pump,, Osmanabad, Maharashtra 413501, India",ChIJg746sNWjxTsRiM4C9eXg61U,18.1941703,76.03549989999999,"['hospital', 'health', 'point_of_interest', 'establishment']",Osmanabad
39,Aai Hospital,"Waruda Rd, Samarth Nagar, Lakshmi Nagar, Osmanabad, Maharashtra 413501, India",ChIJt6MLDCejxTsRLoISe3UqO0c,18.189905,76.04720069999999,"['hospital', 'health', 'point_of_interest', 'establishment']",Osmanabad
40,Mule Hospital,"Samarth Nagar, Lakshmi Nagar, Osmanabad, Maharashtra 413501, India",ChIJ-bT8gi6ixTsRkyuIcm5fT68,18.1890797,76.0451565,"['hospital', 'health', 'point_of_interest', 'establishment']",Osmanabad
41,Aayushri Hospital,"Khadak Pura, Islam Pura, Osmanabad, Maharashtra 413501, India",ChIJhSlir8qjxTsRVS9nmtsWNCU,18.1739795,76.0384754,"['hospital', 'health', 'point_of_interest', 'establishment']",Osmanabad
42,Vidhate Accident Hospital,"DIC Road, Barshi Naka, Osmanabad, Maharashtra 413501, India",ChIJRdaJRtGjxTsRmsNreLUQg8E,18.1893939,76.03206279999999,"['hospital', 'health', 'point_of_interest', 'establishment']",Osmanabad
43,Sadhak Childcare Hospital,"Mahatma Gandhi Nagar Rd, Mahatma Gandhi Nagar, Shankar Nagar, Osmanabad, Maharashtra 413501, India",ChIJMxT6hpyhxTsR7BoOVEyO0hw,18.2114367,76.0443317,"['hospital', 'health', 'point_of_interest', 'establishment']",Osmanabad
44,Palkar Accident Hospital,"Dr.Ambedkar Statue, Samata Colony Rd, Samarth Nagar, Samta Colony, Osmanabad, Maharashtra 413501, India",ChIJH4CvVi2ixTsRnBscPbvp2v4,18.1855935,76.0396976,"['hospital', 'health', 'point_of_interest', 'establishment']",Osmanabad
45,Dr.Deepak Bhosale Hospital,"Maharashtra, Parshuram Colony, SHAMS Co-operative Society, Osmanabad, Maharashtra 413501, India",ChIJL2bD_SSixTsR8IbVGFqJwVQ,18.1887225,76.0538215,"['hospital', 'health', 'point_of_interest', 'establishment']",Osmanabad
46,Kaveri Maternity & Eye'Hospital,"Barshi Rd, Tambari Vibhag, Osmanabad, Maharashtra 413501, India",ChIJeVUrBdGjxTsRkHTMSXGN0nQ,18.1881534,76.0310733,"['hospital', 'health', 'point_of_interest', 'establishment']",Osmanabad
47,Navodaya Multispeciality Hospital,"Near Yuvraj Lodge Ambedkar Chowk, Maharashtra 413501, India",ChIJ03WZMHGjxTsRHkzGGu3mFaM,18.1857397,76.03998519999999,"['hospital', 'health', 'point_of_interest', 'establishment']",Osmanabad
48,Padmini Maternity And ENT Hospital,"Lakshmi Nagar, Osmanabad, Maharashtra 413501, India",ChIJc-ccteqjxTsRtvoCbQoOXYM,18.1863345,76.0466709,"['hospital', 'health', 'point_of_interest', 'establishment']",Osmanabad
49,sparsh hospital &ICU Center,"Ramnagar, Osmanabad, Maharashtra 413501, India",ChIJJ-US37qhxTsRtP0H3NA8aNw,18.1989435,76.03989059999999,"['hospital', 'health', 'point_of_interest', 'establishment']",Osmanabad
50,hayat hospital,"2/75/2, Marwadi Galli, Nehru Chowk, Osmanabad, Maharashtra 413501, India",ChIJKZSoKDOixTsRsMUHoIx-9Do,18.1820931,76.03947149999999,"['hospital', 'health', 'point_of_interest', 'establishment']",Osmanabad
51,Sahyadri Multi Speciality Hospital,"Adarsh Nagar, Osmanabad, Maharashtra 413501, India",ChIJaSHvRdGjxTsR743Kj_-V6cU,18.1896588,76.032356,"['hospital', 'health', 'point_of_interest', 'establishment']",Osmanabad
52,Parveen Hospital,"Mahatma Gandhi Nagar, Galib Nagar, Osmanabad, Maharashtra 413501, India",ChIJ4Q3GXoKhxTsRU3iyzjdWYOQ,18.2053259,76.0409545,"['hospital', 'health', 'point_of_interest', 'establishment']",Osmanabad
53,Zikre Medical,"National HIghway 211, Datta Nagar, Osmanabad, Maharashtra 413501, India",ChIJM4rBa4ChxTsRwXK5DdnY0BA,18.201029,76.0405478,"['hospital', 'health', 'point_of_interest', 'establishment']",Osmanabad
54,J.F.Ajmera Rotary Netra Rugnalaya,"MIDC, National HIghway 211, behind Water Filter, M.I.D.C., Osmanabad, Maharashtra 413501, India",ChIJkWj5RaChxTsR5V8ethAD8q0,18.2219453,76.0413471,"['health', 'point_of_interest', 'establishment']",Osmanabad
55,Dr.Syed Shah Akhlaque,"4/83, Civil Hospital Road Khadak Pura, Civil Hospital Rd, Khadak Pura, Nehru Chowk, Osmanabad, Maharashtra 413501, India",ChIJAbK2yTSixTsRQmB5FmYBxwU,18.177831,76.0397093,"['hospital', 'health', 'point_of_interest', 'establishment']",Osmanabad
56,Dr Bharat Mane Hospital,"Samta Colony, Osmanabad, Maharashtra 413501, India",ChIJ-5tU0iyixTsR74n4hsAmaCY,18.1886175,76.0393933,"['hospital', 'health', 'point_of_interest', 'establishment']",Osmanabad
57,Dr.Naigaonkar's Dental Clinic,"opp patrakar bhavan ,near ambedkar statue., osmanabad, Osmanabad, Maharashtra 413501, India",ChIJ7f3XUC2ixTsRQop_76CELA0,18.185577,76.039699,"['dentist', 'health', 'point_of_interest', 'establishment']",Osmanabad
58,नोबल सुपर स्पेशालिटी हॉस्पिटल,"Sambhaji Nagar, Galib Nagar, Osmanabad, Maharashtra 413501, India",ChIJTWkb0D6hxTsRCakGCJ4A094,18.2019422,76.0410802,"['hospital', 'health', 'point_of_interest', 'establishment']",Osmanabad
59,Parvati Hospital,"Ramnagar infront of masjid, Ramnagar, Maharashtra 413501, India",ChIJqcgckoGhxTsRQWqwzhQRM9s,18.1995719,76.0407637,"['hospital', 'health', 'point_of_interest', 'establishment']",Osmanabad
