,place_name,address,place_id,latitude,longitude,types,city
0,Sahyadri Hospital Parbhani,"431401, Parbhani - Nanded Rd, Vishnu Nagar, Patil Nagar, Basmat, Maharashtra 431512, India",ChIJzyMA3zIY0DsRgwLl6v_lfs0,19.2586868,76.7813675,"['hospital', 'health', 'point_of_interest', 'establishment']",Parbhani
1,Parbhani ICU & Trauma Care Centre,"Doctors' lane, near Chirayu Hospital, Parbhani, Maharashtra 431401, India",ChIJgcHya84Z0DsRTyB8PfJj7Zs,19.2614657,76.77135249999999,"['hospital', 'health', 'point_of_interest', 'establishment']",Parbhani
2,Godawari Hospital,"Basmat Rd, Near Jintur Bank, Shivaji Nagar, Parbhani, Maharashtra 431401, India",ChIJCR23IzMY0DsRhlcZW8yAUww,19.259649,76.78104499999999,"['hospital', 'health', 'point_of_interest', 'establishment']",Parbhani
3,Surwase Hospital Parbhani,"Sbi Bank, Ganpati Chowk Parbhani Near, Parbhani, Maharashtra, India",ChIJ99kUoc0Z0DsRN_8jvrRGuck,19.2609958,76.77666500000001,"['hospital', 'health', 'point_of_interest', 'establishment']",Parbhani
4,Sparsh Multispeciality Hospital,"Gavhane Rd, near Magar Hospital, New Mondha, Parbhani, Maharashtra 431401, India",ChIJ_2hdEtAZ0DsRF1v_oXOrqQM,19.2633955,76.76909239999999,"['hospital', 'health', 'point_of_interest', 'establishment']",Parbhani
5,Chirayu Hospital,"Doctor Ln, New Mondha, Parbhani, Maharashtra 431401, India",ChIJwaIeM84Z0DsRRAKdIEiyGzc,19.2613323,76.77133549999999,"['hospital', 'health', 'point_of_interest', 'establishment']",Parbhani
6,Dhanorkar Hospital,"Doctor Lane, Bus Stand Rd, New Mondha, Parbhani, Maharashtra 431401, India",ChIJJ_5pd2IZ0DsR-x8f2HlMSns,19.2624807,76.7706833,"['hospital', 'health', 'point_of_interest', 'establishment']",Parbhani
7,Swati Criticare Icu Hospital,"Shivaji Nagar, Parbhani, Maharashtra 431401, India",ChIJnbhZFzMY0DsRaOhlJupqyIY,19.2594138,76.7815694,"['hospital', 'health', 'point_of_interest', 'establishment']",Parbhani
8,Navjeevan Hospital,"New Mondha, Parbhani, Maharashtra 431401, India",ChIJn1E_080Z0DsRXCu0JcUJNJU,19.2596725,76.77456029999999,"['hospital', 'health', 'point_of_interest', 'establishment']",Parbhani
9,Sahara Hospital,"Dargah Rd, Rahat Colony, Masoom Colony, Parbhani, Maharashtra 431401, India",ChIJS9gbRvoZ0DsR0ia0v23xqmM,19.2708632,76.7593433,"['hospital', 'health', 'point_of_interest', 'establishment']",Parbhani
10,Navandar Hospital,"Basmat Rd, Near Shree Swami Samarth Mandir, Shivaji Nagar, Parbhani, Maharashtra 431401, India",ChIJyzJmzzIY0DsRnD5DPKXHhWM,19.2610698,76.7804965,"['hospital', 'health', 'point_of_interest', 'establishment']",Parbhani
11,Kalani Hospital,"Near Club Station Rd Parbhani Maharashtra 431401 Republic of, 431401, India",ChIJHQl7O84Z0DsRrDks99ecDNs,19.2615765,76.7721572,"['hospital', 'health', 'point_of_interest', 'establishment']",Parbhani
12,Morya Hospital,"Parbhani - Nanded Rd, Vishnu Nagar, Shivaji Nagar, Parbhani, Maharashtra 431401, India",ChIJtQf2y8wZ0DsRhg987oWw67k,19.2589136,76.7795555,"['hospital', 'health', 'point_of_interest', 'establishment']",Parbhani
13,Sabu Hospital Parbhani,"Near Bus Stand, New Mondha, Parbhani, Maharashtra 431401, India",ChIJQ9K-8_cZ0DsRl4wEvxWLy1w,19.2597587,76.7718318,"['hospital', 'health', 'point_of_interest', 'establishment']",Parbhani
14,Aboli Hospital,"Shivaji Nagar, Parbhani, Maharashtra 431401, India",ChIJqwrzlDIY0DsRTi51Ne13iFY,19.2617651,76.7815188,"['hospital', 'health', 'point_of_interest', 'establishment']",Parbhani
15,"shewale hospital &nursing home,Advance laproscopy&infertility center","Prabhavati Nagar, Parbhani, Maharashtra 431401, India",ChIJvzoo6mEX0DsRTa2frvFs6QY,19.2743256,76.7612087,"['hospital', 'health', 'point_of_interest', 'establishment']",Parbhani
16,Khalikar Childrens Hospital,"B-128, Parbhani - Basmat Rd, behind RR Petrol Pump, Swapnapurti, Ramkrishna Nagar, Parbhani, Maharashtra 431401, India",ChIJC_T8fDYY0DsRl1TCn_dkVWo,19.2559856,76.784731,"['hospital', 'health', 'point_of_interest', 'establishment']",Parbhani
17,Deshmukh Hospital (Multi Specialty Hospital & Maternity Home),"75, State Highway 148, New Mondha, Parbhani, Maharashtra 431401, India",ChIJEyBjac4Z0DsRMVdSEsd56TE,19.2605744,76.7728465,"['hospital', 'health', 'point_of_interest', 'establishment']",Parbhani
18,"District Hospital, Parbhani","Subhash Rd, near Sharda Vidyalaya, Shastri Nagar, Parbhani, Maharashtra 431401, India",ChIJv_iG9tgZ0DsRObggiAkfM4M,19.2714119,76.7646413,"['hospital', 'health', 'point_of_interest', 'establishment']",Parbhani
19,Jethliya Hospital,"Shivaji Nagar, Parbhani, Maharashtra 431401, India",ChIJVVVVxcwZ0DsRpM1J-B6wnIc,19.2601073,76.78179899999999,"['hospital', 'health', 'point_of_interest', 'establishment']",Parbhani
20,Dr. Katneshwarkar Hospital,"New Mondha, Parbhani, Maharashtra 431401, India",ChIJ7UP5OcUZ0DsR8ajiFtWxGyM,19.2611755,76.7664504,"['hospital', 'health', 'point_of_interest', 'establishment']",Parbhani
21,Ankur Hospital,"Doctor Ln, near Ganesh Chavhan Hospital, New Mondha, Parbhani, Maharashtra 431401, India",ChIJd3AnYc4Z0DsRgzuL9QZXn4E,19.2598404,76.7729675,"['hospital', 'health', 'point_of_interest', 'establishment']",Parbhani
22,Manwatkar Hospital,"Gawane Road, New Mondha, Parbhani, Maharashtra 431401, India",ChIJcfU8d9AZ0DsRFWCT4X8q1ac,19.2641813,76.7685644,"['hospital', 'health', 'point_of_interest', 'establishment']",Parbhani
23,Surwase Hospital and Maternity Home,"National Highway 222, Khaja Colony, Prabhavati Nagar, Parbhani, Maharashtra 431401, India",ChIJB2SLDWEX0DsRsz-jxDjiGC4,19.276833,76.7607989,"['hospital', 'health', 'point_of_interest', 'establishment']",Parbhani
24,Deshpande Hospital,"Gandhi Park, Parbhani, Maharashtra 431401, India",ChIJofKSPdEZ0DsRtTWqd-7--qg,19.2668067,76.77214579999999,"['hospital', 'health', 'point_of_interest', 'establishment']",Parbhani
25,Giram Hospital Parbhani,"Dr Hedgewar Marg, Gandhi Park, Parbhani, Maharashtra 425412, India",ChIJT8lKy3YZ0DsRcep6VoWTywg,19.2609957,76.77666500000001,"['hospital', 'health', 'point_of_interest', 'establishment']",Parbhani
26,Akanksha Hospital,"Shastri Nagar, Parbhani, Maharashtra 431401, India",ChIJq0u2wNkZ0DsRAA0KLQIk7kc,19.2696181,76.7669188,"['hospital', 'health', 'point_of_interest', 'establishment']",Parbhani
27,Wagh Hospital,"Parbhani - Jintur Rd, Prabhavati Nagar, Parbhani, Maharashtra 431401, India",ChIJ00G4mGEX0DsRgzCcsKPeCrQ,19.2757349,76.7611491,"['hospital', 'health', 'point_of_interest', 'establishment']",Parbhani
28,Vyankatesh Hospital,"Jintur Rd, Prabhavati Nagar, Parbhani, Maharashtra 431401, India",ChIJs7G_PGcX0DsR3C9rid59BJ4,19.28007,76.7588186,"['hospital', 'health', 'point_of_interest', 'establishment']",Parbhani
29,Amrut Hospital,"Dhanvantari Nagar Doctor lane, Railway Station Rd, Parbhani, Maharashtra 431401, India",ChIJw40uWs4Z0DsRoPn14WS_4FM,19.2598876,76.7722467,"['hospital', 'health', 'point_of_interest', 'establishment']",Parbhani
30,Hayat Hospital,"Gavhane Rd, New Mondha, Parbhani, Maharashtra 431401, India",ChIJz3vld98Z0DsRBPZYA3DaRQI,19.2640497,76.7682016,"['hospital', 'health', 'point_of_interest', 'establishment']",Parbhani
31,WH Parbhani,"Shastri Nagar, Parbhani, Maharashtra 431401, India",ChIJP0SxVtgZ0DsRXCftNeAo4Bo,19.271086,76.7657266,"['hospital', 'health', 'point_of_interest', 'establishment']",Parbhani
32,"Vithai Hospital, Parbhani (Maternity Hospital)","Parli - Tapowan Rd, Shivaji Nagar, Parbhani, Maharashtra 431401, India",ChIJ9Y-phQ4Z0DsRVipRei2n1qU,19.2603934,76.78052029999999,"['hospital', 'health', 'point_of_interest', 'establishment']",Parbhani
33,Varad Hospital,"Vidya Nagar, Parbhani, Maharashtra 431401, India",ChIJp4uY_XwX0DsRAGn8Z7L__zw,19.276934,76.77065449999999,"['hospital', 'health', 'point_of_interest', 'establishment']",Parbhani
34,Wagh Hospital,"New Mondha, Parbhani, Maharashtra 431401, India",ChIJ8zcOSM4Z0DsRSdg3rw6v8Qk,19.2608438,76.771844,"['hospital', 'health', 'point_of_interest', 'establishment']",Parbhani
35,Dehraksha Hospital,"Jintur Rd, Near Ganpati Chowk, Prabhavati Nagar, Parbhani, Maharashtra 431401, India",ChIJW1yqq2EX0DsRHDEAcZv_ti8,19.2758162,76.76105009999999,"['hospital', 'health', 'point_of_interest', 'establishment']",Parbhani
36,Man Hospital,"Beside of Chirayu Hospital, Bus Stand Rd, near Hake Medical, Parbhani, Maharashtra 431401, India",ChIJm4grEdAZ0DsRD0Asg374HQY,19.2631215,76.769329,"['hospital', 'health', 'point_of_interest', 'establishment']",Parbhani
37,Tirupathi Chest Hospital,"Datta Nagar, Parbhani, NH-222, Pathardi Majalgaon Pathri Manwath Parbhani Basmath Road, Parbhani, Parbhani, Maharashtra 431401, India",ChIJ8RNznmEX0DsRuAeB6C0SuHs,19.2760715,76.7614071,"['hospital', 'health', 'point_of_interest', 'establishment']",Parbhani
38,Wankhede Eye Hospital,"Lokamanya Nagar, Parbhani, Maharashtra 431401, India",ChIJ3yze9S0Y0DsRsubKP-fI1ng,19.2633796,76.7844933,"['hospital', 'health', 'point_of_interest', 'establishment']",Parbhani
39,Subhedar Hospital,"Kranti Chowk,, Gandhi Park, Parbhani, Maharashtra 431401, India",ChIJi5n8PtEZ0DsRkbW7btoerVc,19.2669947,76.7724046,"['hospital', 'health', 'point_of_interest', 'establishment']",Parbhani
40,More Hospital,"near Bus Stand, Dhanwantari Nagar, New Mondha, Parbhani, Maharashtra 431401, India",ChIJjyDDVs4Z0DsRfW9rlCv94_k,19.2597677,76.7716755,"['doctor', 'health', 'point_of_interest', 'establishment']",Parbhani
41,Patil Hospital Gynaec & Paediatric,"Old Pedgaon Road, Prabhavati Nagar, Parbhani, Maharashtra 431401, India",ChIJSQqMy2EX0DsRkoAYvSl6bOI,19.2743433,76.7599209,"['hospital', 'health', 'point_of_interest', 'establishment']",Parbhani
42,PRASAD HOSPITAL,"Maharani Laxmi Bai Road, Gavhane Chowk, Maharashtra 431401, India",ChIJ6f1_FdAZ0DsRwQjpopDamuI,19.2626072,76.7691433,"['hospital', 'health', 'point_of_interest', 'establishment']",Parbhani
43,Masoom Hospital,"Vakil Colony, Parbhani, Maharashtra 431401, India",ChIJ_1XwutIZ0DsR0UvxFl4gwSM,19.2663013,76.776847,"['hospital', 'health', 'point_of_interest', 'establishment']",Parbhani
44,Dr. Kulkarni Hospital,"B-128, Parbhani - Basmat Rd, Vivek Nagar, Acharya Nagar, Parbhani, Maharashtra 431401, India",ChIJ668F9zcY0DsRrRFssCOqbgA,19.2529872,76.79114419999999,"['hospital', 'health', 'point_of_interest', 'establishment']",Parbhani
45,Dr. Wakure Hospital,"Vikas Nagar, Parbhani, Maharashtra 431401, India",ChIJA5VTrzAY0DsRGWcSCOjD7Kw,19.2586595,76.7909343,"['hospital', 'health', 'point_of_interest', 'establishment']",Parbhani
46,Loya Eye Hospital,"Shivaji Nagar, Parbhani, Maharashtra 431401, India",ChIJU8SN2zIY0DsRv910lAAs490,19.2605804,76.7808616,"['hospital', 'health', 'point_of_interest', 'establishment']",Parbhani
47,Mundhe Patil Surgical Hospital,"New doctor Lane, Dr Hedgewar Marg, Bus Stand Rd, Parbhani, Maharashtra 431401, India",ChIJgVWNLw4Z0DsRKkJ2IIJiAvE,19.2610802,76.771434,"['hospital', 'health', 'point_of_interest', 'establishment']",Parbhani
48,Vasundhara Hospital and IVF Centre,"Dr Hedgewar Rd, New Mondha, Parbhani, Maharashtra 431401, India",ChIJfxEnoDYY0DsRRPFeyCKpPsk,19.2600636,76.772646,"['hospital', 'health', 'point_of_interest', 'establishment']",Parbhani
49,Ahuja Hospital,"Basmat Rd, Shivaji Nagar, Parbhani, Maharashtra 431401, India",ChIJA8xPHDMY0DsR_87RmmPv76w,19.2616537,76.7819591,"['hospital', 'health', 'point_of_interest', 'establishment']",Parbhani
50,Astha Orthopedic Hospital,"Station Roadd, New Mondha, Parbhani, Maharashtra 431401, India",ChIJM5_p9oQZ0DsR2kLlXabhCZg,19.2605776,76.7728619,"['hospital', 'health', 'point_of_interest', 'establishment']",Parbhani
51,Chilgar Hospital,"New Mondha, Parbhani, Maharashtra 431401, India",ChIJVxTpSc4Z0DsR-VN6bOSTryc,19.2608235,76.7715973,"['hospital', 'health', 'point_of_interest', 'establishment']",Parbhani
52,Yashoda Hospital,"New Mondha, Parbhani, Maharashtra 431401, India",ChIJ4-bdE9AZ0DsRVC-7QOfkUdU,19.2632851,76.76926089999999,"['hospital', 'health', 'point_of_interest', 'establishment']",Parbhani
53,Kardekar Hospital & Vishwaprayag Neonatal care,"Bus stand to, Railway Station Rd, Parbhani, Maharashtra 431401, India",ChIJd3Gn-c4Z0DsRP9RuEILFfSQ,19.2592207,76.7717043,"['hospital', 'health', 'point_of_interest', 'establishment']",Parbhani
54,Tejas Hospital,"B-128, Parbhani - Basmat Rd, Yeldarkar Colony, Anand Nagar, Parbhani, Maharashtra 431401, India",ChIJX8w6NzgY0DsROiAmGTylYMs,19.2545334,76.79249,"['hospital', 'health', 'point_of_interest', 'establishment']",Parbhani
55,Rahat hospital,"Dargah Rd, Qurbaan Ali Shah Nagar, Parbhani, Maharashtra 431401, India",ChIJIxhYut8Z0DsRGDb7TWp2qsU,19.2734059,76.7508953,"['hospital', 'health', 'point_of_interest', 'establishment']",Parbhani
56,Yamuna Surgical Hospital,"Prabhavati Nagar, Parbhani, Maharashtra 431401, India",ChIJV4wn6mEX0DsRYFOSfsvuZUQ,19.2743348,76.76119360000001,"['hospital', 'health', 'point_of_interest', 'establishment']",Parbhani
57,Somani Hospital,"hedgewar marg, India",ChIJDccTN84Z0DsRq5AxFaz3Mys,19.2611413,76.7717763,"['hospital', 'health', 'point_of_interest', 'establishment']",Parbhani
58,"Haniom Homeo Clinic, Darga Road, Parbhani","Rahat Colony, Masoom Colony, Parbhani, Maharashtra 431401, India",ChIJo01hVd4Z0DsRO1v_jCJnN80,19.2700984,76.7596097,"['hospital', 'health', 'point_of_interest', 'establishment']",Parbhani
59,Tejas Hospital,"Shivaji Nagar, Parbhani, Maharashtra 431401, India",ChIJE_tyfzIY0DsRVX0guH5kZuA,19.2630891,76.78291790000002,"['hospital', 'health', 'point_of_interest', 'establishment']",Parbhani
