,place_name,address,place_id,latitude,longitude,types,city
0,Bharati Hospital Sangli,"Sangli Miraj Road, Vijaynagar - Kupwad Rd, Sangli, Maharashtra 416414, India",ChIJqYSEx18iwTsRSXMr5Gpb5wI,16.8415487,74.6182739,"['hospital', 'health', 'point_of_interest', 'establishment']",Sangli-Miraj-Kupwad
1,"Wanless mission hospital, Miraj","Gandhi, Chowk, Miraj - Malgaon Main Rd, near mission hospital, Miraj, Maharashtra 416410, India",ChIJW4SciLEjwTsRdmq23-o34Qo,16.8320924,74.64542589999999,"['hospital', 'health', 'point_of_interest', 'establishment']",Sangli-Miraj-Kupwad
2,"District General Hospital, Sangli","South Shivaji Nagar, Nishant Colony, Sangli, Maharashtra 416416, India",ChIJO1TRpGgYwTsR7sBFgc5ob_Y,16.8525548,74.5747501,"['hospital', 'health', 'point_of_interest', 'establishment']",Sangli-Miraj-Kupwad
3,"Shraddha Surgical And Accident Hospital, Sangli (Dr.G.S.Kulkarni)","Civil Hospital Chowk, Bus Stand, Dr Ambedkar Rd, near Sangli, Ganesh Nagar, Patrakar Nagar, Sangli, Maharashtra 416416, India",ChIJDcCt7WgYwTsROLHn2fsz9yA,16.8533775,74.5734916,"['hospital', 'doctor', 'health', 'point_of_interest', 'establishment']",Sangli-Miraj-Kupwad
4,"Sushil Maternity Hospital, Sangli","Sangli - Miraj Rd, Neminathnagar, Vishrambag, Sangli, Maharashtra 416415, India",ChIJuZzc8ngYwTsRKn1FnrVQjKI,16.849726,74.5916312,"['hospital', 'health', 'point_of_interest', 'establishment']",Sangli-Miraj-Kupwad
5,Maa Hospital,"Aman Nagar, Shivaji Nagar, Sangli Miraj Kupwad, Maharashtra 416410, India",ChIJwYyoz7UjwTsRsTLkRRVhZoQ,16.8251031,74.6449971,"['hospital', 'health', 'point_of_interest', 'establishment']",Sangli-Miraj-Kupwad
6,Mujawar Hospital,"New Vijay Nagar, Sangli Miraj Kupwad, Maharashtra 416406, India",ChIJnwST2qsiwTsRDAFJPcx4t6U,16.8828712,74.5969353,"['hospital', 'health', 'point_of_interest', 'establishment']",Sangli-Miraj-Kupwad
7,Vivekanand Hospital,"Banmoli Rd, Bajarang Nagar, MIDC Kupwad, Sangli Miraj Kupwad, Maharashtra 416436, India",ChIJ2wEQR8QiwTsR28-tTXRzQdo,16.8748136,74.6240651,"['hospital', 'health', 'point_of_interest', 'establishment']",Sangli-Miraj-Kupwad
8,Br G D Patil Memorial Hospital,"Yashwant Housing Society, A N Gaikwad Road, Off Sangli Miraj Road, Near Sundarnagar, Miraj, Sangli Miraj Kupwad, Maharashtra 416410, India",ChIJaZn-V00iwTsRGSOhSMEVWyg,16.8338437,74.63922869999999,"['hospital', 'doctor', 'health', 'point_of_interest', 'establishment']",Sangli-Miraj-Kupwad
9,Manavarahat charitable Trust Civil Hospital Chowk Sangli,"Overseers Colony, Khanbhag, Sangli Miraj Kupwad, Maharashtra 416416, India",ChIJ-QhgNiUZwTsRVFyNDBzu1oU,16.8538795,74.5742264,"['hospital', 'health', 'point_of_interest', 'establishment']",Sangli-Miraj-Kupwad
10,Shanti Saroj Hospital,"left 2nd return from sidhi vinayak hospital, Sangli - Miraj Rd, Sangli, Maharashtra, India",ChIJMRecHmgjwTsREvD-1rnvPr8,16.8435603,74.6095648,"['hospital', 'health', 'point_of_interest', 'establishment']",Sangli-Miraj-Kupwad
11,Shri Siddhivinayak Ganpati Cancer Hospital,"Sangli - Miraj Rd, Shivaji Nagar, Miraj, Maharashtra 416410, India",ChIJW_jyC1IiwTsReilYmdusnr8,16.8338904,74.6354323,"['hospital', 'health', 'point_of_interest', 'establishment']",Sangli-Miraj-Kupwad
12,Samarth Neuro Hospital Miraj,"Kalyani Heights, Sangli - Miraj Rd, opposite Siddhivinayak Hero showroom, Parshwanath Nagar, Miraj, Maharashtra 416410, India",ChIJ25zGs14iwTsR8KZ_hIycCrw,16.8390892,74.6217143,"['hospital', 'health', 'point_of_interest', 'establishment']",Sangli-Miraj-Kupwad
13,Nitave Hospital,"S.P. Office, Sangli - Miraj Rd, opposite D, Gandhi Nagar, Vishrambag, Sangli, Maharashtra 416415, India",ChIJvTMJL4IiwTsR_TDJQOFTvhg,16.8483681,74.59530079999999,"['hospital', 'health', 'point_of_interest', 'establishment']",Sangli-Miraj-Kupwad
14,Dr.Sujata Khot Hospital,"Sangli Miraj Kupwad, Maharashtra 416414, India",ChIJfwACHeoiwTsRR18XXUT9H9c,16.8661218,74.6222926,"['hospital', 'health', 'point_of_interest', 'establishment']",Sangli-Miraj-Kupwad
15,Shraddha Hospital,"Vantanure Corner, Sangli - Miraj Rd, Chandanwadi, Sangli Miraj Kupwad, Maharashtra 416410, India",ChIJxXJs8PkjwTsR0Rcha1gy_8o,16.8325016,74.64132219999999,"['hospital', 'health', 'point_of_interest', 'establishment']",Sangli-Miraj-Kupwad
16,"Shwas Lifeline Centre, Sangli","District Hospital Rd, Near Garpir Chowk, South Shivaji Nagar, Indira Nagar, Sangli, Maharashtra 416416, India",ChIJa3v_9WYYwTsRSh-M0NZqlwA,16.8488865,74.5738853,"['hospital', 'doctor', 'health', 'point_of_interest', 'establishment']",Sangli-Miraj-Kupwad
17,Vishwarup Clinic,"Kupwad MIDC, Main Road, Sangli Miraj Kupwad, Maharashtra 416425, India",ChIJ49E2dcAiwTsRY9lgvu1jNWI,16.8689625,74.61729989999999,"['hospital', 'health', 'point_of_interest', 'establishment']",Sangli-Miraj-Kupwad
18,Dr Mali Clinic,"Kupwad MIDC Rd, Ulhas Nagar, Sangli Miraj Kupwad, Maharashtra 416436, India",ChIJLZDu678iwTsRPOJlRAESmQM,16.8676639,74.6154396,"['hospital', 'health', 'point_of_interest', 'establishment']",Sangli-Miraj-Kupwad
19,Dr. Patwardhan Hospital,"Sangli - Miraj Rd, Opposite Domino's Pizza Miraj 416410, Chandanwadi, Miraj, Maharashtra 416410, India",ChIJtS8pwLIjwTsRrvpxp91aigQ,16.8324393,74.64148639999999,"['hospital', 'health', 'point_of_interest', 'establishment']",Sangli-Miraj-Kupwad
20,KULLOLI HOSPITAL,"Vishrambag, Sangli, Maharashtra 416416, India",ChIJby6HDIMiwTsRlfE1rKKZeRM,16.8511292,74.597411,"['hospital', 'health', 'point_of_interest', 'establishment']",Sangli-Miraj-Kupwad
21,Dr. G. S. Bharati Hospital,"416410, Aman Nagar, Shivaji Nagar, Sangli Miraj Kupwad, Maharashtra 416410, India",ChIJSbmCX7QjwTsRll4dfH6UcEQ,16.8267896,74.64301259999999,"['hospital', 'health', 'point_of_interest', 'establishment']",Sangli-Miraj-Kupwad
22,Aditya Rainbow Children's Hospital,"Pushparaj chowk, Sangli - Miraj Rd, next to DCC Bank, Sangli, 416416, India",ChIJS4u55W8YwTsRqjNAKPB7MeE,16.8533163,74.5808766,"['hospital', 'health', 'point_of_interest', 'establishment']",Sangli-Miraj-Kupwad
23,Sanjeevani Multicare Hospital,"Sangli Miraj Kupwad, Maharashtra 416414, India",ChIJg3VF97gjwTsRr3KpgeNDDwM,16.868901,74.6169566,"['hospital', 'health', 'point_of_interest', 'establishment']",Sangli-Miraj-Kupwad
24,Birnale Hospitals,"1677, Dr Ambedkar Rd, South Shivaji Nagar, Patrakar Nagar, Sangli, Maharashtra 416416, India",ChIJQbB_8mgYwTsRPgwexX4mRxc,16.853402,74.573414,"['hospital', 'health', 'point_of_interest', 'establishment']",Sangli-Miraj-Kupwad
25,Dr.Sujat Khot And Dr.Mahesh Khot (Khot Hospital),"Old Miraj Rd, Sangli Miraj Kupwad, Maharashtra 416414, India",ChIJd65ft-4iwTsRGvpPLcZChdY,16.8606523,74.623656,"['hospital', 'health', 'point_of_interest', 'establishment']",Sangli-Miraj-Kupwad
26,Aditya Hospital- Laser treatment,"Sangli - Miraj Rd, Vishrambag, Sangli, Maharashtra 416415, India",ChIJIV_g1YMiwTsR-oczkW6bQy0,16.8478887,74.596476,"['hospital', 'doctor', 'health', 'point_of_interest', 'establishment']",Sangli-Miraj-Kupwad
27,Bhomaj Hospital,"Near Patwardhan Hospital Sangli, Miraj Rd, Miraj, Maharashtra 416410, India",ChIJ6U3Rv7IjwTsRYGHn8dITS1Y,16.832965,74.6411237,"['hospital', 'health', 'point_of_interest', 'establishment']",Sangli-Miraj-Kupwad
28,Sarvamangal Hospital,"Vantmure Corner, Sangli - Miraj Rd, Shivaji Nagar, Miraj, Maharashtra 416410, India",ChIJc7SetrIjwTsRtpz2BbyiBpA,16.8322143,74.6402828,"['doctor', 'health', 'point_of_interest', 'establishment']",Sangli-Miraj-Kupwad
29,Samvedana Neurological Hospital,"Sangli Miraj Road, Jai Hind Colony, Vishrambag, Sangli, Maharashtra 416416, India",ChIJp5wImoMiwTsRQSddScbWB-g,16.8500883,74.5979981,"['hospital', 'health', 'point_of_interest', 'establishment']",Sangli-Miraj-Kupwad
30,Orrchid the fertility clinic (hospital) Miraj-Sangli,"Haripriyanagar, Vishrambag, Sangli, Maharashtra 416415, India",ChIJwfHUSJ0jwTsROiBJPgLSB-k,16.844863,74.5982576,"['hospital', 'health', 'point_of_interest', 'establishment']",Sangli-Miraj-Kupwad
31,"Dr. Rawal Maternity And Surgical Hospital, Hospital","Dr. Rawal Maternity And Surgical Hospital, Shani Mandir Road, Mangalwar Peth, Sangli Miraj Kupwad, Maharashtra 416410, India",ChIJpbuaK7cjwTsRMltzgAi9t6o,16.8286429,74.6491988,"['hospital', 'health', 'point_of_interest', 'establishment']",Sangli-Miraj-Kupwad
32,Sanjeevani Hospital,"Gandhi Nagar, Vishrambag, Sangli, Maharashtra 416415, India",ChIJDfL-Tn8YwTsRCFlA6qn7R6Q,16.8469594,74.5922609,"['hospital', 'health', 'point_of_interest', 'establishment']",Sangli-Miraj-Kupwad
33,Ushahkal Nursing Home Sangli,"Miraj Road, opp. Zilla Parishad, Sangli, Maharashtra 416416, India",ChIJgYaupW8YwTsRJpaZmwdjnr0,16.8542037,74.5790899,"['hospital', 'health', 'point_of_interest', 'establishment']",Sangli-Miraj-Kupwad
34,Jadhav Neurosurgical Care Center,"Arihant Galaxy, C.S.No.1599, Opposite, District Hospital Rd, Ganesh Nagar, Sangli, Maharashtra 416416, India",ChIJH01qPmYYwTsRXDNLEtr5A48,16.851185,74.5739972,"['hospital', 'health', 'point_of_interest', 'establishment']",Sangli-Miraj-Kupwad
35,"District General Hospital, Sangli","District Hospital Rd, Kothavale Galli, Khanbhag, Sangli, Maharashtra 416416, India",ChIJ4br4RmgYwTsRwRtWg6Ax2l8,16.8525193,74.5748131,"['hospital', 'health', 'point_of_interest', 'establishment']",Sangli-Miraj-Kupwad
36,Railway Hospital,"Maniknagar Bypass, Samastanagar, Miraj, Maharashtra 416410, India",ChIJXUL0OzMiwTsRqKSHda015_4,16.8147991,74.6389087,"['hospital', 'health', 'point_of_interest', 'establishment']",Sangli-Miraj-Kupwad
37,Divekar Hospital,"Panchamukhi Maruti Rd, Khanbhag, Sangli, Maharashtra 416416, India",ChIJu0A170MYwTsRAe7Qq0Ykfog,16.856104,74.5648969,"['hospital', 'health', 'point_of_interest', 'establishment']",Sangli-Miraj-Kupwad
38,"Janseva Arogya Kendra, Guruwarpeth","173, Budhwar Peth, Madhavnagar, Sangli Miraj Kupwad, Maharashtra 416406, India",ChIJHZVIofkXwTsRt_Ku53bzrqk,16.8910187,74.584115,"['hospital', 'health', 'point_of_interest', 'establishment']",Sangli-Miraj-Kupwad
39,"Abhijit joshi Hospital ,Vishrambag Sangli","South Shivaji Nagar, Nishant Colony, Sangli, Maharashtra 416416, India",ChIJB9yIsisZwTsRAjzlBPyQpuw,16.8523973,74.5814773,"['hospital', 'health', 'point_of_interest', 'establishment']",Sangli-Miraj-Kupwad
40,Mehta Hospital,"66, Sangli College Rd, North Shivaji Nagar, Gokul Nagar, Sangli, Maharashtra 416416, India",ChIJiXgUn3IYwTsRJjXWwZRC4Jw,16.8624014,74.5811186,"['hospital', 'health', 'point_of_interest', 'establishment']",Sangli-Miraj-Kupwad
41,Padmabharti Hospital,"Sangli - Miraj Rd, Vishrambag, Sangli, Maharashtra 416415, India",ChIJX3P1z4MiwTsRCF2cF0ouXQk,16.8486313,74.5968474,"['hospital', 'health', 'point_of_interest', 'establishment']",Sangli-Miraj-Kupwad
42,Vishrambag Hospital,"12, Saraswati Nagar, Near DSP Office (Police Head Quarter, Saraswati Nagar, Vishrambag, Sangli, Maharashtra 416415, India",ChIJ7djm9HgYwTsRL3gAh-z6RVA,16.8512476,74.592912,"['hospital', 'health', 'point_of_interest', 'establishment']",Sangli-Miraj-Kupwad
43,GAIKWAD MATERNITY AND SURGICAL HOSPITAL,"Opp sangli civil hospital,ganeshnagar., District Hospital Rd, Ganesh Nagar, Patrakar Nagar, Sangli, Maharashtra 416416, India",ChIJi5CtJGYYwTsRXrTUKzzvolw,16.8511026,74.5737469,"['hospital', 'health', 'point_of_interest', 'establishment']",Sangli-Miraj-Kupwad
44,Mamta Nursing Home Dr. Shainaz Sadiq Syed,"Subashnnagar,, Miraj - Malgaon Main Rd, Sangli Miraj Kupwad, Maharashtra 416410, India",ChIJ3Zc6GZsjwTsRtB_kZo4-JN0,16.8396979,74.67350530000002,"['hospital', 'health', 'point_of_interest', 'establishment']",Sangli-Miraj-Kupwad
45,Date Hospital,"Civil Hospital Chowk, Maharashtra 416416, India",ChIJseDkzGgYwTsRQlzXmC7h_Ks,16.8541285,74.5753512,"['hospital', 'health', 'point_of_interest', 'establishment']",Sangli-Miraj-Kupwad
46,palkar hospital,"Pandharpur Wal, Miraj, Maharashtra 416410, India",ChIJ0ey4tsojwTsRvFZUqOqAGNg,16.821324,74.6404778,"['hospital', 'health', 'point_of_interest', 'establishment']",Sangli-Miraj-Kupwad
47,Vivekanand Hospital Bamnoli,"Vivekanand Hospital, Banmoli Rd, Bajarang Nagar, MIDC Kupwad, Sangli, Maharashtra 416436, India",ChIJEzj3yMUiwTsRx4egX-9CHIo,16.8758139,74.6234432,"['hospital', 'health', 'point_of_interest', 'establishment']",Sangli-Miraj-Kupwad
48,Javadekar Hospital,"Vishrambag, Sangli, Maharashtra 416415, India",ChIJ0Zf_Y4EiwTsRf9BGwoOsB6Y,16.8474086,74.5974626,"['hospital', 'health', 'point_of_interest', 'establishment']",Sangli-Miraj-Kupwad
49,Hira Hospital,"Shivajinagar South, Near Mali Theater, Sangli, Maharashtra 416416, India",ChIJ8VvAhkMYwTsRItRWDmkVWOo,16.85438,74.564171,"['hospital', 'health', 'point_of_interest', 'establishment']",Sangli-Miraj-Kupwad
50,Somashekhar Hospital,"Vijay Colony, Shivaji Nagar, Miraj, Maharashtra 416410, India",ChIJw6EygbUjwTsRcwDloVTHGsU,16.822901,74.643326,"['hospital', 'health', 'point_of_interest', 'establishment']",Sangli-Miraj-Kupwad
51,Bharti Vidyapeeth Deemed University Medical College And Hospital Sangli,"26, Sangli - Miraj Rd, Wanalesawadi, Vijaynagar, Sangli, Maharashtra 416410, India",ChIJtfivEF8iwTsRhADsVfpRaJE,16.841957,74.61988699999999,"['hospital', 'university', 'health', 'point_of_interest', 'establishment']",Sangli-Miraj-Kupwad
52,"Unique Diabetes,Thyroid and Hormone Care Centre","2nd Lane Ganesh Nagar, opposite District Hospital Road, South Shivaji Nagar, Sangli Miraj Kupwad, Maharashtra 416416, India",ChIJZR-VmmgYwTsR3PwMqNej1dU,16.8524229,74.5734816,"['hospital', 'health', 'point_of_interest', 'establishment']",Sangli-Miraj-Kupwad
53,Paramshetti Hospital,"Shivaji Nagar, Miraj, Maharashtra 416410, India",ChIJ5fT9Ok0iwTsRp63MdGs1GxA,16.8317528,74.6393406,"['hospital', 'health', 'point_of_interest', 'establishment']",Sangli-Miraj-Kupwad
54,Jadhav Hospital,"Sangli - Salmalgewadi Road, Chandanwadi, Miraj, Maharashtra 416410, India",ChIJO_xn7bIjwTsRC4A01J5CB1M,16.8325441,74.6421914,"['hospital', 'health', 'point_of_interest', 'establishment']",Sangli-Miraj-Kupwad
55,Parvati Hospital,"Old, Vijaynagar - Kupwad Rd, Kumar Hasure Nagar, Sangli, Maharashtra 416415, India",ChIJrfcZno0iwTsR3-sZwr8eCmY,16.8556866,74.6127759,"['hospital', 'health', 'point_of_interest', 'establishment']",Sangli-Miraj-Kupwad
56,Galaxy Hospital,"Manah Swasthya Clinic Rd, Patrakar Nagar, Sangli, Maharashtra 416416, India",ChIJ1QIhRUMYwTsRNyBqI9UQ130,16.8519985,74.5647132,"['hospital', 'health', 'point_of_interest', 'establishment']",Sangli-Miraj-Kupwad
57,Kulkarni Hospital,"E26, Kupwad, MIDC Kupwad, Sangli Miraj Kupwad, Maharashtra 416436, India",ChIJe7nxmNEiwTsRXJmcPKcSJhI,16.8831513,74.6299403,"['hospital', 'health', 'point_of_interest', 'establishment']",Sangli-Miraj-Kupwad
58,Nirmal Hospital and De Addiction Centre Miraj,"Station Rd, Shivaji Nagar, Miraj, Maharashtra 416410, India",ChIJCWBTu8ojwTsRcRuZQyJVa48,16.8218339,74.6409906,"['hospital', 'doctor', 'health', 'point_of_interest', 'establishment']",Sangli-Miraj-Kupwad
59,Sushil Hospital - Dr.Subhash Patil,"C.S.S. 13330, Abhiyanta Bhavan, Sangli - Miraj Rd, Gandhi Nagar, Nishant Colony, Sangli, Maharashtra 416414, India",ChIJS5PL8ngYwTsRbkRP3Sh-UE0,16.8496886,74.591656,"['hospital', 'health', 'point_of_interest', 'establishment']",Sangli-Miraj-Kupwad
