,place_name,address,place_id,latitude,longitude,types,city
0,City Hospital,"B’wings,City Pride Building VIP Road, near Pankha Bawadi, Old Employment Chowk, Solapur, Maharashtra 413001, India",ChIJdXKiTnbaxTsR4gqyCJAx7lM,17.6621912,75.9017504,"['hospital', 'health', 'point_of_interest', 'establishment']",Solapur
1,Ambika Hospital,"Railway Line, opposite S T Stand, Songla, Jawaharlal Housing Society, Murarji Peth, Solapur, Maharashtra 413001, India",ChIJsUn3hnrQxTsRq8mSXIEQ650,17.6599188,75.9063906,"['hospital', 'health', 'point_of_interest', 'establishment']",Solapur
2,Basaveshwar Hospital,"207,Ravivar Peth,Rajendra Chowk, Maharashtra 413005, India",ChIJA1fv8GHaxTsRsSsgpzbtVik,17.6773615,75.9177214,"['hospital', 'health', 'point_of_interest', 'establishment']",Solapur
3,CNS Hospital,"188/2/2 Degaon Road Near Reliance Market, Laxmi Peth, Damani Nagar, Solapur, Maharashtra 413001, India",ChIJxZFQ9IvQxTsRkxgUTSdgblk,17.6661137,75.87685929999999,"['hospital', 'health', 'point_of_interest', 'establishment']",Solapur
4,Unique Hospital,"392/94, Main Road, South Kasba, Budhavar Peth, Solapur, Maharashtra 413001, India",ChIJfU1SWYfaxTsRlWWhQI78rLY,17.6776684,75.9065232,"['hospital', 'health', 'point_of_interest', 'establishment']",Solapur
5,Solapur Care Multispeciality Hospital,"Patil Nagar, Vijapur Rd, Saiful, Solapur, Maharashtra, India",ChIJvwbSQFTXxTsRufXKOXhvIt4,17.6251314,75.89602579999999,"['hospital', 'health', 'point_of_interest', 'establishment']",Solapur
6,E S I Hospital,"Hotgi Rd, near Idaga Ground, Ratandeep Housing Society, Solapur, Maharashtra 413003, India",ChIJ_____7TYxTsRgsGYBRiEt64,17.6496912,75.91097599999999,"['hospital', 'health', 'point_of_interest', 'establishment']",Solapur
7,Solapur Cancer Center,"near Gangamai Hospital, Ramwadi, Solapur, Maharashtra 413001, India",ChIJn-R5iXbaxTsRS-CF1g2KhPQ,17.6566458,75.8966325,"['hospital', 'health', 'point_of_interest', 'establishment']",Solapur
8,Markandeya Rughnalaya,"Final Plot No. 19, Markandeya Rugnalaya Rd, New Paccha peth, Sakhar Peth, Solapur, Maharashtra 413005, India",ChIJqzP00mbaxTsR86h8SPqFSOs,17.67234,75.919614,"['hospital', 'health', 'point_of_interest', 'establishment']",Solapur
9,Ramkrishna Hospital,"162/20 A, Railway Lines, Church Street, Near Shantisagar Mangal Karyalay, Solapur, Maharashtra 413001, India",ChIJ_2aQo3faxTsRi7gcqeywnAQ,17.663748,75.90228820000002,"['hospital', 'health', 'point_of_interest', 'establishment']",Solapur
10,Reliance Hospital - Solapur,"Plot No 1, Gut 659/3 Village Kumbharli Taluka: South, Solapur, Maharashtra 413006, India",ChIJ05paH7vbxTsRtkGReeGeZYc,17.6682089,75.9614471,"['hospital', 'health', 'point_of_interest', 'establishment']",Solapur
11,Yashodhara Superspeciality Hospital,"Yashodhara Superspecility Hospital, Sidheshwar Peth, Solapur, Maharashtra 413001, India",ChIJhSUtbXvaxTsRpzASeHYXZlc,17.6704274,75.9095135,"['hospital', 'health', 'point_of_interest', 'establishment']",Solapur
12,Kumthekar General Hospital,"Near Lokpriya Hotel, opp. Banthnal Math, Jule, Solapur, Maharashtra 413004, India",ChIJ5QPjXoraxTsRBOhQC2vxsnA,17.631859,75.908737,"['hospital', 'health', 'point_of_interest', 'establishment']",Solapur
13,Siddeshwar Multispeciality Hospital,"Mahesh Nagar, Solapur, Maharashtra 413002, India",ChIJO2ndzH7QxTsRE-E9-9TkqpQ,17.682308,75.8961514,"['hospital', 'health', 'point_of_interest', 'establishment']",Solapur
14,Sunrise Hospital,"Railway Lines Rd, Old Employment Chowk, Sidheshwar Peth, Solapur, Maharashtra 413002, India",ChIJH93j-nfaxTsRsalVpEYxjck,17.664719,75.9004282,"['hospital', 'health', 'point_of_interest', 'establishment']",Solapur
15,Mangoli Hospital,"datta chowk, 608 B, South Kasaba, South Kaaba, Solapur, Maharashtra 413005, India",ChIJJ-3CHX7axTsR_JxQ-VnzAe4,17.6770906,75.9046544,"['hospital', 'health', 'point_of_interest', 'establishment']",Solapur
16,Chitale Clinic Pvt Ltd,"165 D Railway Lines, Rupa Bhavani Rd, Solapur, Maharashtra 413002, India",ChIJ72G2T3HaxTsRfBZwnbPkqTo,17.6609031,75.9062053,"['hospital', 'health', 'point_of_interest', 'establishment']",Solapur
17,Gunjotikar Nursing Home,"78/81 Bara Imam Chowk, Somwar Peth, Solapur, Maharashtra 413002, India",ChIJ3QDHJn3axTsRTk3XhaZF-hw,17.6760772,75.91172639999999,"['hospital', 'health', 'point_of_interest', 'establishment']",Solapur
18,Monarch Hospital,"Vishal Nagar, Jule, Solapur, Maharashtra 413004, India",ChIJVQBN_XPaxTsRj4GHb1MaSiU,17.6354913,75.90452789999999,"['hospital', 'health', 'point_of_interest', 'establishment']",Solapur
19,Raghoji ENT & Maternity Hospital,"588, Shakar Path, near Markandeya chowk, Bhadravathi Peth, Solapur, Maharashtra 413002, India",ChIJq97afmHaxTsRkDc6iNE0C6E,17.6739393,75.9165593,"['hospital', 'health', 'point_of_interest', 'establishment']",Solapur
20,Central Multispeciality Hospital,"Guruwar Peth, Solapur, Maharashtra 413002, India",ChIJzawAAYjaxTsRzuYia2KDLZA,17.6778971,75.9116871,"['hospital', 'health', 'point_of_interest', 'establishment']",Solapur
21,BINIT Hospital,"111, near Saat Rasta, Modi Khana, Solapur, 413001, India",ChIJiY_yoXbaxTsRSsYEVD-l3mI,17.658294,75.90404509999999,"['hospital', 'health', 'point_of_interest', 'establishment']",Solapur
22,Mahila Hospital,"Sainath Nagar, Solapur, Maharashtra 413007, India",ChIJ8RfFuBHaxTsRkOzlewbmzAg,17.6470279,75.9130651,"['hospital', 'health', 'point_of_interest', 'establishment']",Solapur
23,Life Line Hospital & Research Center Multi Speciality Hospital,"Hyderabad Bijapur Bypass Road, Block No 3 Mahavir Chowk, Maharashtra 413007, India",ChIJU52uoA3axTsRR25vPiYbIC8,17.6514624,75.90956039999999,"['hospital', 'health', 'point_of_interest', 'establishment']",Solapur
24,Shree Sidheshwar Hospital Solapur,"B-wing Basement City Pride Bulding, Employment Chowk, Near Panka Bhawali, Employment Chowk, Solapur, Maharashtra 413001, India",ChIJ5QPjXoraxTsR0-lt1adCCjE,17.6730444,75.90712719999999,"['hospital', 'health', 'point_of_interest', 'establishment']",Solapur
25,Ashwini Sahakari Rugnalaya,"Survey No. 7107/1, Plot No. 180, North Sadar Bazaar Road North, S Sadar Bazar, Solapur, Maharashtra 413003, India",ChIJlYXaeXHaxTsR3XOpXcQ4nBI,17.6607757,75.9082616,"['hospital', 'health', 'point_of_interest', 'establishment']",Solapur
26,Dr.Chidgupkar Hospital Pvt. Ltd,"Budhavar Peth, Solapur, Maharashtra, India",ChIJefa-eYLaxTsR0AmLamVQiFY,17.6849353,75.9001277,"['hospital', 'health', 'point_of_interest', 'establishment']",Solapur
27,Niramay Hospital South Sadar Bazar Solapur,"100, Murarji Peth, Jawaharlal Housing Society, Keshav Nagra, Solapur, Maharashtra 413003, India",ChIJXXpuW3LaxTsRKvVyiZzW8Zw,17.6579116,75.90960199999999,"['hospital', 'health', 'point_of_interest', 'establishment']",Solapur
28,Suman Speciality Hospital,"Sidheshwar Peth, Solapur, Maharashtra 413001, India",ChIJseBIqHraxTsR9eNcsYHNgNA,17.6662252,75.91080389999999,"['hospital', 'health', 'point_of_interest', 'establishment']",Solapur
29,Gangamai Hospital,"279/2, Plot no:1 Modi Khana, behind the Railway Station, Maharashtra 413007, India",ChIJ9QEBB57QxTsRsVg2_gKlE0c,17.6567535,75.89724269999999,"['hospital', 'health', 'point_of_interest', 'establishment']",Solapur
30,"Adke Hospital,Solapur,India.","1/1P,North Sadar Bazar, near Civil Hospital, Solapur, Maharashtra 413003, India",ChIJ28I02XHaxTsRzzzSHeLIg9A,17.6590032,75.9129349,"['hospital', 'health', 'point_of_interest', 'establishment']",Solapur
31,YUGANDHAR MULTISPACIALITY HOSPITAL,"283/1CB, Hotgi Rd, Majrewadi, Solapur, Maharashtra 413224, India",ChIJr2q4OYnZxTsR_BQToCIiSaE,17.6320096,75.9254646,"['hospital', 'health', 'point_of_interest', 'establishment']",Solapur
32,Dr Kirpekar's Utkarsh Hospital Pvt Ltd,"1640, Vijapur Rd, Civil Lines, Navi Peth, Solapur, Maharashtra 413003, India",ChIJqT1xnXPaxTsRNaa6hEKbTHA,17.6554545,75.90623049999999,"['hospital', 'health', 'point_of_interest', 'establishment']",Solapur
33,Valsangkar Hospital : Neurosurgeon | Neurologist | Headache & Tumors Specialist | Brain Stroke & Hemorrhage | EEG | Parkinson | Migraine Treatment | Disc Prolapse | Head Injury | Endoscopic Neurosurgery in Solapur,"S P Institute Of Neuro Sciences Ramwadi Road, Solapur HO, Railway Crossing, near Modi, Solapur, Maharashtra 413001, India",ChIJuZDn8Z7QxTsR7N4lkQFQL60,17.6573335,75.8962798,"['hospital', 'doctor', 'health', 'point_of_interest', 'establishment']",Solapur
34,Apex Hospital प्रणित,"Sainath Nagar, Solapur, Maharashtra 413007, India",ChIJR4oSuBHaxTsRpm58bSLM8Co,17.6467937,75.9129849,"['hospital', 'health', 'point_of_interest', 'establishment']",Solapur
35,Dr. Metan Hospital,"19 Jodbhavi peth, Kanna chowk, near Bakale Collections, Solapur, Maharashtra 413002, India",ChIJZR78RHHaxTsRiYBoyIo0s0g,17.6785536,75.9145386,"['hospital', 'doctor', 'health', 'point_of_interest', 'establishment']",Solapur
36,Dhanraj Girji Charitable Trust Hospital,"Station Rd, near BA Chowk, Railway lines, Murarji Peth, Solapur, Maharashtra 413001, India",ChIJ5QPjXoraxTsRZQCmzLpYdK4,17.6700421,75.8993703,"['hospital', 'health', 'point_of_interest', 'establishment']",Solapur
37,SPAN Hospital,"165, Railway Lines Near Suyash Classes & Back Side Of dominose Piza Sat Rasta, Maharashtra 413001, India",ChIJMfegMnHaxTsRlhYHie0B2TI,17.6626612,75.90603870000001,"['hospital', 'health', 'point_of_interest', 'establishment']",Solapur
38,"Raut Accident , Maternity and ENT Hospital","157, 1, Railway Lines Rd, near dhruv hotel, Old Employment Chowk, Sidheshwar Peth, Solapur, Maharashtra 413001, India",ChIJUSp0k3faxTsRTWJop9NKtP0,17.6644228,75.9014923,"['hospital', 'doctor', 'health', 'point_of_interest', 'establishment']",Solapur
39,Saifee Hospital,"370/6-7, Gil Road, Mustin, New Paccha peth, Solapur, Maharashtra 413005, India",ChIJk1QjLXvaxTsRH_ihbg0uJcY,17.6696038,75.91141379999999,"['hospital', 'health', 'point_of_interest', 'establishment']",Solapur
40,Dr.Baldawa Hospital,"New Budhwar Peth, Solapur, Maharashtra 413002, India",ChIJvSIbuIPaxTsRXnCvUy4uMsU,17.6843517,75.9035318,"['hospital', 'health', 'point_of_interest', 'establishment']",Solapur
41,Katikar Hospital,"111, Rupa Bhavani Rd, Modi Khana, Keshav Nagra, Solapur, Maharashtra 413001, India",ChIJv8FXQHTaxTsRJbGxW9_pxEs,17.6582272,75.9041155,"['hospital', 'health', 'point_of_interest', 'establishment']",Solapur
42,Aadhar Psychiatry Hospital,"Vijapur Rd, Moraya Society, Solapur, Maharashtra 413004, India",ChIJjUzuAwraxTsRXxoH1RXgBaU,17.6482796,75.9002022,"['hospital', 'health', 'point_of_interest', 'establishment']",Solapur
43,Shiv Santoshi Hospital,"Murarji Peth, Solapur, Maharashtra, India",ChIJTXRZsH7QxTsR1YW60WYZ5qo,17.683083,75.8953159,"['hospital', 'health', 'point_of_interest', 'establishment']",Solapur
44,Wachche Hospital,"Vishal Nagar, Jule, Solapur, Maharashtra 413004, India",ChIJw0TsvAbaxTsRAcLoUyD9fIs,17.6379124,75.90482829999999,"['hospital', 'health', 'point_of_interest', 'establishment']",Solapur
45,Darasha Maternity Hospital,"Jawaharlal Housing Society, Keshav Nagra, Solapur, Maharashtra 413003, India",ChIJM_rrknLaxTsRmX-EkszPvw8,17.6565266,75.91011189999999,"['hospital', 'health', 'point_of_interest', 'establishment']",Solapur
46,S.L.HOSPITAL SOLAPUR,"Hotgi Rd, opp. pathe foods, Sainath Nagar, Solapur, Maharashtra 413003, India",ChIJQ8cMAFPbxTsRwMqW87J7XQI,17.6467017,75.9125474,"['health', 'point_of_interest', 'establishment']",Solapur
47,Yajurvedi Hospital,"Adhyapak Nagar, Konark Nagar, Jule, Solapur, Maharashtra 413004, India",ChIJFZoM_wfaxTsRUkiVrmjDJqY,17.6419488,75.8999655,"['hospital', 'health', 'point_of_interest', 'establishment']",Solapur
48,Life Line Hospital And Research Center,"No .-3, Hotgi Rd, Vikas Nagar, Ratandeep Housing Society, Solapur, Maharashtra 413004, India",ChIJD2HNSBnaxTsR9Zt8dU2CD7c,17.6382938,75.91838589999999,"['hospital', 'health', 'point_of_interest', 'establishment']",Solapur
49,Agrawal Nursing Home,"131, Railway Line, Railway lines, Keshav Nagra, Solapur, Maharashtra 413001, India",ChIJH28_KZ3QxTsRGWQ1hHqtoiA,17.664636,75.8972575,"['hospital', 'health', 'point_of_interest', 'establishment']",Solapur
50,Sarda Hospital,"Old Hyderabad Rd, New Budhwar Peth, Solapur, Maharashtra 413002, India",ChIJo3Nr9YLaxTsR0DtVcf7Ws_8,17.685619,75.901383,"['hospital', 'health', 'point_of_interest', 'establishment']",Solapur
51,Joshi Clinic Multispecialist Hospital And I.C.U,"Old Employment Chowk, Railway lines, Solapur, Maharashtra 413001, India",ChIJey0hlHfaxTsREbfu57m9jfs,17.6642196,75.9016683,"['hospital', 'health', 'point_of_interest', 'establishment']",Solapur
52,Kelkar Hospital,"datta chowk, Shinde Wada, Bhadravathi Peth, Solapur, Maharashtra 413005, India",ChIJBxNoEn7axTsR1ncqhQ-DPkw,17.6761552,75.9050824,"['hospital', 'health', 'point_of_interest', 'establishment']",Solapur
53,Ayurvedic Hospital,"Murarji Peth, Solapur, Maharashtra 413002, India",ChIJ0cx6Xn_axTsRcBhJl3PLjeg,17.6724042,75.8999943,"['hospital', 'health', 'point_of_interest', 'establishment']",Solapur
54,Gaikwad Hospital,"Bapuji Nagar, Jawaharlal Housing Society, Sakhar Peth, Solapur, Maharashtra 413006, India",ChIJY5eLvGnaxTsR_spo1omtwQ4,17.6625826,75.9208196,"['hospital', 'health', 'point_of_interest', 'establishment']",Solapur
55,Dr Birajdar Hospital,"Nirale wasti road, panjrapol chowk, Solapur, Maharashtra 413001, India",ChIJ5QPjXoraxTsRWGQSl-jcSrs,17.6599738,75.9064756,"['hospital', 'health', 'point_of_interest', 'establishment']",Solapur
56,Karvekar Hospital,"Model Colony, Jule, Solapur, Maharashtra 413224, India",ChIJaXkOThnaxTsRLfR7HdqFCWw,17.6380808,75.9180832,"['hospital', 'health', 'point_of_interest', 'establishment']",Solapur
57,Aparna Hospital,"518, Datta Chowk, Opposite Deshpande Complex, South Kasba, Solapur, Maharashtra 413007, India",ChIJ5QPjXoraxTsRsbu6JsdtD20,17.6779421,75.9047728,"['hospital', 'health', 'point_of_interest', 'establishment']",Solapur
58,Kumthekar Multi Speciality Hospital & Cancer Research Center,"S. No. 12/A/4, Main Road, Jule Solapur, Solapur, Maharashtra 413004, India",ChIJYcpNhgLaxTsRFW4_hcR3CDI,17.631823,75.908778,"['hospital', 'health', 'point_of_interest', 'establishment']",Solapur
59,Dantkale Hospital,"Vijay Housing Society, Konark Nagar, Jule, Solapur, Maharashtra 413004, India",ChIJyVLsh6fQxTsRCedn2t4jUNI,17.6451392,75.8997548,"['hospital', 'health', 'point_of_interest', 'establishment']",Solapur
