,place_name,address,place_id,latitude,longitude,types,city
0,Komal Hospital,"Shiv Nagar Colony, Udgir, Maharashtra 413517, India",ChIJGRomYBaqzzsRHjXyQJ52OR4,18.3856627,77.11789089999999,"['hospital', 'health', 'point_of_interest', 'establishment']",Udgir
1,Udgir Hospital And Medical Store,"Church Rd, Nai Abadi, Khadkali, Udgir, Maharashtra 413517, India",ChIJz0aVzD2qzzsR45DbaUiKafc,18.3925419,77.11875909999999,"['hospital', 'health', 'point_of_interest', 'establishment']",Udgir
2,Indumati Hospital,"Ram Nagar, Khadkali, Udgir, Maharashtra 413517, India",ChIJkd2Pzz-qzzsRCYWLstc8EfM,18.3908961,77.1233049,"['hospital', 'health', 'point_of_interest', 'establishment']",Udgir
3,Attar hospital üè•,"Udgir - Bidar Rd, Shiv Nagar Colony, Ramchandra Nagar, Udgir, Maharashtra 413517, India",ChIJUYjE5ROqzzsRzSyhS9SnyvU,18.3827916,77.1204407,"['hospital', 'health', 'point_of_interest', 'establishment']",Udgir
4,Lifecare Hospital and Research Centre,"267/3, Anandmayee Marg,, Udgir, Maharashtra 413517, India",ChIJ5cDv9WSqzzsRgdgipXWEy6A,18.386288,77.138015,"['hospital', 'health', 'point_of_interest', 'establishment']",Udgir
5,YEROLKAR Hospital,"Degloor Rd, Ram Nagar, Khadkali, Udgir, Maharashtra 413517, India",ChIJg-L13BWqzzsRag8mlfqJESU,18.3881007,77.12027379999999,"['hospital', 'health', 'point_of_interest', 'establishment']",Udgir
6,Ashwini Multispeciality Hospital,"Opp. Bus Stand, Shivaji Society, near Prajapita Brahmakumari, Udgir, Maharashtra 413517, India",ChIJ7xdQjXarzzsRqX1W1DNVLfs,18.385874,77.1173397,"['hospital', 'health', 'point_of_interest', 'establishment']",Udgir
7,Yernale Hospital,"Udgir - Degloor Rd, Ram Nagar, Vikas Nagar, Udgir, Maharashtra 413517, India",ChIJSeXk3hWqzzsRiIzsUriyza0,18.3908464,77.1234565,"['hospital', 'health', 'point_of_interest', 'establishment']",Udgir
8,"Udaygiri Multispeciality, Udgir","Sahajeevan Colony,Shelhal Road, near Kalpana Theatre, Udgir, Maharashtra 413517, India",ChIJ9Zx8cxOqzzsRjE7ZOtJZupA,18.3828848,77.1230099,"['hospital', 'health', 'point_of_interest', 'establishment']",Udgir
9,Mangal Hospital,"Opp. Dudhiya Hanuman, Bidar Road, Udgir, Maharashtra 413517, India",ChIJWasivhaqzzsRccQJ7ybt7eg,18.385303,77.118582,"['hospital', 'health', 'point_of_interest', 'establishment']",Udgir
10,Sudha Memorial Hospital,"Ram Nagar, Khadkali, Udgir, Maharashtra 413517, India",ChIJ_9IdfxWqzzsRBwVmbBZnO-w,18.3897504,77.12280729999999,"['hospital', 'health', 'point_of_interest', 'establishment']",Udgir
11,Mustapure Bal Rugnalay,"Yashwant Society, Opp Dudhiya Hanuman, Udgir, Maharashtra 413517, India",ChIJz1NcuBaqzzsRSYXcp0P6NiI,18.384759,77.118416,"['hospital', 'health', 'point_of_interest', 'establishment']",Udgir
12,Dhone Hospital,"ahilyadevi holkar nagar, Shelhal Rd, Vikas Nagar, Udgir, Maharashtra 413517, India",ChIJfUgPpxOqzzsR3HUef9X9bDQ,18.3821852,77.1224989,"['hospital', 'health', 'point_of_interest', 'establishment']",Udgir
13,Chambule Hospital,"Vikas Nagar, Udgir, Maharashtra 413517, India",ChIJ7QJ6cxOqzzsRBCGfxfr0plw,18.3829007,77.123031,"['hospital', 'health', 'point_of_interest', 'establishment']",Udgir
14,Amit Clinic,"4/1/496, Udgir - Nanded Rd, Ramchandra Nagar, Udgir, Maharashtra 413517, India",ChIJ51vQBSOqzzsR42OZ_oFGMdQ,18.3927254,77.11151629999999,"['hospital', 'health', 'point_of_interest', 'establishment']",Udgir
15,Kendre ENT Hospital,"Udgir - Degloor Rd, Shrikrishna Colony, Shivneri, Udgir, Maharashtra 413517, India",ChIJNWXkpWqqzzsRaV7e7JsI1EA,18.3897887,77.126161,"['hospital', 'health', 'point_of_interest', 'establishment']",Udgir
16,Fatema Hospital,"Church Rd, Khadkali, Udgir, Maharashtra 413517, India",ChIJd27asj2qzzsR4XNE6gVdT_k,18.3925397,77.1177414,"['hospital', 'health', 'point_of_interest', 'establishment']",Udgir
17,Baheti Hospital,"Railway Station Rd, Ramchandra Nagar, Udgir, Maharashtra 413517, India",ChIJ6-DWBSOqzzsRZEeKyk2iOeQ,18.3927191,77.1114975,"['hospital', 'health', 'point_of_interest', 'establishment']",Udgir
18,Dnyaneshwar Hospital,"Mondha Road, Shiv Nagar Colony, Vikas Nagar, Udgir, Maharashtra 413517, India",ChIJIajyeAirzzsRKUGEAlO1aI0,18.3874594,77.1169683,"['hospital', 'health', 'point_of_interest', 'establishment']",Udgir
19,Chamwad BAL Rugnalaya,"near Ram Mandir, Jijau Nagar, Ramchandra Nagar, Udgir, Maharashtra 413517, India",ChIJ_fGZQiOqzzsR1ACTwd5HdLw,18.3942881,77.1126008,"['hospital', 'health', 'point_of_interest', 'establishment']",Udgir
20,Yeshwant Eye Hospital And Phaco Center,"Ram Nagar, Khadkali, Udgir, Maharashtra 413517, India",ChIJ1RnbHBaqzzsRqCcHJlpsXUk,18.3895204,77.1189739,"['hospital', 'health', 'point_of_interest', 'establishment']",Udgir
21,Parbhanikar Hospital,"Jijau Nagar, Ramchandra Nagar, Udgir, Maharashtra 413517, India",ChIJNfOMfjyqzzsROvxsf4NSvE0,18.3951656,77.11709429999999,"['hospital', 'health', 'point_of_interest', 'establishment']",Udgir
22,"Naikwade Dental Clinic,Root canal And Implant centre Udgir.","Near Axis Bank, Degloor Rd, opposite to YEROLKAR Hospital, Udgir, Maharashtra 413517, India",ChIJBZTSq8mrzzsR8O4hi2p27yM,18.3879481,77.12058499999999,"['hospital', 'health', 'point_of_interest', 'establishment']",Udgir
23,Samge Hospital,"MH SH 217, Malkapur, Udgir, Maharashtra 413517, India",ChIJk1LQfyiqzzsRlOM_X9WL3_0,18.4005975,77.1053311,"['hospital', 'health', 'point_of_interest', 'establishment']",Udgir
24,Hayat clinic,"Khadkali, Udgir, Maharashtra 413517, India",ChIJsS7DQTmqzzsRI4u4McUgRFM,18.3960466,77.1208091,"['hospital', 'health', 'point_of_interest', 'establishment']",Udgir
25,Jeevandeeep hospital,"MH SH 168, Vikas Nagar, Udgir, Maharashtra 413517, India",ChIJR7YW0furzzsRVmGLtGqt8Cc,18.3894575,77.1250884,"['hospital', 'health', 'point_of_interest', 'establishment']",Udgir
26,Yashwant eye hospital,"Nai Abadi, Ramchandra Nagar, Udgir, Maharashtra 413517, India",ChIJM17d0HCrzzsRDz2q1noQqu0,18.3942882,77.11260089999999,"['hospital', 'health', 'point_of_interest', 'establishment']",Udgir
27,Shree Optical,"Nanded Naka, near More eye hospital, Udgir, Maharashtra 413517, India",ChIJmU0QaaWrzzsR6U9gVueN6Jc,18.3982526,77.1073597,"['hospital', 'health', 'point_of_interest', 'establishment']",Udgir
28,Naik Hospital,"Ram Nagar, Khadkali, Udgir, Maharashtra 413517, India",ChIJa0-q8D2qzzsRjUH9_VFms3s,18.3901238,77.1190211,"['hospital', 'health', 'point_of_interest', 'establishment']",Udgir
29,Alfa Clinic,"Khadkali, Udgir, Maharashtra 413517, India",ChIJDz9lezyqzzsR13c3eoaygEY,18.3948249,77.1172515,"['hospital', 'health', 'point_of_interest', 'establishment']",Udgir
30,Apex Lab,"Chowbara Rd, Jijau Nagar, Khadkali, Udgir, Maharashtra 413517, India",ChIJyTlQfDyqzzsR3BkICM5nPf0,18.3949292,77.11709189999999,"['hospital', 'health', 'point_of_interest', 'establishment']",Udgir
31,"Sub District Hospital, Udgir","opposite Shivaji College, Nai Abadi, Khadkali, Udgir, Maharashtra 413517, India",ChIJmZlBlD2qzzsRgEKKu5xlKPQ,18.3908706,77.1180619,"['hospital', 'health', 'point_of_interest', 'establishment']",Udgir
32,Biradar dental clinic,"Malkapur, Udgir, Maharashtra 413517, India",ChIJJ9VrMoipzzsRXyHyS1fAKe0,18.3975406,77.10169239999999,"['hospital', 'health', 'point_of_interest', 'establishment']",Udgir
33,Kumarswami Hospital,"Off, Degloor Rd, Vikas Nagar, Udgir, Maharashtra 413517, India",ChIJb-y8zBWqzzsRMzSYKz6EG_U,18.3870289,77.1207786,"['hospital', 'health', 'point_of_interest', 'establishment']",Udgir
34,MAULI HOSPITAL,"Mondha Road, Yashwant Colony, Vikas Nagar, Udgir, Maharashtra 413517, India",ChIJiXUtiheqzzsRMUm9EuWEeUw,18.3876337,77.114167,"['hospital', 'health', 'point_of_interest', 'establishment']",Udgir
35,Mauli Accident and skin Care Hospital,"Degloor Rd, opposite Kumarswami Hospital, Ram Nagar, Khadkali, Udgir, Maharashtra 413517, India",ChIJreqHoqCrzzsR3v4uTdN5jZQ,18.3881007,77.12027379999999,"['hospital', 'health', 'point_of_interest', 'establishment']",Udgir
36,Kalyani Orthopedic Centre And Accident Hospital,"Vikas Nagar, Udgir, Maharashtra 413517, India",ChIJ0ZxcvhWqzzsRd6XFniDXo1Q,18.3883098,77.1214385,"['health', 'point_of_interest', 'establishment']",Udgir
37,Vijay Speciality Dental Clinic &Impant Center,"Mondha Road, Dist, Shivaji Chowk, Udgir, Maharashtra 413517, India",ChIJDe3LUiyrzzsRQsx-beGK6FU,18.3875406,77.11723099999999,"['hospital', 'health', 'point_of_interest', 'establishment']",Udgir
38,Chole Hospital,"Aurad - Udgir Rd, Shiv Nagar Colony, Vikas Nagar, Udgir, Maharashtra 413517, India",ChIJG9RrHBSqzzsRw3Bw8iQToTg,18.3792284,77.1214871,"['hospital', 'health', 'point_of_interest', 'establishment']",Udgir
39,Spandan hospital,"Rishi heights Sahajivan society Shelhal road 02385 254444, Udgir, Maharashtra 413517, India",ChIJIWSbWMOrzzsRCdZHfnjyHKg,18.3828662,77.1224131,"['doctor', 'hospital', 'health', 'point_of_interest', 'establishment']",Udgir
40,Sanjivani Hospital,"Shiv Nagar Colony, Udgir, Maharashtra 413517, India",ChIJSbguABSqzzsRig87zkZa74k,18.3841161,77.11979079999999,"['hospital', 'health', 'point_of_interest', 'establishment']",Udgir
41,Ever Healthy Hospital,"Opp Prashant Hotel, Nanded Road, MH SH 217, Udgir, Maharashtra 413517, India",ChIJl6DPyimqzzsRKOmFQPoWD8Y,18.4032507,77.1037379,"['hospital', 'health', 'point_of_interest', 'establishment']",Udgir
42,Kumarswami ENT Hospital,"Udgir - Degloor Rd, Ram Nagar, Vikas Nagar, Udgir, Maharashtra 413517, India",ChIJM5s8dhaqzzsRaR57IG-njCM,18.3878599,77.1196987,"['hospital', 'health', 'point_of_interest', 'establishment']",Udgir
43,Apex Hospital And Vestige Stock Point udgir,"413517, Jijau Nagar, Ramchandra Nagar, Udgir, Maharashtra 413517, India",ChIJn5YtfDyqzzsRT2jR_9TYgQE,18.395018,77.1170812,"['hospital', 'health', 'point_of_interest', 'establishment']",Udgir
44,Rukmini Diabetes Care Center,"Maharashtra, Shrikrishna Colony, Vikas Nagar, Udgir, Maharashtra 413517, India",ChIJ_xvdrmqqzzsRbjenX6JTjfk,18.3897778,77.126007,"['hospital', 'health', 'point_of_interest', 'establishment']",Udgir
45,Jagatap hospital udgir,"Unnamed Road, Shiv Nagar Colony, Vikas Nagar, Udgir, Maharashtra 413517, India",ChIJLcORFRCrzzsR9m2q_yH-B3c,18.3853191,77.1184461,"['hospital', 'health', 'point_of_interest', 'establishment']",Udgir
46,Fatima Maternity Hospital,"Church Rd, Khadkali, Udgir, Maharashtra 413517, India",ChIJgbFTuICrzzsRrn-ITBAkPuw,18.392534,77.117702,"['hospital', 'health', 'point_of_interest', 'establishment']",Udgir
47,"Rukmai Dental Clinic, Udgir","Nagar Parishad Complex, A wing, below gayatri fastfood, Udgir, Maharashtra 413517, India",ChIJtbln8z2qzzsRjhcNAqmr988,18.3901484,77.1184723,"['dentist', 'health', 'point_of_interest', 'establishment']",Udgir
48,Gangai hospital,"Nideban Rd, Venkatesh Nagar, Vikas Nagar, Udgir, Maharashtra 413517, India",ChIJAQAAmW6qzzsR_hTP-PpOXaM,18.3831586,77.1318165,"['hospital', 'health', 'point_of_interest', 'establishment']",Udgir
49,OM hospital,"Yashwant Colony, Udgir, Maharashtra 413517, India",ChIJz7b0AD2rzzsRHgRgS5XDsVg,18.386893,77.1149569,"['hospital', 'health', 'point_of_interest', 'establishment']",Udgir
50,Kauthale Hospital,"Unnamed Road, Ram Nagar, Khadkali, Udgir, Maharashtra 413517, India",ChIJSaIfrFOrzzsR5uCwhk0aYWg,18.3885217,77.1201832,"['hospital', 'health', 'point_of_interest', 'establishment']",Udgir
51,Shree Ashture Hospital,"Shahu Chouk, Vikas Nagar, Udgir, Maharashtra 413517, India",ChIJfVRQreirzzsRRTIIrPP6KW4,18.3821138,77.1217502,"['hospital', 'health', 'point_of_interest', 'establishment']",Udgir
52,Swami hospital & Joints Fracture Clinic,"Shiv Nagar Colony, Udgir, Maharashtra 413517, India",ChIJ9RvXGmSrzzsR1JBAhxWlivQ,18.3859471,77.117727,"['hospital', 'health', 'point_of_interest', 'establishment']",Udgir
53,‡§∏‡•ç‡§™‡§Ç‡§¶‡§® ‡§π‡§æ‡•Ö‡§∏‡•ç‡§™‡§ø‡§ü‡§≤ & ‡§ï‡•ç‡§∞‡§ø‡§ü‡•Ä‡§ï‡§≤ ‡§ï‡•á‡§Ö‡§∞ ‡§∏‡•á‡§Ç‡§ü‡§∞,"Aurad - Udgir Rd, Vikas Nagar, Udgir, Maharashtra 413517, India",ChIJy1lqDhyrzzsRiCL8FDP44ZI,18.3828422,77.122609,"['hospital', 'health', 'point_of_interest', 'establishment']",Udgir
54,Sangavani Hospital,"Shiv Nagar Colony, Udgir, Maharashtra 413517, India",ChIJV6ghAhSqzzsRndlfVyiJgyc,18.3843573,77.1198526,"['hospital', 'health', 'point_of_interest', 'establishment']",Udgir
55,Dr Chidre Hospital,"Aurad - Udgir Rd, Khatib Colony, Vikas Nagar, Udgir, Maharashtra 413517, India",ChIJQyp3kROqzzsRUkWBXglusyI,18.3832066,77.12161119999999,"['hospital', 'health', 'point_of_interest', 'establishment']",Udgir
56,Dr Children hospital,"Shiv Nagar Colony, Udgir, Maharashtra 413517, India",ChIJy6JRvxaqzzsRQDSw6fYOtuA,18.3849974,77.1183502,"['hospital', 'health', 'point_of_interest', 'establishment']",Udgir
57,Care Clinic,"Vikas Nagar, Udgir, Maharashtra 413517, India",ChIJf5OFKBOqzzsR0YZ6EaybZqw,18.3816204,77.12482709999999,"['hospital', 'health', 'point_of_interest', 'establishment']",Udgir
58,City Primary Health Care Centre Udgir,"Gandhi Nagar, Ramchandra Nagar, Udgir, Maharashtra 413517, India",ChIJscth-DKrzzsRGq_3BP-hpBE,18.395674,77.1131541,"['hospital', 'health', 'point_of_interest', 'establishment']",Udgir
59,"Sule Diagnostic Center, Udgir","Degloor Rd, Ram Nagar, Shivaji Chowk, Udgir, Maharashtra 413517, India",ChIJ90Z-Cs2rzzsROjp6aFCEu9Y,18.3878521,77.1196836,"['hospital', 'health', 'point_of_interest', 'establishment']",Udgir
