,place_name,address,place_id,latitude,longitude,types,city
0,Cortex Hospital IN Wardha,"Sudampuri, Wardha, Maharashtra 442001, India",ChIJXVhZZw9_1DsRmnwQttFt3jo,20.7490736,78.6051119,"['hospital', 'health', 'point_of_interest', 'establishment']",Wardha
1,Acharya Vinoba Bhave Rural Hospital,"Datta Meghe Institute of Medical Sciences, Wardha, Maharashtra 442001, India",ChIJ3QvNCFd_1DsRp2pVjtGTFsg,20.7153262,78.5729417,"['hospital', 'health', 'point_of_interest', 'establishment']",Wardha
2,Shwas Multispecialty Hospital,"MG Rd, Maganwadi, Wardha, Maharashtra 442001, India",ChIJva2XQRR_1DsRvgk2Q5u4JsQ,20.7403495,78.5929298,"['hospital', 'health', 'point_of_interest', 'establishment']",Wardha
3,Sushrut Hospital,"Wardha - Sevagram Rd, Near Sai Mangal Karyalay, MIDC, Wardha, Maharashtra 442001, India",ChIJ30j4Ogp_1DsR02FT6ForIAk,20.7423194,78.60950729999999,"['hospital', 'health', 'point_of_interest', 'establishment']",Wardha
4,Dr Bhaimare's Sanjeevan Eye Hospital Wardha,"Sudampuri, Wardha, Maharashtra 442001, India",ChIJM3fpDxJ_1DsRStI5PBaD4cA,20.7417281,78.59950189999999,"['hospital', 'health', 'point_of_interest', 'establishment']",Wardha
5,Jain Hospital,"Police Station, Infont of, Bachelor Road, Ramnagar, Wardha, Maharashtra 442001, India",ChIJQYW4fRZ_1DsR50KR9UVI7Go,20.7417852,78.5936917,"['hospital', 'health', 'point_of_interest', 'establishment']",Wardha
6,"District General Hospital, Wardha","Mahadevpura, Wardha, Maharashtra 442001, India",ChIJPdBbJw1_1DsR9QGk_D8AXQA,20.7379402,78.6029616,"['hospital', 'health', 'point_of_interest', 'establishment']",Wardha
7,Sanjeevan Hospital,"Ground Near Circus, Tukaram Ward, Ramnagar, Wardha, Maharashtra 442001, India",ChIJZy_HyxV_1DsRktoP20N_b4k,20.740822,78.59137489999999,"['hospital', 'health', 'point_of_interest', 'establishment']",Wardha
8,Vanmali Hospital,"Wardha,, Nalwadi, Wardha, Maharashtra 442001, India",ChIJm4zDq6Z_1DsRX3ImiI-ZZWY,20.7440151,78.61693249999999,"['hospital', 'health', 'point_of_interest', 'establishment']",Wardha
9,Satpute Hospital Gandhi Nagar Wardha,"Arvi Rd, Gandhi Nagar, Sudampuri, Wardha, Maharashtra 442001, India",ChIJo002pwh_1DsR2PJyVIIwI64,20.7518653,78.60201510000002,"['hospital', 'health', 'point_of_interest', 'establishment']",Wardha
10,hivlekar hospital,"442001, Gitainagar, Nalwadi, Wardha, Maharashtra 442001, India",ChIJT6X6dqh_1DsR9lNNRxaSg5s,20.7495697,78.61340919999999,"['hospital', 'health', 'point_of_interest', 'establishment']",Wardha
11,"Arnam Hospital,Wardha","Kelkarwadi, Sudampuri, Wardha, Maharashtra 442001, India",ChIJZVUDbYR_1DsRoc5G0jWXVtQ,20.7502674,78.6002663,"['hospital', 'health', 'point_of_interest', 'establishment']",Wardha
12,Vatsalya Pawade NURSING Home,"Bachelor Road, Sudampuri, Wardha, Maharashtra 442001, India",ChIJ7cC7WhB_1DsRSDwwn4HoosA,20.7491756,78.5990262,"['hospital', 'health', 'point_of_interest', 'establishment']",Wardha
13,Gupta Hospital And Cardiology Centre,"Near New English High School, Mahadevpura, Wardha, Maharashtra 442001, India",ChIJU6Vibw5_1DsRQUu7aLUi3_o,20.7437117,78.6022545,"['hospital', 'health', 'point_of_interest', 'establishment']",Wardha
14,sai multispeciality hospital,"Gitainagar, Nalwadi, Wardha, Maharashtra 442001, India",ChIJT6xsY6h_1DsRpAiPP6IolJM,20.7502385,78.6140707,"['hospital', 'health', 'point_of_interest', 'establishment']",Wardha
15,Dr Gandhi Hospital,"Bachelor Road, Mangpura, Sudampuri, Wardha, Maharashtra 442001, India",ChIJMX2-bBB_1DsRfuPnSXTj590,20.7473283,78.59865099999999,"['hospital', 'health', 'point_of_interest', 'establishment']",Wardha
16,Madhavbaug Clinic Wardha,"Bachelor Road, near Sheetal Mangal Karyala, Gandhi Nagar, Sudampuri, Wardha, Maharashtra 442001, India",ChIJl_0xYgN_1DsRm9XL_ofDWOs,20.751956,78.600257,"['hospital', 'health', 'point_of_interest', 'establishment']",Wardha
17,Cortex Hospital,"Nagpur Road, Aarti square, Maganwadi, Wardha, Maharashtra 442001, India",ChIJ-ewpyxN_1DsRrnbHy38Zp6s,20.7411133,78.59728419999999,"['hospital', 'health', 'point_of_interest', 'establishment']",Wardha
18,Dr Vijay Bhalavi,"Narmada Layout,Plot No.43, Sevagram Rd, 442003, Warud, Wardha, Maharashtra 442003, India",ChIJg5IGZd1_1DsRBnvTRoDao_E,20.740449,78.647515,"['hospital', 'health', 'point_of_interest', 'establishment']",Wardha
19,Kasturba Hospital,"Sevagram, Maharashtra 442102, India",ChIJ09vCjHeB1DsRg_FMUo3TxgY,20.7396713,78.65926019999999,"['hospital', 'health', 'point_of_interest', 'establishment']",Wardha
20,Nature Homoeopath Hawaldarpura Main Road Wardha,"Main Road, Hawaldarpura, Wardha, Maharashtra 442001, India",ChIJS1-JI_5v0zsR9o1uSN8oNEw,20.743007,78.5980678,"['hospital', 'health', 'point_of_interest', 'establishment']",Wardha
21,Panpaliya Clinic,"442001, Nalwadi, Wardha, Maharashtra 442001, India",ChIJleHpnaN_1DsRHvi912vJq8o,20.7428669,78.61992459999999,"['hospital', 'health', 'point_of_interest', 'establishment']",Wardha
22,HIWARALE HOSPITAL,"Mhasala, Nalwadi, Wardha, Maharashtra 442001, India",ChIJF-CRXLt_1DsRAv52bmEat4I,20.7447549,78.623975,"['hospital', 'health', 'point_of_interest', 'establishment']",Wardha
23,daigavane eye and dental clinic,"layout, Srinagar, Bachelor Road, Arvi Naka, Wardha, Maharashtra 442001, India",ChIJb5Ho-Tt_1DsR9iCFIuQNOYk,20.7540711,78.6061697,"['hospital', 'health', 'point_of_interest', 'establishment']",Wardha
24,Kilbil Hospital,"Pipri, Wardha, Maharashtra 442001, India",ChIJe4R4s-J-1DsRiyQKJMNUvI8,20.7612627,78.59997229999999,"['hospital', 'health', 'point_of_interest', 'establishment']",Wardha
25,Yelne Hospital And Medical,"Alodi, Wardha, Maharashtra 442001, India",ChIJSRN_jKl_1DsR1FJVls7uKhU,20.7548244,78.61311110000001,"['hospital', 'health', 'point_of_interest', 'establishment']",Wardha
26,siddhivinayak balrugnalaya,"Bachelor Road, Gandhi Nagar, Sudampuri, Wardha, Maharashtra 442001, India",ChIJtbIKhwN_1DsR6l277sj8Dmk,20.7545281,78.6034804,"['hospital', 'health', 'point_of_interest', 'establishment']",Wardha
27,Mutyalwar Ayurvedic Hospital,"Pipri, Wardha, Maharashtra 442001, India",ChIJRS5fE_l-1DsRm5mjjKIVo0k,20.7684026,78.6073115,"['hospital', 'health', 'point_of_interest', 'establishment']",Wardha
28,Bhise Nursing Home,"Bachelor Road, Sudampuri, Wardha, Maharashtra 442001, India",ChIJY4jJrRF_1DsRgXP9zkFOY-o,20.7450852,78.5978124,"['hospital', 'health', 'point_of_interest', 'establishment']",Wardha
29,Dr. Rizvi's Hospital,"Mahadevpura, Wardha, Maharashtra 442001, India",ChIJzb9tYAx_1DsRQjsC20oDl_I,20.7400435,78.6044553,"['hospital', 'health', 'point_of_interest', 'establishment']",Wardha
30,Dr. Lokhande Hospital,"Tukaram Ward, Ramnagar, Wardha, Maharashtra 442001, India",ChIJS9SwzhV_1DsR3QQZTYcBY_U,20.7409214,78.5912132,"['hospital', 'health', 'point_of_interest', 'establishment']",Wardha
31,Dr. Kher's Sainath Nursing Home,"Leprosy Foundation Rd, opp. Gangasagar water tank, Ramnagar, Wardha, Maharashtra 442001, India",ChIJtYSHBxR_1DsR7l1UTYrcDqI,20.7416086,78.5944662,"['hospital', 'health', 'point_of_interest', 'establishment']",Wardha
32,Chandrabhaga Hospital of Physiotherapy,"Snehalnagar, Nalwadi, Wardha, Maharashtra 442001, India",ChIJC-b69KN_1DsR9cAjcBK3duY,20.743403,78.6184304,"['hospital', 'health', 'point_of_interest', 'establishment']",Wardha
33,HAKIM AMIR MIYA HOSPITAL,"Mahadevpura, Wardha, Maharashtra 442001, India",ChIJ4ywQjgx_1DsROm3K-Z01VMs,20.7392812,78.60480629999999,"['hospital', 'health', 'point_of_interest', 'establishment']",Wardha
34,Dirghayu Ayurved Chikitsalaya And Panchakarma Center.,"Nalwadi, Wardha, Maharashtra 442001, India",ChIJwyjrhrJ_1DsRcEcUnL1n9TY,20.7590337,78.62333550000001,"['hospital', 'doctor', 'health', 'point_of_interest', 'establishment']",Wardha
35,Pawde Nursing Home,"Sudampuri, Wardha, Maharashtra 442001, India",ChIJy9cIrRF_1DsRCDmJ5gTkpA4,20.7452081,78.5978643,"['hospital', 'health', 'point_of_interest', 'establishment']",Wardha
36,Krishna Hospital,"Dhantoli, Wardha, Maharashtra 442001, India",ChIJzeWBdhF_1DsRyAg2wm4VXsQ,20.7435473,78.5970913,"['hospital', 'health', 'point_of_interest', 'establishment']",Wardha
37,DHANDE Pain Clinic,"Wardha-Waigaon Rd, Tarfail, Wardha, Maharashtra 442001, India",ChIJMQWFjRh_1DsRj1AoWNm7PM4,20.7290491,78.6004323,"['hospital', 'health', 'point_of_interest', 'establishment']",Wardha
38,Nadim Kashmiri Hakim Amir Hospital,"Mahadevpura, Wardha, Maharashtra 442001, India",ChIJJ5vajwx_1DsRdxE7wOyCjPI,20.7392716,78.60498609999999,"['hospital', 'health', 'point_of_interest', 'establishment']",Wardha
39,Bhagat Doctor,"Alodi, Wardha, Maharashtra 442001, India",ChIJXYOClal_1DsRHsvdz64vlec,20.753765,78.6130974,"['hospital', 'health', 'point_of_interest', 'establishment']",Wardha
40,Dr Nagpure Hospital,"Wardha, Gitainagar, Nalwadi, Wardha, Maharashtra 442001, India",ChIJ8YQXe6h_1DsROgV4pgSL6PM,20.7500058,78.6138521,"['hospital', 'health', 'point_of_interest', 'establishment']",Wardha
41,Tadke Maternity Home,"Maganwadi, Wardha, Maharashtra 442001, India",ChIJA6NftWx_1DsRMVXyToyAwHI,20.7363435,78.59588459999999,"['hospital', 'health', 'point_of_interest', 'establishment']",Wardha
42,Dr. Suhaas Jajoo Hospital,"Mahadevpura, Wardha, Maharashtra 442001, India",ChIJmTCXuA1_1DsRDGcLAPLf40E,20.7411882,78.6020302,"['hospital', 'health', 'point_of_interest', 'establishment']",Wardha
43,Drushti Eye Hospital Dr Shashank Banait,"Malgujaripura, Wardha, Maharashtra 442001, India",ChIJNwqdPhJ_1DsRjxA8sYvh_7s,20.7412873,78.597687,"['hospital', 'health', 'point_of_interest', 'establishment']",Wardha
44,Dr.Ekhar Hospital,"MIDC, Wardha, Maharashtra 442001, India",ChIJOXoZdQx_1DsREehcEzSFsk8,20.7413729,78.6056784,"['hospital', 'health', 'point_of_interest', 'establishment']",Wardha
45,Moon Hosptial,"Bapujiwadi, Ramnagar, Wardha, Maharashtra 442001, India",ChIJ4fKc-BR_1DsR9MALq3h6tSE,20.739094,78.59211239999999,"['hospital', 'health', 'point_of_interest', 'establishment']",Wardha
46,ShaliniTai Meghe Superspeciality Centre,"AVBRH Complex, Sawangi Meghe, Wardha, Maharashtra 442001, India",ChIJn6MTuF9_1DsRhrXqGZVd18Q,20.7154173,78.5736393,"['hospital', 'health', 'point_of_interest', 'establishment']",Wardha
47,Niharika Medical,"Mhasala, Nalwadi, Wardha, Maharashtra 442001, India",ChIJFbjsXLt_1DsRdvjmOuhIeeY,20.7447902,78.62400620000001,"['hospital', 'health', 'point_of_interest', 'establishment']",Wardha
48,Kamala maternity home and pathology laboratory,"Indira Market Rd, opposite Corporation Bank, Maganwadi, Wardha, Maharashtra 442001, India",ChIJDyR0WBx_1DsRKWI5XTVBZfE,20.7401767,78.5977508,"['hospital', 'health', 'point_of_interest', 'establishment']",Wardha
49,Datta Meghe Hospital,"Wardha, Sawangi, Maharashtra 442004, India",ChIJnbOIk1Z_1DsRK5Vf3dtj_Bw,20.7154162,78.5729568,"['hospital', 'health', 'point_of_interest', 'establishment']",Wardha
50,Tuljabhavani Physiotherapy Clinic,"Dhantoli, Wardha, Maharashtra 442001, India",ChIJd6nEcRF_1DsRmCoGeWNqgAw,20.7434624,78.59665269999999,"['hospital', 'health', 'point_of_interest', 'establishment']",Wardha
51,Shrimultispeciality Dental Clinic,"near laxminarayan temple,, Wardha, Maharashtra 442001, India",ChIJvZnIUA1_1DsRGaFq6U0AoMc,20.7373784,78.6005461,"['hospital', 'health', 'point_of_interest', 'establishment']",Wardha
52,गाँधी मेमोरियल लेप्रसी फाउंडेशन वर्धा,"Wardha,, Mahadevpura, Wardha, Maharashtra 442001, India",ChIJaT7nTQ5_1DsRaBcOPrHZmb8,20.745319,78.60219459999999,"['hospital', 'health', 'point_of_interest', 'establishment']",Wardha
53,Kashyap Hospital,"Bachelor Road, Maganwadi, Wardha, Maharashtra 442001, India",ChIJeYSdumx_1DsRvbglTJCuHoo,20.7356446,78.5953263,"['hospital', 'health', 'point_of_interest', 'establishment']",Wardha
54,Dr. Abhijit Khanke,"Pipri, Wardha, Maharashtra 442001, India",ChIJj4eotOJ-1DsRZKXcYYyI8kE,20.7613156,78.60010609999999,"['hospital', 'health', 'point_of_interest', 'establishment']",Wardha
55,Dr. Agrawal Hospital,"Sudampuri, Wardha, Maharashtra 442001, India",ChIJ8_oRhg9_1DsR5SQBIwfzq8Q,20.748483,78.6033001,"['hospital', 'health', 'point_of_interest', 'establishment']",Wardha
56,Shailendra Dhakde Hausa,"Pulfail, Wardha, Maharashtra 442003, India",ChIJZ-zwuHV_1DsR7En2vig-Y7Y,20.7330659,78.6095783,"['hospital', 'health', 'point_of_interest', 'establishment']",Wardha
57,Rajendra Borkar Clinic : Best Child Specialist In Wardha,"Dhantoli, Wardha, Maharashtra 442001, India",ChIJoRfnaZh_1DsRCPLDN4s9AFw,20.7427497,78.5964995,"['hospital', 'doctor', 'health', 'point_of_interest', 'establishment']",Wardha
58,Dr Adalkhiya,"Sudampuri, Wardha, Maharashtra 442001, India",ChIJ5Sw8dRJ_1DsRt-iTndEiJ1g,20.7410286,78.6000353,"['health', 'point_of_interest', 'establishment']",Wardha
59,Dr. Mogre Hospital & Clinic,"Mahadevpura, Wardha, Maharashtra 442001, India",ChIJvSMbUA1_1DsRZ60XCYpNk40,20.7374397,78.6008263,"['hospital', 'health', 'point_of_interest', 'establishment']",Wardha
